"STATION","DATE","LATITUDE","LONGITUDE","ELEVATION","NAME","REPORT_TYPE","SOURCE","HourlyAltimeterSetting","HourlyDewPointTemperature","HourlyDryBulbTemperature","HourlyPrecipitation","HourlyPresentWeatherType","HourlyPressureChange","HourlyPressureTendency","HourlyRelativeHumidity","HourlySkyConditions","HourlySeaLevelPressure","HourlyStationPressure","HourlyVisibility","HourlyWetBulbTemperature","HourlyWindDirection","HourlyWindGustSpeed","HourlyWindSpeed","Sunrise","Sunset","DailyAverageDewPointTemperature","DailyAverageDryBulbTemperature","DailyAverageRelativeHumidity","DailyAverageSeaLevelPressure","DailyAverageStationPressure","DailyAverageWetBulbTemperature","DailyAverageWindSpeed","DailyCoolingDegreeDays","DailyDepartureFromNormalAverageTemperature","DailyHeatingDegreeDays","DailyMaximumDryBulbTemperature","DailyMinimumDryBulbTemperature","DailyPeakWindDirection","DailyPeakWindSpeed","DailyPrecipitation","DailySnowDepth","DailySnowfall","DailySustainedWindDirection","DailySustainedWindSpeed","DailyWeather","MonthlyAverageRH","MonthlyDaysWithGT001Precip","MonthlyDaysWithGT010Precip","MonthlyDaysWithGT32Temp","MonthlyDaysWithGT90Temp","MonthlyDaysWithLT0Temp","MonthlyDaysWithLT32Temp","MonthlyDepartureFromNormalAverageTemperature","MonthlyDepartureFromNormalCoolingDegreeDays","MonthlyDepartureFromNormalHeatingDegreeDays","MonthlyDepartureFromNormalMaximumTemperature","MonthlyDepartureFromNormalMinimumTemperature","MonthlyDepartureFromNormalPrecipitation","MonthlyDewpointTemperature","MonthlyGreatestPrecip","MonthlyGreatestPrecipDate","MonthlyGreatestSnowDepth","MonthlyGreatestSnowDepthDate","MonthlyGreatestSnowfall","MonthlyGreatestSnowfallDate","MonthlyMaxSeaLevelPressureValue","MonthlyMaxSeaLevelPressureValueDate","MonthlyMaxSeaLevelPressureValueTime","MonthlyMaximumTemperature","MonthlyMeanTemperature","MonthlyMinSeaLevelPressureValue","MonthlyMinSeaLevelPressureValueDate","MonthlyMinSeaLevelPressureValueTime","MonthlyMinimumTemperature","MonthlySeaLevelPressure","MonthlyStationPressure","MonthlyTotalLiquidPrecipitation","MonthlyTotalSnowfall","MonthlyWetBulb","AWND","CDSD","CLDD","DSNW","HDSD","HTDD","DYTS","DYHF","NormalsCoolingDegreeDay","NormalsHeatingDegreeDay","ShortDurationEndDate005","ShortDurationEndDate010","ShortDurationEndDate015","ShortDurationEndDate020","ShortDurationEndDate030","ShortDurationEndDate045","ShortDurationEndDate060","ShortDurationEndDate080","ShortDurationEndDate100","ShortDurationEndDate120","ShortDurationEndDate150","ShortDurationEndDate180","ShortDurationPrecipitationValue005","ShortDurationPrecipitationValue010","ShortDurationPrecipitationValue015","ShortDurationPrecipitationValue020","ShortDurationPrecipitationValue030","ShortDurationPrecipitationValue045","ShortDurationPrecipitationValue060","ShortDurationPrecipitationValue080","ShortDurationPrecipitationValue100","ShortDurationPrecipitationValue120","ShortDurationPrecipitationValue150","ShortDurationPrecipitationValue180","REM","BackupDirection","BackupDistance","BackupDistanceUnit","BackupElements","BackupElevation","BackupEquipment","BackupLatitude","BackupLongitude","BackupName","WindEquipmentChangeDate"
"00701899999","2013-07-10T14:44:00","0.0","0.0","7018.0","WXPOD 7018","FM-15","4","30.31","73","86","","","","","66","","","","","","VRB","","6","","","","","","","","","","","","","","","","","","","","","","","","","","","","","","","","","","","","","","","","","","","","","","","","","","","","","","","","","","","","","","","","","","","","","","","","","","","","","","","","","","","","","","","","","","","MET069MOBOB0 METAR 7018 //008 000000 101444Z AUTO VRB05KT //// 30/23 A3031=","","","","","","","","","",""
"00701899999","2013-07-10T14:59:00","0.0","0.0","7018.0","WXPOD 7018","FM-15","4","30.31","73","90","","","","","59","","","","","","VRB","","5","","","","","","","","","","","","","","","","","","","","","","","","","","","","","","","","","","","","","","","","","","","","","","","","","","","","","","","","","","","","","","","","","","","","","","","","","","","","","","","","","","","","","","","","","","","MET069MOBOB0 METAR 7018 //008 000000 101459Z AUTO VRB04KT //// 32/23 A3031=","","","","","","","","","",""
"00701899999","2013-07-10T15:14:00","0.0","0.0","7018.0","WXPOD 7018","FM-15","4","30.31","75","88","","","","","66","","","","","","VRB","","6","","","","","","","","","","","","","","","","","","","","","","","","","","","","","","","","","","","","","","","","","","","","","","","","","","","","","","","","","","","","","","","","","","","","","","","","","","","","","","","","","","","","","","","","","","","MET069MOBOB0 METAR 7018 //008 000000 101514Z AUTO VRB05KT //// 31/24 A3031=","","","","","","","","","",""
"00701899999","2013-07-10T15:29:00","0.0","0.0","7018.0","WXPOD 7018","FM-15","4","30.31","75","88","","","","","66","","","","","","VRB","","6","","","","","","","","","","","","","","","","","","","","","","","","","","","","","","","","","","","","","","","","","","","","","","","","","","","","","","","","","","","","","","","","","","","","","","","","","","","","","","","","","","","","","","","","","","","MET069MOBOB0 METAR 7018 //008 000000 101529Z AUTO VRB05KT //// 31/24 A3031=","","","","","","","","","",""
"00701899999","2013-07-10T15:44:00","0.0","0.0","7018.0","WXPOD 7018","FM-15","4","30.31","73","88","","","","","62","","","","","","VRB","","2","","","","","","","","","","","","","","","","","","","","","","","","","","","","","","","","","","","","","","","","","","","","","","","","","","","","","","","","","","","","","","","","","","","","","","","","","","","","","","","","","","","","","","","","","","","MET069MOBOB0 METAR 7018 //008 000000 101544Z AUTO VRB02KT //// 31/23 A3031=","","","","","","","","","",""
"00701899999","2013-07-10T15:59:00","0.0","0.0","7018.0","WXPOD 7018","FM-15","4","30.03","75","88","","","","","66","","","","","","260","17","11","","","","","","","","","","","","","","","","","","","","","","","","","","","","","","","","","","","","","","","","","","","","","","","","","","","","","","","","","","","","","","","","","","","","","","","","","","","","","","","","","","","","","","","","","","","MET072MOBOB0 METAR 7018 //000 000000 101559Z AUTO 26010G15KT //// 31/24 A3003=","","","","","","","","","",""
"00701899999","2013-07-10T16:14:00","0.0","0.0","7018.0","WXPOD 7018","FM-15","4","30.03","75","90","","","","","63","","","","","","VRB","","7","","","","","","","","","","","","","","","","","","","","","","","","","","","","","","","","","","","","","","","","","","","","","","","","","","","","","","","","","","","","","","","","","","","","","","","","","","","","","","","","","","","","","","","","","","","MET069MOBOB0 METAR 7018 //000 000000 101614Z AUTO VRB06KT //// 32/24 A3003=","","","","","","","","","",""
"00701899999","2013-07-10T16:29:00","0.0","0.0","7018.0","WXPOD 7018","FM-15","4","30.03","75","88","","","","","66","","","","","","VRB","","6","","","","","","","","","","","","","","","","","","","","","","","","","","","","","","","","","","","","","","","","","","","","","","","","","","","","","","","","","","","","","","","","","","","","","","","","","","","","","","","","","","","","","","","","","","","MET069MOBOB0 METAR 7018 //000 000000 101629Z AUTO VRB05KT //// 31/24 A3003=","","","","","","","","","",""
"00701899999","2013-07-10T16:44:00","0.0","0.0","7018.0","WXPOD 7018","FM-15","4","30.02","75","88","","","","","66","","","","","","VRB","","3","","","","","","","","","","","","","","","","","","","","","","","","","","","","","","","","","","","","","","","","","","","","","","","","","","","","","","","","","","","","","","","","","","","","","","","","","","","","","","","","","","","","","","","","","","","MET069MOBOB0 METAR 7018 //000 000000 101644Z AUTO VRB03KT //// 31/24 A3002=","","","","","","","","","",""
"00701899999","2013-07-10T16:59:00","0.0","0.0","7018.0","WXPOD 7018","FM-15","4","30.02","75","90","","","","","63","","","","","","VRB","","3","","","","","","","","","","","","","","","","","","","","","","","","","","","","","","","","","","","","","","","","","","","","","","","","","","","","","","","","","","","","","","","","","","","","","","","","","","","","","","","","","","","","","","","","","","","MET069MOBOB0 METAR 7018 //000 000000 101659Z AUTO VRB03KT //// 32/24 A3002=","","","","","","","","","",""
"00701899999","2013-07-10T17:14:00","0.0","0.0","7018.0","WXPOD 7018","FM-15","4","30.01","75","91","","","","","59","","","","","","VRB","","6","","","","","","","","","","","","","","","","","","","","","","","","","","","","","","","","","","","","","","","","","","","","","","","","","","","","","","","","","","","","","","","","","","","","","","","","","","","","","","","","","","","","","","","","","","","MET069MOBOB0 METAR 7018 //000 000000 101714Z AUTO VRB05KT //// 33/24 A3001=","","","","","","","","","",""
"00701899999","2013-07-10T17:29:00","0.0","0.0","7018.0","WXPOD 7018","FM-15","4","30.01","75","91","","","","","59","","","","","","VRB","","6","","","","","","","","","","","","","","","","","","","","","","","","","","","","","","","","","","","","","","","","","","","","","","","","","","","","","","","","","","","","","","","","","","","","","","","","","","","","","","","","","","","","","","","","","","","MET069MOBOB0 METAR 7018 //000 000000 101729Z AUTO VRB05KT //// 33/24 A3001=","","","","","","","","","",""
"00701899999","2013-07-10T17:44:00","0.0","0.0","7018.0","WXPOD 7018","FM-15","4","30.01","75","91","","","","","59","","","","","","VRB","","7","","","","","","","","","","","","","","","","","","","","","","","","","","","","","","","","","","","","","","","","","","","","","","","","","","","","","","","","","","","","","","","","","","","","","","","","","","","","","","","","","","","","","","","","","","","MET069MOBOB0 METAR 7018 //000 000000 101744Z AUTO VRB06KT //// 33/24 A3001=","","","","","","","","","",""
"00701899999","2013-07-10T17:59:00","0.0","0.0","7018.0","WXPOD 7018","FM-15","4","30.00","75","88","","","","","66","","","","","","VRB","","7","","","","","","","","","","","","","","","","","","","","","","","","","","","","","","","","","","","","","","","","","","","","","","","","","","","","","","","","","","","","","","","","","","","","","","","","","","","","","","","","","","","","","","","","","","","MET069MOBOB0 METAR 7018 //000 000000 101759Z AUTO VRB06KT //// 31/24 A3000=","","","","","","","","","",""
"00701899999","2013-07-10T18:14:00","0.0","0.0","7018.0","WXPOD 7018","FM-15","4","30.00","79","79","","","","","100","","","","","","VRB","16","9","","","","","","","","","","","","","","","","","","","","","","","","","","","","","","","","","","","","","","","","","","","","","","","","","","","","","","","","","","","","","","","","","","","","","","","","","","","","","","","","","","","","","","","","","","","MET085MOBOB0 METAR 7018 //000 000000 101814Z AUTO 28008G14KT 240V310 ////      26/26 A3000=","","","","","","","","","",""
"00701899999","2013-07-10T18:29:00","0.0","0.0","7018.0","WXPOD 7018","FM-15","4","30.01","72","72s","","","","","100","","","","","","VRB","","6","","","","","","","","","","","","","","","","","","","","","","","","","","","","","","","","","","","","","","","","","","","","","","","","","","","","","","","","","","","","","","","","","","","","","","","","","","","","","","","","","","","","","","","","","","","MET069MOBOB0 METAR 7018 //000 000000 101829Z AUTO VRB05KT //// 22/22 A3001=","","","","","","","","","",""
"00701899999","2013-07-10T18:44:00","0.0","0.0","7018.0","WXPOD 7018","FM-15","4","29.98","72","72s","","","","","100","","","","","","230","","3","","","","","","","","","","","","","","","","","","","","","","","","","","","","","","","","","","","","","","","","","","","","","","","","","","","","","","","","","","","","","","","","","","","","","","","","","","","","","","","","","","","","","","","","","","","MET069MOBOB0 METAR 7018 //000 000000 101844Z AUTO 23003KT //// 22/22 A2998=","","","","","","","","","",""
"00701899999","2013-07-10T18:59:00","0.0","0.0","7018.0","WXPOD 7018","FM-15","4","29.99","72","72s","","","","","100","","","","","","220","","3","","","","","","","","","","","","","","","","","","","","","","","","","","","","","","","","","","","","","","","","","","","","","","","","","","","","","","","","","","","","","","","","","","","","","","","","","","","","","","","","","","","","","","","","","","","MET069MOBOB0 METAR 7018 //000 000000 101859Z AUTO 22003KT //// 22/22 A2999=","","","","","","","","","",""
"00701899999","2013-07-10T19:14:00","0.0","0.0","7018.0","WXPOD 7018","FM-15","4","29.98","75","75","","","","","100","","","","","","270","","5","","","","","","","","","","","","","","","","","","","","","","","","","","","","","","","","","","","","","","","","","","","","","","","","","","","","","","","","","","","","","","","","","","","","","","","","","","","","","","","","","","","","","","","","","","","MET069MOBOB0 METAR 7018 //000 000000 101914Z AUTO 27004KT //// 24/24 A2998=","","","","","","","","","",""
"00701899999","2013-07-10T19:29:00","0.0","0.0","7018.0","WXPOD 7018","FM-15","4","29.97","79","79","","","","","100","","","","","","270","","6","","","","","","","","","","","","","","","","","","","","","","","","","","","","","","","","","","","","","","","","","","","","","","","","","","","","","","","","","","","","","","","","","","","","","","","","","","","","","","","","","","","","","","","","","","","MET069MOBOB0 METAR 7018 //000 000000 101929Z AUTO 27005KT //// 26/26 A2997=","","","","","","","","","",""
"00701899999","2013-07-10T19:44:00","0.0","0.0","7018.0","WXPOD 7018","FM-15","4","30.06","81","81","","","","","100","","","","","","260","","7","","","","","","","","","","","","","","","","","","","","","","","","","","","","","","","","","","","","","","","","","","","","","","","","","","","","","","","","","","","","","","","","","","","","","","","","","","","","","","","","","","","","","","","","","","","MET069MOBOB0 METAR 7018 //000 000000 101944Z AUTO 26006KT //// 27/27 A3006=","","","","","","","","","",""
"00701899999","2013-07-10T19:59:00","0.0","0.0","7018.0","WXPOD 7018","FM-15","4","30.05","81","81","","","","","100","","","","","","260","","6","","","","","","","","","","","","","","","","","","","","","","","","","","","","","","","","","","","","","","","","","","","","","","","","","","","","","","","","","","","","","","","","","","","","","","","","","","","","","","","","","","","","","","","","","","","MET069MOBOB0 METAR 7018 //000 000000 101959Z AUTO 26005KT //// 27/27 A3005=","","","","","","","","","",""
"00701899999","2013-07-10T20:14:00","0.0","0.0","7018.0","WXPOD 7018","FM-15","4","30.03","82","82","","","","","100","","","","","","260","","6","","","","","","","","","","","","","","","","","","","","","","","","","","","","","","","","","","","","","","","","","","","","","","","","","","","","","","","","","","","","","","","","","","","","","","","","","","","","","","","","","","","","","","","","","","","MET069MOBOB0 METAR 7018 //000 000000 102014Z AUTO 26005KT //// 28/28 A3003=","","","","","","","","","",""
"00701899999","2013-07-10T20:29:00","0.0","0.0","7018.0","WXPOD 7018","FM-15","4","30.04","84","84","","","","","100","","","","","","VRB","","5","","","","","","","","","","","","","","","","","","","","","","","","","","","","","","","","","","","","","","","","","","","","","","","","","","","","","","","","","","","","","","","","","","","","","","","","","","","","","","","","","","","","","","","","","","","MET069MOBOB0 METAR 7018 //000 000000 102029Z AUTO VRB04KT //// 29/29 A3004=","","","","","","","","","",""
"00701899999","2013-07-10T20:44:00","0.0","0.0","7018.0","WXPOD 7018","FM-15","4","30.01","84","84","","","","","100","","","","","","260","17","14","","","","","","","","","","","","","","","","","","","","","","","","","","","","","","","","","","","","","","","","","","","","","","","","","","","","","","","","","","","","","","","","","","","","","","","","","","","","","","","","","","","","","","","","","","","MET072MOBOB0 METAR 7018 //000 000000 102044Z AUTO 26012G15KT //// 29/29 A3001=","","","","","","","","","",""
"00701899999","2013-07-10T20:59:00","0.0","0.0","7018.0","WXPOD 7018","FM-15","4","30.03","84","84","","","","","100","","","","","","VRB","","6","","","","","","","","","","","","","","","","","","","","","","","","","","","","","","","","","","","","","","","","","","","","","","","","","","","","","","","","","","","","","","","","","","","","","","","","","","","","","","","","","","","","","","","","","","","MET069MOBOB0 METAR 7018 //000 000000 102059Z AUTO VRB05KT //// 29/29 A3003=","","","","","","","","","",""
"00701899999","2013-07-10T21:14:00","0.0","0.0","7018.0","WXPOD 7018","FM-15","4","30.00","73","86","","","","","66","","","","","","VRB","","6","","","","","","","","","","","","","","","","","","","","","","","","","","","","","","","","","","","","","","","","","","","","","","","","","","","","","","","","","","","","","","","","","","","","","","","","","","","","","","","","","","","","","","","","","","","MET069MOBOB0 METAR 7018 //000 000000 102114Z AUTO VRB05KT //// 30/23 A3000=","","","","","","","","","",""
"00701899999","2013-07-10T21:29:00","0.0","0.0","7018.0","WXPOD 7018","FM-15","4","30.00","75","86","","","","","70","","","","","","VRB","","5","","","","","","","","","","","","","","","","","","","","","","","","","","","","","","","","","","","","","","","","","","","","","","","","","","","","","","","","","","","","","","","","","","","","","","","","","","","","","","","","","","","","","","","","","","","MET069MOBOB0 METAR 7018 //000 000000 102129Z AUTO VRB04KT //// 30/24 A3000=","","","","","","","","","",""
"00701899999","2013-07-10T21:44:00","0.0","0.0","7018.0","WXPOD 7018","FM-15","4","29.95","73","86","","","","","66","","","","","","VRB","","5","","","","","","","","","","","","","","","","","","","","","","","","","","","","","","","","","","","","","","","","","","","","","","","","","","","","","","","","","","","","","","","","","","","","","","","","","","","","","","","","","","","","","","","","","","","MET069MOBOB0 METAR 7018 //000 000000 102144Z AUTO VRB04KT //// 30/23 A2995=","","","","","","","","","",""
"00701899999","2013-07-10T21:59:00","0.0","0.0","7018.0","WXPOD 7018","FM-15","4","29.92","73","86","","","","","66","","","","","","VRB","","6","","","","","","","","","","","","","","","","","","","","","","","","","","","","","","","","","","","","","","","","","","","","","","","","","","","","","","","","","","","","","","","","","","","","","","","","","","","","","","","","","","","","","","","","","","","MET069MOBOB0 METAR 7018 //000 000000 102159Z AUTO VRB05KT //// 30/23 A2992=","","","","","","","","","",""
"00701899999","2013-07-10T22:14:00","0.0","0.0","7018.0","WXPOD 7018","FM-15","4","29.90","75","86","","","","","70","","","","","","VRB","","3","","","","","","","","","","","","","","","","","","","","","","","","","","","","","","","","","","","","","","","","","","","","","","","","","","","","","","","","","","","","","","","","","","","","","","","","","","","","","","","","","","","","","","","","","","","MET069MOBOB0 METAR 7018 //000 000000 102214Z AUTO VRB03KT //// 30/24 A2990=","","","","","","","","","",""
"00701899999","2013-07-10T22:29:00","0.0","0.0","7018.0","WXPOD 7018","FM-15","4","29.88","73","86","","","","","66","","","","","","VRB","","2","","","","","","","","","","","","","","","","","","","","","","","","","","","","","","","","","","","","","","","","","","","","","","","","","","","","","","","","","","","","","","","","","","","","","","","","","","","","","","","","","","","","","","","","","","","MET069MOBOB0 METAR 7018 //000 000000 102229Z AUTO VRB02KT //// 30/23 A2988=","","","","","","","","","",""
"00701899999","2013-07-10T22:44:00","0.0","0.0","7018.0","WXPOD 7018","FM-15","4","29.85","73","84","","","","","70","","","","","","VRB","","5","","","","","","","","","","","","","","","","","","","","","","","","","","","","","","","","","","","","","","","","","","","","","","","","","","","","","","","","","","","","","","","","","","","","","","","","","","","","","","","","","","","","","","","","","","","MET069MOBOB0 METAR 7018 //000 000000 102244Z AUTO VRB04KT //// 29/23 A2985=","","","","","","","","","",""
"00701899999","2013-07-10T22:59:00","0.0","0.0","7018.0","WXPOD 7018","FM-15","4","29.85","73","84","","","","","70","","","","","","VRB","","3","","","","","","","","","","","","","","","","","","","","","","","","","","","","","","","","","","","","","","","","","","","","","","","","","","","","","","","","","","","","","","","","","","","","","","","","","","","","","","","","","","","","","","","","","","","MET069MOBOB0 METAR 7018 //000 000000 102259Z AUTO VRB03KT //// 29/23 A2985=","","","","","","","","","",""
"00701899999","2013-07-10T23:14:00","0.0","0.0","7018.0","WXPOD 7018","FM-15","4","29.84","73","84","","","","","70","","","","","","VRB","","5","","","","","","","","","","","","","","","","","","","","","","","","","","","","","","","","","","","","","","","","","","","","","","","","","","","","","","","","","","","","","","","","","","","","","","","","","","","","","","","","","","","","","","","","","","","MET069MOBOB0 METAR 7018 //000 000000 102314Z AUTO VRB04KT //// 29/23 A2984=","","","","","","","","","",""
"00701899999","2013-07-10T23:29:00","0.0","0.0","7018.0","WXPOD 7018","FM-15","4","29.84","73","84","","","","","70","","","","","","VRB","","2","","","","","","","","","","","","","","","","","","","","","","","","","","","","","","","","","","","","","","","","","","","","","","","","","","","","","","","","","","","","","","","","","","","","","","","","","","","","","","","","","","","","","","","","","","","MET069MOBOB0 METAR 7018 //000 000000 102329Z AUTO VRB02KT //// 29/23 A2984=","","","","","","","","","",""
"00701899999","2013-07-10T23:44:00","0.0","0.0","7018.0","WXPOD 7018","FM-15","4","29.84","73","82","","","","","74","","","","","","VRB","","1","","","","","","","","","","","","","","","","","","","","","","","","","","","","","","","","","","","","","","","","","","","","","","","","","","","","","","","","","","","","","","","","","","","","","","","","","","","","","","","","","","","","","","","","","","","MET069MOBOB0 METAR 7018 //000 000000 102344Z AUTO VRB01KT //// 28/23 A2984=","","","","","","","","","",""
"00701899999","2013-07-10T23:59:00","0.0","0.0","7018.0","WXPOD 7018","FM-15","4","29.84","75","82","","","","","79","","","","","","VRB","","3","","","","","","","","","","","","","","","","","","","","","","","","","","","","","","","","","","","","","","","","","","","","","","","","","","","","","","","","","","","","","","","","","","","","","","","","","","","","","","","","","","","","","","","","","","","MET069MOBOB0 METAR 7018 //000 000000 102359Z AUTO VRB03KT //// 28/24 A2984=","","","","","","","","","",""
"00701899999","2013-07-11T00:14:00","0.0","0.0","7018.0","WXPOD 7018","FM-15","4","29.83","75","82","","","","","79","","","","","","VRB","","5","","","","","","","","","","","","","","","","","","","","","","","","","","","","","","","","","","","","","","","","","","","","","","","","","","","","","","","","","","","","","","","","","","","","","","","","","","","","","","","","","","","","","","","","","","","MET069MOBOB0 METAR 7018 //000 000000 110014Z AUTO VRB04KT //// 28/24 A2983=","","","","","","","","","",""
"00701899999","2013-07-11T00:29:00","0.0","0.0","7018.0","WXPOD 7018","FM-15","4","29.95","75","82","","","","","79","","","","","","VRB","","1","","","","","","","","","","","","","","","","","","","","","","","","","","","","","","","","","","","","","","","","","","","","","","","","","","","","","","","","","","","","","","","","","","","","","","","","","","","","","","","","","","","","","","","","","","","MET069MOBOB0 METAR 7018 //000 000000 110029Z AUTO VRB01KT //// 28/24 A2995=","","","","","","","","","",""
"00701899999","2013-07-11T00:44:00","0.0","0.0","7018.0","WXPOD 7018","FM-15","4","29.96","75","82","","","","","79","","","","","","VRB","","5","","","","","","","","","","","","","","","","","","","","","","","","","","","","","","","","","","","","","","","","","","","","","","","","","","","","","","","","","","","","","","","","","","","","","","","","","","","","","","","","","","","","","","","","","","","MET069MOBOB0 METAR 7018 //000 000000 110044Z AUTO VRB04KT //// 28/24 A2996=","","","","","","","","","",""
"00701899999","2013-07-11T00:59:00","0.0","0.0","7018.0","WXPOD 7018","FM-15","4","29.96","75","81","","","","","84","","","","","","VRB","","5","","","","","","","","","","","","","","","","","","","","","","","","","","","","","","","","","","","","","","","","","","","","","","","","","","","","","","","","","","","","","","","","","","","","","","","","","","","","","","","","","","","","","","","","","","","MET069MOBOB0 METAR 7018 //000 000000 110059Z AUTO VRB04KT //// 27/24 A2996=","","","","","","","","","",""
"00701899999","2013-07-11T01:14:00","0.0","0.0","7018.0","WXPOD 7018","FM-15","4","29.96","75","81","","","","","84","","","","","","VRB","","2","","","","","","","","","","","","","","","","","","","","","","","","","","","","","","","","","","","","","","","","","","","","","","","","","","","","","","","","","","","","","","","","","","","","","","","","","","","","","","","","","","","","","","","","","","","MET069MOBOB0 METAR 7018 //000 000000 110114Z AUTO VRB02KT //// 27/24 A2996=","","","","","","","","","",""
"00701899999","2013-07-11T01:29:00","0.0","0.0","7018.0","WXPOD 7018","FM-15","4","29.96","75","82","","","","","79","","","","","","VRB","","3","","","","","","","","","","","","","","","","","","","","","","","","","","","","","","","","","","","","","","","","","","","","","","","","","","","","","","","","","","","","","","","","","","","","","","","","","","","","","","","","","","","","","","","","","","","MET069MOBOB0 METAR 7018 //000 000000 110129Z AUTO VRB03KT //// 28/24 A2996=","","","","","","","","","",""
"00701899999","2013-07-11T01:44:00","0.0","0.0","7018.0","WXPOD 7018","FM-15","4","29.96","75","82","","","","","79","","","","","","VRB","","3","","","","","","","","","","","","","","","","","","","","","","","","","","","","","","","","","","","","","","","","","","","","","","","","","","","","","","","","","","","","","","","","","","","","","","","","","","","","","","","","","","","","","","","","","","","MET069MOBOB0 METAR 7018 //000 000000 110144Z AUTO VRB03KT //// 28/24 A2996=","","","","","","","","","",""
"00701899999","2013-07-11T01:59:00","0.0","0.0","7018.0","WXPOD 7018","FM-15","4","29.96","73","81","","","","","79","","","","","","VRB","","5","","","","","","","","","","","","","","","","","","","","","","","","","","","","","","","","","","","","","","","","","","","","","","","","","","","","","","","","","","","","","","","","","","","","","","","","","","","","","","","","","","","","","","","","","","","MET069MOBOB0 METAR 7018 //000 000000 110159Z AUTO VRB04KT //// 27/23 A2996=","","","","","","","","","",""
"00701899999","2013-07-11T02:14:00","0.0","0.0","7018.0","WXPOD 7018","FM-15","4","29.96","73","81","","","","","79","","","","","","VRB","","6","","","","","","","","","","","","","","","","","","","","","","","","","","","","","","","","","","","","","","","","","","","","","","","","","","","","","","","","","","","","","","","","","","","","","","","","","","","","","","","","","","","","","","","","","","","MET069MOBOB0 METAR 7018 //000 000000 110214Z AUTO VRB05KT //// 27/23 A2996=","","","","","","","","","",""
"00701899999","2013-07-11T02:29:00","0.0","0.0","7018.0","WXPOD 7018","FM-15","4","29.96","73","81","","","","","79","","","","","","VRB","","5","","","","","","","","","","","","","","","","","","","","","","","","","","","","","","","","","","","","","","","","","","","","","","","","","","","","","","","","","","","","","","","","","","","","","","","","","","","","","","","","","","","","","","","","","","","MET069MOBOB0 METAR 7018 //000 000000 110229Z AUTO VRB04KT //// 27/23 A2996=","","","","","","","","","",""
"00701899999","2013-07-11T02:44:00","0.0","0.0","7018.0","WXPOD 7018","FM-15","4","29.97","72","81","","","","","74","","","","","","VRB","","3","","","","","","","","","","","","","","","","","","","","","","","","","","","","","","","","","","","","","","","","","","","","","","","","","","","","","","","","","","","","","","","","","","","","","","","","","","","","","","","","","","","","","","","","","","","MET069MOBOB0 METAR 7018 //000 000000 110244Z AUTO VRB03KT //// 27/22 A2997=","","","","","","","","","",""
"00701899999","2013-07-11T02:59:00","0.0","0.0","7018.0","WXPOD 7018","FM-15","4","29.97","72","81","","","","","74","","","","","","VRB","","5","","","","","","","","","","","","","","","","","","","","","","","","","","","","","","","","","","","","","","","","","","","","","","","","","","","","","","","","","","","","","","","","","","","","","","","","","","","","","","","","","","","","","","","","","","","MET069MOBOB0 METAR 7018 //000 000000 110259Z AUTO VRB04KT //// 27/22 A2997=","","","","","","","","","",""
"00701899999","2013-07-11T03:14:00","0.0","0.0","7018.0","WXPOD 7018","FM-15","4","29.97","72","81","","","","","74","","","","","","VRB","","3","","","","","","","","","","","","","","","","","","","","","","","","","","","","","","","","","","","","","","","","","","","","","","","","","","","","","","","","","","","","","","","","","","","","","","","","","","","","","","","","","","","","","","","","","","","MET069MOBOB0 METAR 7018 //000 000000 110314Z AUTO VRB03KT //// 27/22 A2997=","","","","","","","","","",""
"00701899999","2013-07-11T03:29:00","0.0","0.0","7018.0","WXPOD 7018","FM-15","4","29.96","72","81","","","","","74","","","","","","VRB","","5","","","","","","","","","","","","","","","","","","","","","","","","","","","","","","","","","","","","","","","","","","","","","","","","","","","","","","","","","","","","","","","","","","","","","","","","","","","","","","","","","","","","","","","","","","","MET069MOBOB0 METAR 7018 //000 000000 110329Z AUTO VRB04KT //// 27/22 A2996=","","","","","","","","","",""
"00701899999","2013-07-11T03:44:00","0.0","0.0","7018.0","WXPOD 7018","FM-15","4","29.96","72","81","","","","","74","","","","","","VRB","","5","","","","","","","","","","","","","","","","","","","","","","","","","","","","","","","","","","","","","","","","","","","","","","","","","","","","","","","","","","","","","","","","","","","","","","","","","","","","","","","","","","","","","","","","","","","MET069MOBOB0 METAR 7018 //000 000000 110344Z AUTO VRB04KT //// 27/22 A2996=","","","","","","","","","",""
"00701899999","2013-07-11T03:59:00","0.0","0.0","7018.0","WXPOD 7018","FM-15","4","29.96","73","81","","","","","79","","","","","","VRB","","6","","","","","","","","","","","","","","","","","","","","","","","","","","","","","","","","","","","","","","","","","","","","","","","","","","","","","","","","","","","","","","","","","","","","","","","","","","","","","","","","","","","","","","","","","","","MET069MOBOB0 METAR 7018 //000 000000 110359Z AUTO VRB05KT //// 27/23 A2996=","","","","","","","","","",""
"00701899999","2013-07-11T04:14:00","0.0","0.0","7018.0","WXPOD 7018","FM-15","4","29.96","73","79","","","","","84","","","","","","VRB","","3","","","","","","","","","","","","","","","","","","","","","","","","","","","","","","","","","","","","","","","","","","","","","","","","","","","","","","","","","","","","","","","","","","","","","","","","","","","","","","","","","","","","","","","","","","","MET069MOBOB0 METAR 7018 //000 000000 110414Z AUTO VRB03KT //// 26/23 A2996=","","","","","","","","","",""
"00701899999","2013-07-11T04:29:00","0.0","0.0","7018.0","WXPOD 7018","FM-15","4","29.97","73","79","","","","","84","","","","","","VRB","","5","","","","","","","","","","","","","","","","","","","","","","","","","","","","","","","","","","","","","","","","","","","","","","","","","","","","","","","","","","","","","","","","","","","","","","","","","","","","","","","","","","","","","","","","","","","MET069MOBOB0 METAR 7018 //000 000000 110429Z AUTO VRB04KT //// 26/23 A2997=","","","","","","","","","",""
"00701899999","2013-07-11T04:44:00","0.0","0.0","7018.0","WXPOD 7018","FM-15","4","29.97","73","79","","","","","84","","","","","","VRB","","5","","","","","","","","","","","","","","","","","","","","","","","","","","","","","","","","","","","","","","","","","","","","","","","","","","","","","","","","","","","","","","","","","","","","","","","","","","","","","","","","","","","","","","","","","","","MET069MOBOB0 METAR 7018 //000 000000 110444Z AUTO VRB04KT //// 26/23 A2997=","","","","","","","","","",""
"00701899999","2013-07-11T04:59:00","0.0","0.0","7018.0","WXPOD 7018","FM-15","4","29.96","73","79","","","","","84","","","","","","VRB","","3","","","","","","","","","","","","","","","","","","","","","","","","","","","","","","","","","","","","","","","","","","","","","","","","","","","","","","","","","","","","","","","","","","","","","","","","","","","","","","","","","","","","","","","","","","","MET069MOBOB0 METAR 7018 //000 000000 110459Z AUTO VRB03KT //// 26/23 A2996=","","","","","","","","","",""
"00701899999","2013-07-11T05:14:00","0.0","0.0","7018.0","WXPOD 7018","FM-15","4","29.96","73","79","","","","","84","","","","","","VRB","","2","","","","","","","","","","","","","","","","","","","","","","","","","","","","","","","","","","","","","","","","","","","","","","","","","","","","","","","","","","","","","","","","","","","","","","","","","","","","","","","","","","","","","","","","","","","MET069MOBOB0 METAR 7018 //000 000000 110514Z AUTO VRB02KT //// 26/23 A2996=","","","","","","","","","",""
"00701899999","2013-07-11T05:29:00","0.0","0.0","7018.0","WXPOD 7018","FM-15","4","29.96","73","79","","","","","84","","","","","","VRB","","3","","","","","","","","","","","","","","","","","","","","","","","","","","","","","","","","","","","","","","","","","","","","","","","","","","","","","","","","","","","","","","","","","","","","","","","","","","","","","","","","","","","","","","","","","","","MET069MOBOB0 METAR 7018 //000 000000 110529Z AUTO VRB03KT //// 26/23 A2996=","","","","","","","","","",""
"00701899999","2013-07-11T05:44:00","0.0","0.0","7018.0","WXPOD 7018","FM-15","4","29.95","73","79","","","","","84","","","","","","VRB","","5","","","","","","","","","","","","","","","","","","","","","","","","","","","","","","","","","","","","","","","","","","","","","","","","","","","","","","","","","","","","","","","","","","","","","","","","","","","","","","","","","","","","","","","","","","","MET069MOBOB0 METAR 7018 //000 000000 110544Z AUTO VRB04KT //// 26/23 A2995=","","","","","","","","","",""
"00701899999","2013-07-11T05:59:00","0.0","0.0","7018.0","WXPOD 7018","FM-15","4","29.95","73","79","","","","","84","","","","","","VRB","","6","","","","","","","","","","","","","","","","","","","","","","","","","","","","","","","","","","","","","","","","","","","","","","","","","","","","","","","","","","","","","","","","","","","","","","","","","","","","","","","","","","","","","","","","","","","MET069MOBOB0 METAR 7018 //000 000000 110559Z AUTO VRB05KT //// 26/23 A2995=","","","","","","","","","",""
"00701899999","2013-07-11T06:14:00","0.0","0.0","7018.0","WXPOD 7018","FM-15","4","29.95","73","79","","","","","84","","","","","","VRB","","5","","","","","","","","","","","","","","","","","","","","","","","","","","","","","","","","","","","","","","","","","","","","","","","","","","","","","","","","","","","","","","","","","","","","","","","","","","","","","","","","","","","","","","","","","","","MET069MOBOB0 METAR 7018 //000 000000 110614Z AUTO VRB04KT //// 26/23 A2995=","","","","","","","","","",""
"00701899999","2013-07-11T06:29:00","0.0","0.0","7018.0","WXPOD 7018","FM-15","4","29.95","73","79","","","","","84","","","","","","VRB","","2","","","","","","","","","","","","","","","","","","","","","","","","","","","","","","","","","","","","","","","","","","","","","","","","","","","","","","","","","","","","","","","","","","","","","","","","","","","","","","","","","","","","","","","","","","","MET069MOBOB0 METAR 7018 //000 000000 110629Z AUTO VRB02KT //// 26/23 A2995=","","","","","","","","","",""
"00701899999","2013-07-11T06:44:00","0.0","0.0","7018.0","WXPOD 7018","FM-15","4","29.94","73","79","","","","","84","","","","","","VRB","","3","","","","","","","","","","","","","","","","","","","","","","","","","","","","","","","","","","","","","","","","","","","","","","","","","","","","","","","","","","","","","","","","","","","","","","","","","","","","","","","","","","","","","","","","","","","MET069MOBOB0 METAR 7018 //000 000000 110644Z AUTO VRB03KT //// 26/23 A2994=","","","","","","","","","",""
"00701899999","2013-07-11T06:59:00","0.0","0.0","7018.0","WXPOD 7018","FM-15","4","29.94","73","79","","","","","84","","","","","","VRB","","3","","","","","","","","","","","","","","","","","","","","","","","","","","","","","","","","","","","","","","","","","","","","","","","","","","","","","","","","","","","","","","","","","","","","","","","","","","","","","","","","","","","","","","","","","","","MET069MOBOB0 METAR 7018 //000 000000 110659Z AUTO VRB03KT //// 26/23 A2994=","","","","","","","","","",""
"00701899999","2013-07-11T07:14:00","0.0","0.0","7018.0","WXPOD 7018","FM-15","4","29.94","73","79","","","","","84","","","","","","VRB","","5","","","","","","","","","","","","","","","","","","","","","","","","","","","","","","","","","","","","","","","","","","","","","","","","","","","","","","","","","","","","","","","","","","","","","","","","","","","","","","","","","","","","","","","","","","","MET069MOBOB0 METAR 7018 //000 000000 110714Z AUTO VRB04KT //// 26/23 A2994=","","","","","","","","","",""
"00701899999","2013-07-11T07:30:00","0.0","0.0","7018.0","WXPOD 7018","FM-15","4","29.93","73","77","","","","","89","","","","","","VRB","","5","","","","","","","","","","","","","","","","","","","","","","","","","","","","","","","","","","","","","","","","","","","","","","","","","","","","","","","","","","","","","","","","","","","","","","","","","","","","","","","","","","","","","","","","","","","MET069MOBOB0 METAR 7018 //000 000000 110730Z AUTO VRB04KT //// 25/23 A2993=","","","","","","","","","",""
"00701899999","2013-07-11T07:44:00","0.0","0.0","7018.0","WXPOD 7018","FM-15","4","29.93","75","77","","","","","94","","","","","","VRB","","3","","","","","","","","","","","","","","","","","","","","","","","","","","","","","","","","","","","","","","","","","","","","","","","","","","","","","","","","","","","","","","","","","","","","","","","","","","","","","","","","","","","","","","","","","","","MET069MOBOB0 METAR 7018 //000 000000 110744Z AUTO VRB03KT //// 25/24 A2993=","","","","","","","","","",""
"00701899999","2013-07-11T07:59:00","0.0","0.0","7018.0","WXPOD 7018","FM-15","4","29.93","75","77","","","","","94","","","","","","VRB","","5","","","","","","","","","","","","","","","","","","","","","","","","","","","","","","","","","","","","","","","","","","","","","","","","","","","","","","","","","","","","","","","","","","","","","","","","","","","","","","","","","","","","","","","","","","","MET069MOBOB0 METAR 7018 //000 000000 110759Z AUTO VRB04KT //// 25/24 A2993=","","","","","","","","","",""
"00701899999","2013-07-11T08:14:00","0.0","0.0","7018.0","WXPOD 7018","FM-15","4","29.93","75","77","","","","","94","","","","","","VRB","","5","","","","","","","","","","","","","","","","","","","","","","","","","","","","","","","","","","","","","","","","","","","","","","","","","","","","","","","","","","","","","","","","","","","","","","","","","","","","","","","","","","","","","","","","","","","MET069MOBOB0 METAR 7018 //000 000000 110814Z AUTO VRB04KT //// 25/24 A2993=","","","","","","","","","",""
"00701899999","2013-07-11T08:29:00","0.0","0.0","7018.0","WXPOD 7018","FM-15","4","29.92","75","77","","","","","94","","","","","","VRB","","2","","","","","","","","","","","","","","","","","","","","","","","","","","","","","","","","","","","","","","","","","","","","","","","","","","","","","","","","","","","","","","","","","","","","","","","","","","","","","","","","","","","","","","","","","","","MET069MOBOB0 METAR 7018 //000 000000 110829Z AUTO VRB02KT //// 25/24 A2992=","","","","","","","","","",""
"00701899999","2013-07-11T08:44:00","0.0","0.0","7018.0","WXPOD 7018","FM-15","4","29.93","75","77","","","","","94","","","","","","VRB","","3","","","","","","","","","","","","","","","","","","","","","","","","","","","","","","","","","","","","","","","","","","","","","","","","","","","","","","","","","","","","","","","","","","","","","","","","","","","","","","","","","","","","","","","","","","","MET069MOBOB0 METAR 7018 //000 000000 110844Z AUTO VRB03KT //// 25/24 A2993=","","","","","","","","","",""
"00701899999","2013-07-11T08:59:00","0.0","0.0","7018.0","WXPOD 7018","FM-15","4","29.93","75","77","","","","","94","","","","","","VRB","","2","","","","","","","","","","","","","","","","","","","","","","","","","","","","","","","","","","","","","","","","","","","","","","","","","","","","","","","","","","","","","","","","","","","","","","","","","","","","","","","","","","","","","","","","","","","MET069MOBOB0 METAR 7018 //000 000000 110859Z AUTO VRB02KT //// 25/24 A2993=","","","","","","","","","",""
"00701899999","2013-07-11T09:14:00","0.0","0.0","7018.0","WXPOD 7018","FM-15","4","29.93","75","77","","","","","94","","","","","","VRB","","2","","","","","","","","","","","","","","","","","","","","","","","","","","","","","","","","","","","","","","","","","","","","","","","","","","","","","","","","","","","","","","","","","","","","","","","","","","","","","","","","","","","","","","","","","","","MET069MOBOB0 METAR 7018 //000 000000 110914Z AUTO VRB02KT //// 25/24 A2993=","","","","","","","","","",""
"00701899999","2013-07-11T09:29:00","0.0","0.0","7018.0","WXPOD 7018","FM-15","4","29.93","75","77","","","","","94","","","","","","VRB","","3","","","","","","","","","","","","","","","","","","","","","","","","","","","","","","","","","","","","","","","","","","","","","","","","","","","","","","","","","","","","","","","","","","","","","","","","","","","","","","","","","","","","","","","","","","","MET069MOBOB0 METAR 7018 //000 000000 110929Z AUTO VRB03KT //// 25/24 A2993=","","","","","","","","","",""
"00701899999","2013-07-11T09:44:00","0.0","0.0","7018.0","WXPOD 7018","FM-15","4","29.94","75","77","","","","","94","","","","","","VRB","","2","","","","","","","","","","","","","","","","","","","","","","","","","","","","","","","","","","","","","","","","","","","","","","","","","","","","","","","","","","","","","","","","","","","","","","","","","","","","","","","","","","","","","","","","","","","MET069MOBOB0 METAR 7018 //000 000000 110944Z AUTO VRB02KT //// 25/24 A2994=","","","","","","","","","",""
"00701899999","2013-07-11T09:59:00","0.0","0.0","7018.0","WXPOD 7018","FM-15","4","29.94","75","77","","","","","94","","","","","","VRB","","3","","","","","","","","","","","","","","","","","","","","","","","","","","","","","","","","","","","","","","","","","","","","","","","","","","","","","","","","","","","","","","","","","","","","","","","","","","","","","","","","","","","","","","","","","","","MET069MOBOB0 METAR 7018 //000 000000 110959Z AUTO VRB03KT //// 25/24 A2994=","","","","","","","","","",""
"00701899999","2013-07-11T10:14:00","0.0","0.0","7018.0","WXPOD 7018","FM-15","4","29.93","75","77","","","","","94","","","","","","VRB","","6","","","","","","","","","","","","","","","","","","","","","","","","","","","","","","","","","","","","","","","","","","","","","","","","","","","","","","","","","","","","","","","","","","","","","","","","","","","","","","","","","","","","","","","","","","","MET069MOBOB0 METAR 7018 //000 000000 111014Z AUTO VRB05KT //// 25/24 A2993=","","","","","","","","","",""
"00701899999","2013-07-11T10:29:00","0.0","0.0","7018.0","WXPOD 7018","FM-15","4","29.95","75","77","","","","","94","","","","","","VRB","","3","","","","","","","","","","","","","","","","","","","","","","","","","","","","","","","","","","","","","","","","","","","","","","","","","","","","","","","","","","","","","","","","","","","","","","","","","","","","","","","","","","","","","","","","","","","MET069MOBOB0 METAR 7018 //000 000000 111029Z AUTO VRB03KT //// 25/24 A2995=","","","","","","","","","",""
"00701899999","2013-07-11T10:44:00","0.0","0.0","7018.0","WXPOD 7018","FM-15","4","29.95","75","79","","","","","89","","","","","","VRB","","5","","","","","","","","","","","","","","","","","","","","","","","","","","","","","","","","","","","","","","","","","","","","","","","","","","","","","","","","","","","","","","","","","","","","","","","","","","","","","","","","","","","","","","","","","","","MET069MOBOB0 METAR 7018 //000 000000 111044Z AUTO VRB04KT //// 26/24 A2995=","","","","","","","","","",""
"00701899999","2013-07-11T10:59:00","0.0","0.0","7018.0","WXPOD 7018","FM-15","4","29.95","75","77","","","","","94","","","","","","VRB","","3","","","","","","","","","","","","","","","","","","","","","","","","","","","","","","","","","","","","","","","","","","","","","","","","","","","","","","","","","","","","","","","","","","","","","","","","","","","","","","","","","","","","","","","","","","","MET069MOBOB0 METAR 7018 //000 000000 111059Z AUTO VRB03KT //// 25/24 A2995=","","","","","","","","","",""
"00701899999","2013-07-11T11:14:00","0.0","0.0","7018.0","WXPOD 7018","FM-15","4","29.95","75","77","","","","","94","","","","","","VRB","","3","","","","","","","","","","","","","","","","","","","","","","","","","","","","","","","","","","","","","","","","","","","","","","","","","","","","","","","","","","","","","","","","","","","","","","","","","","","","","","","","","","","","","","","","","","","MET069MOBOB0 METAR 7018 //000 000000 111114Z AUTO VRB03KT //// 25/24 A2995=","","","","","","","","","",""
"00701899999","2013-07-11T11:29:00","0.0","0.0","7018.0","WXPOD 7018","FM-15","4","29.95","75","79","","","","","89","","","","","","VRB","","5","","","","","","","","","","","","","","","","","","","","","","","","","","","","","","","","","","","","","","","","","","","","","","","","","","","","","","","","","","","","","","","","","","","","","","","","","","","","","","","","","","","","","","","","","","","MET069MOBOB0 METAR 7018 //000 000000 111129Z AUTO VRB04KT //// 26/24 A2995=","","","","","","","","","",""
"00701899999","2013-07-11T11:44:00","0.0","0.0","7018.0","WXPOD 7018","FM-15","4","29.95","75","79","","","","","89","","","","","","VRB","","3","","","","","","","","","","","","","","","","","","","","","","","","","","","","","","","","","","","","","","","","","","","","","","","","","","","","","","","","","","","","","","","","","","","","","","","","","","","","","","","","","","","","","","","","","","","MET069MOBOB0 METAR 7018 //000 000000 111144Z AUTO VRB03KT //// 26/24 A2995=","","","","","","","","","",""
"00701899999","2013-07-11T11:59:00","0.0","0.0","7018.0","WXPOD 7018","FM-15","4","29.93","75","79","","","","","89","","","","","","VRB","","3","","","","","","","","","","","","","","","","","","","","","","","","","","","","","","","","","","","","","","","","","","","","","","","","","","","","","","","","","","","","","","","","","","","","","","","","","","","","","","","","","","","","","","","","","","","MET069MOBOB0 METAR 7018 //000 000000 111159Z AUTO VRB03KT //// 26/24 A2993=","","","","","","","","","",""
"00701899999","2013-07-11T12:14:00","0.0","0.0","7018.0","WXPOD 7018","FM-15","4","29.94","75","79","","","","","89","","","","","","VRB","","7","","","","","","","","","","","","","","","","","","","","","","","","","","","","","","","","","","","","","","","","","","","","","","","","","","","","","","","","","","","","","","","","","","","","","","","","","","","","","","","","","","","","","","","","","","","MET069MOBOB0 METAR 7018 //000 000000 111214Z AUTO VRB06KT //// 26/24 A2994=","","","","","","","","","",""
"00701899999","2013-07-11T12:29:00","0.0","0.0","7018.0","WXPOD 7018","FM-15","4","29.93","75","81","","","","","84","","","","","","290","14","8","","","","","","","","","","","","","","","","","","","","","","","","","","","","","","","","","","","","","","","","","","","","","","","","","","","","","","","","","","","","","","","","","","","","","","","","","","","","","","","","","","","","","","","","","","","MET072MOBOB0 METAR 7018 //000 000000 111229Z AUTO 29007G12KT //// 27/24 A2993=","","","","","","","","","",""
"00701899999","2013-07-11T12:44:00","0.0","0.0","7018.0","WXPOD 7018","FM-15","4","29.93","75","82","","","","","79","","","","","","300","","6","","","","","","","","","","","","","","","","","","","","","","","","","","","","","","","","","","","","","","","","","","","","","","","","","","","","","","","","","","","","","","","","","","","","","","","","","","","","","","","","","","","","","","","","","","","MET069MOBOB0 METAR 7018 //000 000000 111244Z AUTO 30005KT //// 28/24 A2993=","","","","","","","","","",""
"00701899999","2013-07-11T12:59:00","0.0","0.0","7018.0","WXPOD 7018","FM-15","4","29.93","75","82","","","","","79","","","","","","VRB","","6","","","","","","","","","","","","","","","","","","","","","","","","","","","","","","","","","","","","","","","","","","","","","","","","","","","","","","","","","","","","","","","","","","","","","","","","","","","","","","","","","","","","","","","","","","","MET069MOBOB0 METAR 7018 //000 000000 111259Z AUTO VRB05KT //// 28/24 A2993=","","","","","","","","","",""
"00701899999","2013-07-11T13:14:00","0.0","0.0","7018.0","WXPOD 7018","FM-15","4","29.92","75","82","","","","","79","","","","","","VRB","","5","","","","","","","","","","","","","","","","","","","","","","","","","","","","","","","","","","","","","","","","","","","","","","","","","","","","","","","","","","","","","","","","","","","","","","","","","","","","","","","","","","","","","","","","","","","MET069MOBOB0 METAR 7018 //000 000000 111314Z AUTO VRB04KT //// 28/24 A2992=","","","","","","","","","",""
"00701899999","2013-07-11T13:29:00","0.0","0.0","7018.0","WXPOD 7018","FM-15","4","29.92","73","82","","","","","74","","","","","","300","","6","","","","","","","","","","","","","","","","","","","","","","","","","","","","","","","","","","","","","","","","","","","","","","","","","","","","","","","","","","","","","","","","","","","","","","","","","","","","","","","","","","","","","","","","","","","MET069MOBOB0 METAR 7018 //000 000000 111329Z AUTO 30005KT //// 28/23 A2992=","","","","","","","","","",""
"00701899999","2013-07-11T13:44:00","0.0","0.0","7018.0","WXPOD 7018","FM-15","4","29.92","75","84","","","","","74","","","","","","VRB","","7","","","","","","","","","","","","","","","","","","","","","","","","","","","","","","","","","","","","","","","","","","","","","","","","","","","","","","","","","","","","","","","","","","","","","","","","","","","","","","","","","","","","","","","","","","","MET069MOBOB0 METAR 7018 //000 000000 111344Z AUTO VRB06KT //// 29/24 A2992=","","","","","","","","","",""
"00701899999","2013-07-11T13:59:00","0.0","0.0","7018.0","WXPOD 7018","FM-15","4","29.92","75","84","","","","","74","","","","","","VRB","","7","","","","","","","","","","","","","","","","","","","","","","","","","","","","","","","","","","","","","","","","","","","","","","","","","","","","","","","","","","","","","","","","","","","","","","","","","","","","","","","","","","","","","","","","","","","MET069MOBOB0 METAR 7018 //000 000000 111359Z AUTO VRB06KT //// 29/24 A2992=","","","","","","","","","",""
"00701899999","2013-07-11T14:14:00","0.0","0.0","7018.0","WXPOD 7018","FM-15","4","29.92","75","84","","","","","74","","","","","","300","","6","","","","","","","","","","","","","","","","","","","","","","","","","","","","","","","","","","","","","","","","","","","","","","","","","","","","","","","","","","","","","","","","","","","","","","","","","","","","","","","","","","","","","","","","","","","MET069MOBOB0 METAR 7018 //000 000000 111414Z AUTO 30005KT //// 29/24 A2992=","","","","","","","","","",""
"00701899999","2013-07-11T14:29:00","0.0","0.0","7018.0","WXPOD 7018","FM-15","4","29.93","75","86","","","","","70","","","","","","VRB","","5","","","","","","","","","","","","","","","","","","","","","","","","","","","","","","","","","","","","","","","","","","","","","","","","","","","","","","","","","","","","","","","","","","","","","","","","","","","","","","","","","","","","","","","","","","","MET069MOBOB0 METAR 7018 //000 000000 111429Z AUTO VRB04KT //// 30/24 A2993=","","","","","","","","","",""
"00701899999","2013-07-11T14:44:00","0.0","0.0","7018.0","WXPOD 7018","FM-15","4","29.93","75","86","","","","","70","","","","","","VRB","","5","","","","","","","","","","","","","","","","","","","","","","","","","","","","","","","","","","","","","","","","","","","","","","","","","","","","","","","","","","","","","","","","","","","","","","","","","","","","","","","","","","","","","","","","","","","MET069MOBOB0 METAR 7018 //000 000000 111444Z AUTO VRB04KT //// 30/24 A2993=","","","","","","","","","",""
"00701899999","2013-07-11T14:59:00","0.0","0.0","7018.0","WXPOD 7018","FM-15","4","29.93","75","88","","","","","66","","","","","","VRB","","5","","","","","","","","","","","","","","","","","","","","","","","","","","","","","","","","","","","","","","","","","","","","","","","","","","","","","","","","","","","","","","","","","","","","","","","","","","","","","","","","","","","","","","","","","","","MET069MOBOB0 METAR 7018 //000 000000 111459Z AUTO VRB04KT //// 31/24 A2993=","","","","","","","","","",""
"00701899999","2013-07-11T15:14:00","0.0","0.0","7018.0","WXPOD 7018","FM-15","4","29.92","75","88","","","","","66","","","","","","VRB","","6","","","","","","","","","","","","","","","","","","","","","","","","","","","","","","","","","","","","","","","","","","","","","","","","","","","","","","","","","","","","","","","","","","","","","","","","","","","","","","","","","","","","","","","","","","","MET069MOBOB0 METAR 7018 //000 000000 111514Z AUTO VRB05KT //// 31/24 A2992=","","","","","","","","","",""
"00701899999","2013-07-11T15:32:00","0.0","0.0","7018.0","WXPOD 7018","FM-15","4","29.91","73","90","","","","","59","","","","","","VRB","","6","","","","","","","","","","","","","","","","","","","","","","","","","","","","","","","","","","","","","","","","","","","","","","","","","","","","","","","","","","","","","","","","","","","","","","","","","","","","","","","","","","","","","","","","","","","MET069MOBOB0 METAR 7018 //000 000000 111532Z AUTO VRB05KT //// 32/23 A2991=","","","","","","","","","",""
"00701899999","2013-07-11T15:59:00","0.0","0.0","7018.0","WXPOD 7018","FM-15","4","29.91","73","90","","","","","59","","","","","","290","","6","","","","","","","","","","","","","","","","","","","","","","","","","","","","","","","","","","","","","","","","","","","","","","","","","","","","","","","","","","","","","","","","","","","","","","","","","","","","","","","","","","","","","","","","","","","MET069MOBOB0 METAR 7018 //000 000000 111559Z AUTO 29005KT //// 32/23 A2991=","","","","","","","","","",""
"00701899999","2013-07-11T16:14:00","0.0","0.0","7018.0","WXPOD 7018","FM-15","4","29.91","73","91","","","","","56","","","","","","VRB","","3","","","","","","","","","","","","","","","","","","","","","","","","","","","","","","","","","","","","","","","","","","","","","","","","","","","","","","","","","","","","","","","","","","","","","","","","","","","","","","","","","","","","","","","","","","","MET069MOBOB0 METAR 7018 //000 000000 111614Z AUTO VRB03KT //// 33/23 A2991=","","","","","","","","","",""
"00701899999","2013-07-11T16:29:00","0.0","0.0","7018.0","WXPOD 7018","FM-15","4","29.90","73","90","","","","","59","","","","","","VRB","","6","","","","","","","","","","","","","","","","","","","","","","","","","","","","","","","","","","","","","","","","","","","","","","","","","","","","","","","","","","","","","","","","","","","","","","","","","","","","","","","","","","","","","","","","","","","MET069MOBOB0 METAR 7018 //000 000000 111629Z AUTO VRB05KT //// 32/23 A2990=","","","","","","","","","",""
"00701899999","2013-07-11T16:44:00","0.0","0.0","7018.0","WXPOD 7018","FM-15","4","29.90","73","88","","","","","62","","","","","","VRB","","7","","","","","","","","","","","","","","","","","","","","","","","","","","","","","","","","","","","","","","","","","","","","","","","","","","","","","","","","","","","","","","","","","","","","","","","","","","","","","","","","","","","","","","","","","","","MET069MOBOB0 METAR 7018 //000 000000 111644Z AUTO VRB06KT //// 31/23 A2990=","","","","","","","","","",""
"00701899999","2013-07-11T16:59:00","0.0","0.0","7018.0","WXPOD 7018","FM-15","4","29.89","73","91","","","","","56","","","","","","VRB","","3","","","","","","","","","","","","","","","","","","","","","","","","","","","","","","","","","","","","","","","","","","","","","","","","","","","","","","","","","","","","","","","","","","","","","","","","","","","","","","","","","","","","","","","","","","","MET069MOBOB0 METAR 7018 //000 000000 111659Z AUTO VRB03KT //// 33/23 A2989=","","","","","","","","","",""
"00701899999","2013-07-11T17:14:00","0.0","0.0","7018.0","WXPOD 7018","FM-15","4","29.89","73","93","","","","","53","","","","","","VRB","","5","","","","","","","","","","","","","","","","","","","","","","","","","","","","","","","","","","","","","","","","","","","","","","","","","","","","","","","","","","","","","","","","","","","","","","","","","","","","","","","","","","","","","","","","","","","MET069MOBOB0 METAR 7018 //000 000000 111714Z AUTO VRB04KT //// 34/23 A2989=","","","","","","","","","",""
"00701899999","2013-07-11T17:29:00","0.0","0.0","7018.0","WXPOD 7018","FM-15","4","29.88","73","91","","","","","56","","","","","","VRB","","5","","","","","","","","","","","","","","","","","","","","","","","","","","","","","","","","","","","","","","","","","","","","","","","","","","","","","","","","","","","","","","","","","","","","","","","","","","","","","","","","","","","","","","","","","","","MET069MOBOB0 METAR 7018 //000 000000 111729Z AUTO VRB04KT //// 33/23 A2988=","","","","","","","","","",""
"00701899999","2013-07-11T17:44:00","0.0","0.0","7018.0","WXPOD 7018","FM-15","4","29.88","79","86","","","","","79","","","","","","VRB","","2","","","","","","","","","","","","","","","","","","","","","","","","","","","","","","","","","","","","","","","","","","","","","","","","","","","","","","","","","","","","","","","","","","","","","","","","","","","","","","","","","","","","","","","","","","","MET069MOBOB0 METAR 7018 //000 000000 111744Z AUTO VRB02KT //// 30/26 A2988=","","","","","","","","","",""
"00701899999","2013-07-11T17:59:00","0.0","0.0","7018.0","WXPOD 7018","FM-15","4","29.90","79","79","","","","","100","","","","","","VRB","","5","","","","","","","","","","","","","","","","","","","","","","","","","","","","","","","","","","","","","","","","","","","","","","","","","","","","","","","","","","","","","","","","","","","","","","","","","","","","","","","","","","","","","","","","","","","MET069MOBOB0 METAR 7018 //000 000000 111759Z AUTO VRB04KT //// 26/26 A2990=","","","","","","","","","",""
"00701899999","2013-07-11T18:14:00","0.0","0.0","7018.0","WXPOD 7018","FM-15","4","29.91","75","75","","","","","100","","","","","","VRB","","2","","","","","","","","","","","","","","","","","","","","","","","","","","","","","","","","","","","","","","","","","","","","","","","","","","","","","","","","","","","","","","","","","","","","","","","","","","","","","","","","","","","","","","","","","","","MET069MOBOB0 METAR 7018 //000 000000 111814Z AUTO VRB02KT //// 24/24 A2991=","","","","","","","","","",""
"00701899999","2013-07-11T18:29:00","0.0","0.0","7018.0","WXPOD 7018","FM-15","4","29.89","73","73","","","","","100","","","","","","VRB","","2","","","","","","","","","","","","","","","","","","","","","","","","","","","","","","","","","","","","","","","","","","","","","","","","","","","","","","","","","","","","","","","","","","","","","","","","","","","","","","","","","","","","","","","","","","","MET069MOBOB0 METAR 7018 //000 000000 111829Z AUTO VRB02KT //// 23/23 A2989=","","","","","","","","","",""
"00701899999","2013-07-11T18:44:00","0.0","0.0","7018.0","WXPOD 7018","FM-15","4","29.88","73","73","","","","","100","","","","","","310","","3","","","","","","","","","","","","","","","","","","","","","","","","","","","","","","","","","","","","","","","","","","","","","","","","","","","","","","","","","","","","","","","","","","","","","","","","","","","","","","","","","","","","","","","","","","","MET069MOBOB0 METAR 7018 //000 000000 111844Z AUTO 31003KT //// 23/23 A2988=","","","","","","","","","",""
"00701899999","2013-07-11T18:59:00","0.0","0.0","7018.0","WXPOD 7018","FM-15","4","29.90","73","73","","","","","100","","","","","","260","","1","","","","","","","","","","","","","","","","","","","","","","","","","","","","","","","","","","","","","","","","","","","","","","","","","","","","","","","","","","","","","","","","","","","","","","","","","","","","","","","","","","","","","","","","","","","MET069MOBOB0 METAR 7018 //000 000000 111859Z AUTO 26001KT //// 23/23 A2990=","","","","","","","","","",""
"00701899999","2013-07-11T19:14:00","0.0","0.0","7018.0","WXPOD 7018","FM-15","4","29.91","73","73","","","","","100","","","","","","VRB","","1","","","","","","","","","","","","","","","","","","","","","","","","","","","","","","","","","","","","","","","","","","","","","","","","","","","","","","","","","","","","","","","","","","","","","","","","","","","","","","","","","","","","","","","","","","","MET069MOBOB0 METAR 7018 //000 000000 111914Z AUTO VRB01KT //// 23/23 A2991=","","","","","","","","","",""
"00701899999","2013-07-11T19:29:00","0.0","0.0","7018.0","WXPOD 7018","FM-15","4","29.90","73","73","","","","","100","","","","","","VRB","","2","","","","","","","","","","","","","","","","","","","","","","","","","","","","","","","","","","","","","","","","","","","","","","","","","","","","","","","","","","","","","","","","","","","","","","","","","","","","","","","","","","","","","","","","","","","MET069MOBOB0 METAR 7018 //000 000000 111929Z AUTO VRB02KT //// 23/23 A2990=","","","","","","","","","",""
"00701899999","2013-07-11T19:44:00","0.0","0.0","7018.0","WXPOD 7018","FM-15","4","29.90","73","73","","","","","100","","","","","","VRB","","1","","","","","","","","","","","","","","","","","","","","","","","","","","","","","","","","","","","","","","","","","","","","","","","","","","","","","","","","","","","","","","","","","","","","","","","","","","","","","","","","","","","","","","","","","","","MET069MOBOB0 METAR 7018 //000 000000 111944Z AUTO VRB01KT //// 23/23 A2990=","","","","","","","","","",""
"00701899999","2013-07-11T19:59:00","0.0","0.0","7018.0","WXPOD 7018","FM-15","4","29.92","73","73","","","","","100","","","","","","300","","3","","","","","","","","","","","","","","","","","","","","","","","","","","","","","","","","","","","","","","","","","","","","","","","","","","","","","","","","","","","","","","","","","","","","","","","","","","","","","","","","","","","","","","","","","","","MET069MOBOB0 METAR 7018 //000 000000 111959Z AUTO 30003KT //// 23/23 A2992=","","","","","","","","","",""
"00701899999","2013-07-11T20:14:00","0.0","0.0","7018.0","WXPOD 7018","FM-15","4","29.92","73","73","","","","","100","","","","","","VRB","","3","","","","","","","","","","","","","","","","","","","","","","","","","","","","","","","","","","","","","","","","","","","","","","","","","","","","","","","","","","","","","","","","","","","","","","","","","","","","","","","","","","","","","","","","","","","MET069MOBOB0 METAR 7018 //000 000000 112014Z AUTO VRB03KT //// 23/23 A2992=","","","","","","","","","",""
"00701899999","2013-07-11T20:29:00","0.0","0.0","7018.0","WXPOD 7018","FM-15","4","29.90","72","72s","","","","","100","","","","","","VRB","","3","","","","","","","","","","","","","","","","","","","","","","","","","","","","","","","","","","","","","","","","","","","","","","","","","","","","","","","","","","","","","","","","","","","","","","","","","","","","","","","","","","","","","","","","","","","MET069MOBOB0 METAR 7018 //000 000000 112029Z AUTO VRB03KT //// 22/22 A2990=","","","","","","","","","",""
"00701899999","2013-07-11T20:44:00","0.0","0.0","7018.0","WXPOD 7018","FM-15","4","29.90","72","72","","","","","100","","","","","","270","","1","","","","","","","","","","","","","","","","","","","","","","","","","","","","","","","","","","","","","","","","","","","","","","","","","","","","","","","","","","","","","","","","","","","","","","","","","","","","","","","","","","","","","","","","","","","MET069MOBOB0 METAR 7018 //000 000000 112044Z AUTO 27001KT //// 22/22 A2990=","","","","","","","","","",""
"00701899999","2013-07-11T20:59:00","0.0","0.0","7018.0","WXPOD 7018","FM-15","4","29.89","72","72","","","","","100","","","","","","VRB","","2","","","","","","","","","","","","","","","","","","","","","","","","","","","","","","","","","","","","","","","","","","","","","","","","","","","","","","","","","","","","","","","","","","","","","","","","","","","","","","","","","","","","","","","","","","","MET069MOBOB0 METAR 7018 //000 000000 112059Z AUTO VRB02KT //// 22/22 A2989=","","","","","","","","","",""
"00701899999","2013-07-11T21:14:00","0.0","0.0","7018.0","WXPOD 7018","FM-15","4","29.90","73","73","","","","","100","","","","","","VRB","","3","","","","","","","","","","","","","","","","","","","","","","","","","","","","","","","","","","","","","","","","","","","","","","","","","","","","","","","","","","","","","","","","","","","","","","","","","","","","","","","","","","","","","","","","","","","MET069MOBOB0 METAR 7018 //000 000000 112114Z AUTO VRB03KT //// 23/23 A2990=","","","","","","","","","",""
"00701899999","2013-07-11T21:29:00","0.0","0.0","7018.0","WXPOD 7018","FM-15","4","29.90","73","73","","","","","100","","","","","","290","","3","","","","","","","","","","","","","","","","","","","","","","","","","","","","","","","","","","","","","","","","","","","","","","","","","","","","","","","","","","","","","","","","","","","","","","","","","","","","","","","","","","","","","","","","","","","MET069MOBOB0 METAR 7018 //000 000000 112129Z AUTO 29003KT //// 23/23 A2990=","","","","","","","","","",""
"00701899999","2013-07-11T21:44:00","0.0","0.0","7018.0","WXPOD 7018","FM-15","4","29.93","73","73","","","","","100","","","","","","VRB","","3","","","","","","","","","","","","","","","","","","","","","","","","","","","","","","","","","","","","","","","","","","","","","","","","","","","","","","","","","","","","","","","","","","","","","","","","","","","","","","","","","","","","","","","","","","","MET069MOBOB0 METAR 7018 //000 000000 112144Z AUTO VRB03KT //// 23/23 A2993=","","","","","","","","","",""
"00701899999","2013-07-11T21:59:00","0.0","0.0","7018.0","WXPOD 7018","FM-15","4","29.92","73","73","","","","","100","","","","","","300","","3","","","","","","","","","","","","","","","","","","","","","","","","","","","","","","","","","","","","","","","","","","","","","","","","","","","","","","","","","","","","","","","","","","","","","","","","","","","","","","","","","","","","","","","","","","","MET069MOBOB0 METAR 7018 //000 000000 112159Z AUTO 30003KT //// 23/23 A2992=","","","","","","","","","",""
"00701899999","2013-07-11T22:14:00","0.0","0.0","7018.0","WXPOD 7018","FM-15","4","29.91","72","72","","","","","100","","","","","","VRB","","2","","","","","","","","","","","","","","","","","","","","","","","","","","","","","","","","","","","","","","","","","","","","","","","","","","","","","","","","","","","","","","","","","","","","","","","","","","","","","","","","","","","","","","","","","","","MET069MOBOB0 METAR 7018 //000 000000 112214Z AUTO VRB02KT //// 22/22 A2991=","","","","","","","","","",""
"00701899999","2013-07-11T22:29:00","0.0","0.0","7018.0","WXPOD 7018","FM-15","4","29.90","72","72","","","","","100","","","","","","VRB","","2","","","","","","","","","","","","","","","","","","","","","","","","","","","","","","","","","","","","","","","","","","","","","","","","","","","","","","","","","","","","","","","","","","","","","","","","","","","","","","","","","","","","","","","","","","","MET069MOBOB0 METAR 7018 //000 000000 112229Z AUTO VRB02KT //// 22/22 A2990=","","","","","","","","","",""
"00701899999","2013-07-11T22:44:00","0.0","0.0","7018.0","WXPOD 7018","FM-15","4","29.90","72","72","","","","","100","","","","","","VRB","","1","","","","","","","","","","","","","","","","","","","","","","","","","","","","","","","","","","","","","","","","","","","","","","","","","","","","","","","","","","","","","","","","","","","","","","","","","","","","","","","","","","","","","","","","","","","MET069MOBOB0 METAR 7018 //000 000000 112244Z AUTO VRB01KT //// 22/22 A2990=","","","","","","","","","",""
"00701899999","2013-07-11T22:59:00","0.0","0.0","7018.0","WXPOD 7018","FM-15","4","29.90","73","73","","","","","100","","","","","","300","","2","","","","","","","","","","","","","","","","","","","","","","","","","","","","","","","","","","","","","","","","","","","","","","","","","","","","","","","","","","","","","","","","","","","","","","","","","","","","","","","","","","","","","","","","","","","MET069MOBOB0 METAR 7018 //000 000000 112259Z AUTO 30002KT //// 23/23 A2990=","","","","","","","","","",""
"00701899999","2013-07-11T23:14:00","0.0","0.0","7018.0","WXPOD 7018","FM-15","4","29.90","72","72","","","","","100","","","","","","300","","3","","","","","","","","","","","","","","","","","","","","","","","","","","","","","","","","","","","","","","","","","","","","","","","","","","","","","","","","","","","","","","","","","","","","","","","","","","","","","","","","","","","","","","","","","","","MET069MOBOB0 METAR 7018 //000 000000 112314Z AUTO 30003KT //// 22/22 A2990=","","","","","","","","","",""
"00701899999","2013-07-11T23:29:00","0.0","0.0","7018.0","WXPOD 7018","FM-15","4","29.90","72","72","","","","","100","","","","","","280","","1","","","","","","","","","","","","","","","","","","","","","","","","","","","","","","","","","","","","","","","","","","","","","","","","","","","","","","","","","","","","","","","","","","","","","","","","","","","","","","","","","","","","","","","","","","","MET069MOBOB0 METAR 7018 //000 000000 112329Z AUTO 28001KT //// 22/22 A2990=","","","","","","","","","",""
"00701899999","2013-07-11T23:44:00","0.0","0.0","7018.0","WXPOD 7018","FM-15","4","29.90","72","72","","","","","100","","","","","","290","","2","","","","","","","","","","","","","","","","","","","","","","","","","","","","","","","","","","","","","","","","","","","","","","","","","","","","","","","","","","","","","","","","","","","","","","","","","","","","","","","","","","","","","","","","","","","MET069MOBOB0 METAR 7018 //000 000000 112344Z AUTO 29002KT //// 22/22 A2990=","","","","","","","","","",""
"00701899999","2013-07-11T23:59:00","0.0","0.0","7018.0","WXPOD 7018","FM-15","4","29.90","72","72","","","","","100","","","","","","260","","3","","","","","","","","","","","","","","","","","","","","","","","","","","","","","","","","","","","","","","","","","","","","","","","","","","","","","","","","","","","","","","","","","","","","","","","","","","","","","","","","","","","","","","","","","","","MET069MOBOB0 METAR 7018 //000 000000 112359Z AUTO 26003KT //// 22/22 A2990=","","","","","","","","","",""
"00701899999","2013-07-12T00:14:00","0.0","0.0","7018.0","WXPOD 7018","FM-15","4","29.90","72","72","","","","","100","","","","","","VRB","","2","","","","","","","","","","","","","","","","","","","","","","","","","","","","","","","","","","","","","","","","","","","","","","","","","","","","","","","","","","","","","","","","","","","","","","","","","","","","","","","","","","","","","","","","","","","MET069MOBOB0 METAR 7018 //000 000000 120014Z AUTO VRB02KT //// 22/22 A2990=","","","","","","","","","",""
"00701899999","2013-07-12T00:29:00","0.0","0.0","7018.0","WXPOD 7018","FM-15","4","29.90","72","72","","","","","100","","","","","","290","","3","","","","","","","","","","","","","","","","","","","","","","","","","","","","","","","","","","","","","","","","","","","","","","","","","","","","","","","","","","","","","","","","","","","","","","","","","","","","","","","","","","","","","","","","","","","MET069MOBOB0 METAR 7018 //000 000000 120029Z AUTO 29003KT //// 22/22 A2990=","","","","","","","","","",""
"00701899999","2013-07-12T00:44:00","0.0","0.0","7018.0","WXPOD 7018","FM-15","4","29.90","73","73","","","","","100","","","","","","300","","3","","","","","","","","","","","","","","","","","","","","","","","","","","","","","","","","","","","","","","","","","","","","","","","","","","","","","","","","","","","","","","","","","","","","","","","","","","","","","","","","","","","","","","","","","","","MET069MOBOB0 METAR 7018 //000 000000 120044Z AUTO 30003KT //// 23/23 A2990=","","","","","","","","","",""
"00701899999","2013-07-12T00:59:00","0.0","0.0","7018.0","WXPOD 7018","FM-15","4","29.90","73","73","","","","","100","","","","","","300","","1","","","","","","","","","","","","","","","","","","","","","","","","","","","","","","","","","","","","","","","","","","","","","","","","","","","","","","","","","","","","","","","","","","","","","","","","","","","","","","","","","","","","","","","","","","","MET069MOBOB0 METAR 7018 //000 000000 120059Z AUTO 30001KT //// 23/23 A2990=","","","","","","","","","",""
"00701899999","2013-07-12T01:14:00","0.0","0.0","7018.0","WXPOD 7018","FM-15","4","29.90","73","73","","","","","100","","","","","","270","","1","","","","","","","","","","","","","","","","","","","","","","","","","","","","","","","","","","","","","","","","","","","","","","","","","","","","","","","","","","","","","","","","","","","","","","","","","","","","","","","","","","","","","","","","","","","MET069MOBOB0 METAR 7018 //000 000000 120114Z AUTO 27001KT //// 23/23 A2990=","","","","","","","","","",""
"00701899999","2013-07-12T01:29:00","0.0","0.0","7018.0","WXPOD 7018","FM-15","4","29.89","73","73","","","","","100","","","","","","VRB","","1","","","","","","","","","","","","","","","","","","","","","","","","","","","","","","","","","","","","","","","","","","","","","","","","","","","","","","","","","","","","","","","","","","","","","","","","","","","","","","","","","","","","","","","","","","","MET069MOBOB0 METAR 7018 //000 000000 120129Z AUTO VRB01KT //// 23/23 A2989=","","","","","","","","","",""
"00701899999","2013-07-12T01:44:00","0.0","0.0","7018.0","WXPOD 7018","FM-15","4","29.89","72","72","","","","","100","","","","","","VRB","","2","","","","","","","","","","","","","","","","","","","","","","","","","","","","","","","","","","","","","","","","","","","","","","","","","","","","","","","","","","","","","","","","","","","","","","","","","","","","","","","","","","","","","","","","","","","MET069MOBOB0 METAR 7018 //000 000000 120144Z AUTO VRB02KT //// 22/22 A2989=","","","","","","","","","",""
"00701899999","2013-07-12T01:59:00","0.0","0.0","7018.0","WXPOD 7018","FM-15","4","29.90","73","73","","","","","100","","","","","","100","","1","","","","","","","","","","","","","","","","","","","","","","","","","","","","","","","","","","","","","","","","","","","","","","","","","","","","","","","","","","","","","","","","","","","","","","","","","","","","","","","","","","","","","","","","","","","MET069MOBOB0 METAR 7018 //000 000000 120159Z AUTO 10001KT //// 23/23 A2990=","","","","","","","","","",""
"00701899999","2013-07-12T02:14:00","0.0","0.0","7018.0","WXPOD 7018","FM-15","4","29.90","72","72","","","","","100","","","","","","140","","2","","","","","","","","","","","","","","","","","","","","","","","","","","","","","","","","","","","","","","","","","","","","","","","","","","","","","","","","","","","","","","","","","","","","","","","","","","","","","","","","","","","","","","","","","","","MET069MOBOB0 METAR 7018 //000 000000 120214Z AUTO 14002KT //// 22/22 A2990=","","","","","","","","","",""
"00701899999","2013-07-12T02:29:00","0.0","0.0","7018.0","WXPOD 7018","FM-15","4","29.90","72","72","","","","","100","","","","","","230","","3","","","","","","","","","","","","","","","","","","","","","","","","","","","","","","","","","","","","","","","","","","","","","","","","","","","","","","","","","","","","","","","","","","","","","","","","","","","","","","","","","","","","","","","","","","","MET069MOBOB0 METAR 7018 //000 000000 120229Z AUTO 23003KT //// 22/22 A2990=","","","","","","","","","",""
"00701899999","2013-07-12T02:44:00","0.0","0.0","7018.0","WXPOD 7018","FM-15","4","29.90","72","72","","","","","100","","","","","","230","","3","","","","","","","","","","","","","","","","","","","","","","","","","","","","","","","","","","","","","","","","","","","","","","","","","","","","","","","","","","","","","","","","","","","","","","","","","","","","","","","","","","","","","","","","","","","MET069MOBOB0 METAR 7018 //000 000000 120244Z AUTO 23003KT //// 22/22 A2990=","","","","","","","","","",""
"00701899999","2013-07-12T02:59:00","0.0","0.0","7018.0","WXPOD 7018","FM-15","4","29.91","72","72","","","","","100","","","","","","VRB","","2","","","","","","","","","","","","","","","","","","","","","","","","","","","","","","","","","","","","","","","","","","","","","","","","","","","","","","","","","","","","","","","","","","","","","","","","","","","","","","","","","","","","","","","","","","","MET069MOBOB0 METAR 7018 //000 000000 120259Z AUTO VRB02KT //// 22/22 A2991=","","","","","","","","","",""
"00701899999","2013-07-12T03:14:00","0.0","0.0","7018.0","WXPOD 7018","FM-15","4","29.91","72","72","","","","","100","","","","","","VRB","","2","","","","","","","","","","","","","","","","","","","","","","","","","","","","","","","","","","","","","","","","","","","","","","","","","","","","","","","","","","","","","","","","","","","","","","","","","","","","","","","","","","","","","","","","","","","MET069MOBOB0 METAR 7018 //000 000000 120314Z AUTO VRB02KT //// 22/22 A2991=","","","","","","","","","",""
"00701899999","2013-07-12T03:29:00","0.0","0.0","7018.0","WXPOD 7018","FM-15","4","29.91","72","72","","","","","100","","","","","","220","","3","","","","","","","","","","","","","","","","","","","","","","","","","","","","","","","","","","","","","","","","","","","","","","","","","","","","","","","","","","","","","","","","","","","","","","","","","","","","","","","","","","","","","","","","","","","MET069MOBOB0 METAR 7018 //000 000000 120329Z AUTO 22003KT //// 22/22 A2991=","","","","","","","","","",""
"00701899999","2013-07-12T03:44:00","0.0","0.0","7018.0","WXPOD 7018","FM-15","4","29.91","72","72","","","","","100","","","","","","230","","2","","","","","","","","","","","","","","","","","","","","","","","","","","","","","","","","","","","","","","","","","","","","","","","","","","","","","","","","","","","","","","","","","","","","","","","","","","","","","","","","","","","","","","","","","","","MET069MOBOB0 METAR 7018 //000 000000 120344Z AUTO 23002KT //// 22/22 A2991=","","","","","","","","","",""
"00701899999","2013-07-12T03:59:00","0.0","0.0","7018.0","WXPOD 7018","FM-15","4","29.91","72","72","","","","","100","","","","","","230","","3","","","","","","","","","","","","","","","","","","","","","","","","","","","","","","","","","","","","","","","","","","","","","","","","","","","","","","","","","","","","","","","","","","","","","","","","","","","","","","","","","","","","","","","","","","","MET069MOBOB0 METAR 7018 //000 000000 120359Z AUTO 23003KT //// 22/22 A2991=","","","","","","","","","",""
"00701899999","2013-07-12T04:14:00","0.0","0.0","7018.0","WXPOD 7018","FM-15","4","29.90","72","72","","","","","100","","","","","","VRB","","2","","","","","","","","","","","","","","","","","","","","","","","","","","","","","","","","","","","","","","","","","","","","","","","","","","","","","","","","","","","","","","","","","","","","","","","","","","","","","","","","","","","","","","","","","","","MET069MOBOB0 METAR 7018 //000 000000 120414Z AUTO VRB02KT //// 22/22 A2990=","","","","","","","","","",""
"00701899999","2013-07-12T04:29:00","0.0","0.0","7018.0","WXPOD 7018","FM-15","4","29.90","72","72","","","","","100","","","","","","260","","2","","","","","","","","","","","","","","","","","","","","","","","","","","","","","","","","","","","","","","","","","","","","","","","","","","","","","","","","","","","","","","","","","","","","","","","","","","","","","","","","","","","","","","","","","","","MET069MOBOB0 METAR 7018 //000 000000 120429Z AUTO 26002KT //// 22/22 A2990=","","","","","","","","","",""
"00701899999","2013-07-12T04:44:00","0.0","0.0","7018.0","WXPOD 7018","FM-15","4","29.90","73","73","","","","","100","","","","","","220","","1","","","","","","","","","","","","","","","","","","","","","","","","","","","","","","","","","","","","","","","","","","","","","","","","","","","","","","","","","","","","","","","","","","","","","","","","","","","","","","","","","","","","","","","","","","","MET069MOBOB0 METAR 7018 //000 000000 120444Z AUTO 22001KT //// 23/23 A2990=","","","","","","","","","",""
"00701899999","2013-07-12T04:59:00","0.0","0.0","7018.0","WXPOD 7018","FM-15","4","29.90","72","72","","","","","100","","","","","","260","","1","","","","","","","","","","","","","","","","","","","","","","","","","","","","","","","","","","","","","","","","","","","","","","","","","","","","","","","","","","","","","","","","","","","","","","","","","","","","","","","","","","","","","","","","","","","MET069MOBOB0 METAR 7018 //000 000000 120459Z AUTO 26001KT //// 22/22 A2990=","","","","","","","","","",""
"00701899999","2013-07-12T05:14:00","0.0","0.0","7018.0","WXPOD 7018","FM-15","4","29.89","73","73","","","","","100","","","","","","VRB","","1","","","","","","","","","","","","","","","","","","","","","","","","","","","","","","","","","","","","","","","","","","","","","","","","","","","","","","","","","","","","","","","","","","","","","","","","","","","","","","","","","","","","","","","","","","","MET069MOBOB0 METAR 7018 //000 000000 120514Z AUTO VRB01KT //// 23/23 A2989=","","","","","","","","","",""
"00701899999","2013-07-12T05:29:00","0.0","0.0","7018.0","WXPOD 7018","FM-15","4","29.89","73","73","","","","","100","","","","","","VRB","","1","","","","","","","","","","","","","","","","","","","","","","","","","","","","","","","","","","","","","","","","","","","","","","","","","","","","","","","","","","","","","","","","","","","","","","","","","","","","","","","","","","","","","","","","","","","MET069MOBOB0 METAR 7018 //000 000000 120529Z AUTO VRB01KT //// 23/23 A2989=","","","","","","","","","",""
"00701899999","2013-07-12T05:44:00","0.0","0.0","7018.0","WXPOD 7018","FM-15","4","29.89","73","73","","","","","100","","","","","","VRB","","1","","","","","","","","","","","","","","","","","","","","","","","","","","","","","","","","","","","","","","","","","","","","","","","","","","","","","","","","","","","","","","","","","","","","","","","","","","","","","","","","","","","","","","","","","","","MET069MOBOB0 METAR 7018 //000 000000 120544Z AUTO VRB01KT //// 23/23 A2989=","","","","","","","","","",""
"00701899999","2013-07-12T05:59:00","0.0","0.0","7018.0","WXPOD 7018","FM-15","4","29.89","73","73","","","","","100","","","","","","220","","1","","","","","","","","","","","","","","","","","","","","","","","","","","","","","","","","","","","","","","","","","","","","","","","","","","","","","","","","","","","","","","","","","","","","","","","","","","","","","","","","","","","","","","","","","","","MET069MOBOB0 METAR 7018 //000 000000 120559Z AUTO 22001KT //// 23/23 A2989=","","","","","","","","","",""
"00701899999","2013-07-12T06:14:00","0.0","0.0","7018.0","WXPOD 7018","FM-15","4","29.90","73","73","","","","","100","","","","","","170","","1","","","","","","","","","","","","","","","","","","","","","","","","","","","","","","","","","","","","","","","","","","","","","","","","","","","","","","","","","","","","","","","","","","","","","","","","","","","","","","","","","","","","","","","","","","","MET069MOBOB0 METAR 7018 //000 000000 120614Z AUTO 17001KT //// 23/23 A2990=","","","","","","","","","",""
"00701899999","2013-07-12T06:29:00","0.0","0.0","7018.0","WXPOD 7018","FM-15","4","29.90","73","73","","","","","100","","","","","","220","","1","","","","","","","","","","","","","","","","","","","","","","","","","","","","","","","","","","","","","","","","","","","","","","","","","","","","","","","","","","","","","","","","","","","","","","","","","","","","","","","","","","","","","","","","","","","MET069MOBOB0 METAR 7018 //000 000000 120629Z AUTO 22001KT //// 23/23 A2990=","","","","","","","","","",""
"00701899999","2013-07-12T06:44:00","0.0","0.0","7018.0","WXPOD 7018","FM-15","4","29.90","73","73","","","","","100","","","","","","000","","0","","","","","","","","","","","","","","","","","","","","","","","","","","","","","","","","","","","","","","","","","","","","","","","","","","","","","","","","","","","","","","","","","","","","","","","","","","","","","","","","","","","","","","","","","","","MET069MOBOB0 METAR 7018 //000 000000 120644Z AUTO 00000KT //// 23/23 A2990=","","","","","","","","","",""
"00701899999","2013-07-12T06:59:00","0.0","0.0","7018.0","WXPOD 7018","FM-15","4","29.89","73","73","","","","","100","","","","","","VRB","","1","","","","","","","","","","","","","","","","","","","","","","","","","","","","","","","","","","","","","","","","","","","","","","","","","","","","","","","","","","","","","","","","","","","","","","","","","","","","","","","","","","","","","","","","","","","MET069MOBOB0 METAR 7018 //000 000000 120659Z AUTO VRB01KT //// 23/23 A2989=","","","","","","","","","",""
"00701899999","2013-07-12T07:14:00","0.0","0.0","7018.0","WXPOD 7018","FM-15","4","29.89","73","73","","","","","100","","","","","","VRB","","1","","","","","","","","","","","","","","","","","","","","","","","","","","","","","","","","","","","","","","","","","","","","","","","","","","","","","","","","","","","","","","","","","","","","","","","","","","","","","","","","","","","","","","","","","","","MET069MOBOB0 METAR 7018 //000 000000 120714Z AUTO VRB01KT //// 23/23 A2989=","","","","","","","","","",""
"00701899999","2013-07-12T07:29:00","0.0","0.0","7018.0","WXPOD 7018","FM-15","4","29.89","73","73","","","","","100","","","","","","VRB","","1","","","","","","","","","","","","","","","","","","","","","","","","","","","","","","","","","","","","","","","","","","","","","","","","","","","","","","","","","","","","","","","","","","","","","","","","","","","","","","","","","","","","","","","","","","","MET069MOBOB0 METAR 7018 //000 000000 120729Z AUTO VRB01KT //// 23/23 A2989=","","","","","","","","","",""
"00701899999","2013-07-12T07:44:00","0.0","0.0","7018.0","WXPOD 7018","FM-15","4","29.89","73","73","","","","","100","","","","","","340","","1","","","","","","","","","","","","","","","","","","","","","","","","","","","","","","","","","","","","","","","","","","","","","","","","","","","","","","","","","","","","","","","","","","","","","","","","","","","","","","","","","","","","","","","","","","","MET069MOBOB0 METAR 7018 //000 000000 120744Z AUTO 34001KT //// 23/23 A2989=","","","","","","","","","",""
"00701899999","2013-07-12T07:59:00","0.0","0.0","7018.0","WXPOD 7018","FM-15","4","29.88","73","73","","","","","100","","","","","","300","","1","","","","","","","","","","","","","","","","","","","","","","","","","","","","","","","","","","","","","","","","","","","","","","","","","","","","","","","","","","","","","","","","","","","","","","","","","","","","","","","","","","","","","","","","","","","MET069MOBOB0 METAR 7018 //000 000000 120759Z AUTO 30001KT //// 23/23 A2988=","","","","","","","","","",""
"00701899999","2013-07-12T08:14:00","0.0","0.0","7018.0","WXPOD 7018","FM-15","4","29.88","73","73","","","","","100","","","","","","VRB","","2","","","","","","","","","","","","","","","","","","","","","","","","","","","","","","","","","","","","","","","","","","","","","","","","","","","","","","","","","","","","","","","","","","","","","","","","","","","","","","","","","","","","","","","","","","","MET069MOBOB0 METAR 7018 //000 000000 120814Z AUTO VRB02KT //// 23/23 A2988=","","","","","","","","","",""
"00701899999","2013-07-12T08:29:00","0.0","0.0","7018.0","WXPOD 7018","FM-15","4","29.88","73","73","","","","","100","","","","","","310","","1","","","","","","","","","","","","","","","","","","","","","","","","","","","","","","","","","","","","","","","","","","","","","","","","","","","","","","","","","","","","","","","","","","","","","","","","","","","","","","","","","","","","","","","","","","","MET069MOBOB0 METAR 7018 //000 000000 120829Z AUTO 31001KT //// 23/23 A2988=","","","","","","","","","",""
"00701899999","2013-07-12T08:44:00","0.0","0.0","7018.0","WXPOD 7018","FM-15","4","29.87","73","73","","","","","100","","","","","","010","","1","","","","","","","","","","","","","","","","","","","","","","","","","","","","","","","","","","","","","","","","","","","","","","","","","","","","","","","","","","","","","","","","","","","","","","","","","","","","","","","","","","","","","","","","","","","MET069MOBOB0 METAR 7018 //000 000000 120844Z AUTO 01001KT //// 23/23 A2987=","","","","","","","","","",""
"00701899999","2013-07-12T08:59:00","0.0","0.0","7018.0","WXPOD 7018","FM-15","4","29.87","73","73","","","","","100","","","","","","010","","1","","","","","","","","","","","","","","","","","","","","","","","","","","","","","","","","","","","","","","","","","","","","","","","","","","","","","","","","","","","","","","","","","","","","","","","","","","","","","","","","","","","","","","","","","","","MET069MOBOB0 METAR 7018 //000 000000 120859Z AUTO 01001KT //// 23/23 A2987=","","","","","","","","","",""
"00701899999","2013-07-12T09:14:00","0.0","0.0","7018.0","WXPOD 7018","FM-15","4","29.88","73","73","","","","","100","","","","","","330","","1","","","","","","","","","","","","","","","","","","","","","","","","","","","","","","","","","","","","","","","","","","","","","","","","","","","","","","","","","","","","","","","","","","","","","","","","","","","","","","","","","","","","","","","","","","","MET069MOBOB0 METAR 7018 //000 000000 120914Z AUTO 33001KT //// 23/23 A2988=","","","","","","","","","",""
"00701899999","2013-07-12T09:29:00","0.0","0.0","7018.0","WXPOD 7018","FM-15","4","29.88","73","73","","","","","100","","","","","","000","","0","","","","","","","","","","","","","","","","","","","","","","","","","","","","","","","","","","","","","","","","","","","","","","","","","","","","","","","","","","","","","","","","","","","","","","","","","","","","","","","","","","","","","","","","","","","MET069MOBOB0 METAR 7018 //000 000000 120929Z AUTO 00000KT //// 23/23 A2988=","","","","","","","","","",""
"00701899999","2013-07-12T09:44:00","0.0","0.0","7018.0","WXPOD 7018","FM-15","4","29.88","73","73","","","","","100","","","","","","320","","1","","","","","","","","","","","","","","","","","","","","","","","","","","","","","","","","","","","","","","","","","","","","","","","","","","","","","","","","","","","","","","","","","","","","","","","","","","","","","","","","","","","","","","","","","","","MET069MOBOB0 METAR 7018 //000 000000 120944Z AUTO 32001KT //// 23/23 A2988=","","","","","","","","","",""
"00701899999","2013-07-12T09:59:00","0.0","0.0","7018.0","WXPOD 7018","FM-15","4","29.89","73","73","","","","","100","","","","","","310","","1","","","","","","","","","","","","","","","","","","","","","","","","","","","","","","","","","","","","","","","","","","","","","","","","","","","","","","","","","","","","","","","","","","","","","","","","","","","","","","","","","","","","","","","","","","","MET069MOBOB0 METAR 7018 //000 000000 120959Z AUTO 31001KT //// 23/23 A2989=","","","","","","","","","",""
"00701899999","2013-07-12T10:14:00","0.0","0.0","7018.0","WXPOD 7018","FM-15","4","29.90","73","73","","","","","100","","","","","","160","","1","","","","","","","","","","","","","","","","","","","","","","","","","","","","","","","","","","","","","","","","","","","","","","","","","","","","","","","","","","","","","","","","","","","","","","","","","","","","","","","","","","","","","","","","","","","MET069MOBOB0 METAR 7018 //000 000000 121014Z AUTO 16001KT //// 23/23 A2990=","","","","","","","","","",""
"00701899999","2013-07-12T10:29:00","0.0","0.0","7018.0","WXPOD 7018","FM-15","4","29.90","73","73","","","","","100","","","","","","210","","1","","","","","","","","","","","","","","","","","","","","","","","","","","","","","","","","","","","","","","","","","","","","","","","","","","","","","","","","","","","","","","","","","","","","","","","","","","","","","","","","","","","","","","","","","","","MET069MOBOB0 METAR 7018 //000 000000 121029Z AUTO 21001KT //// 23/23 A2990=","","","","","","","","","",""
"00701899999","2013-07-12T10:44:00","0.0","0.0","7018.0","WXPOD 7018","FM-15","4","29.90","73","73","","","","","100","","","","","","000","","0","","","","","","","","","","","","","","","","","","","","","","","","","","","","","","","","","","","","","","","","","","","","","","","","","","","","","","","","","","","","","","","","","","","","","","","","","","","","","","","","","","","","","","","","","","","MET069MOBOB0 METAR 7018 //000 000000 121044Z AUTO 00000KT //// 23/23 A2990=","","","","","","","","","",""
"00701899999","2013-07-12T10:59:00","0.0","0.0","7018.0","WXPOD 7018","FM-15","4","29.90","73","73","","","","","100","","","","","","160","","1","","","","","","","","","","","","","","","","","","","","","","","","","","","","","","","","","","","","","","","","","","","","","","","","","","","","","","","","","","","","","","","","","","","","","","","","","","","","","","","","","","","","","","","","","","","MET069MOBOB0 METAR 7018 //000 000000 121059Z AUTO 16001KT //// 23/23 A2990=","","","","","","","","","",""
"00701899999","2013-07-12T11:14:00","0.0","0.0","7018.0","WXPOD 7018","FM-15","4","29.90","73","73","","","","","100","","","","","","130","","1","","","","","","","","","","","","","","","","","","","","","","","","","","","","","","","","","","","","","","","","","","","","","","","","","","","","","","","","","","","","","","","","","","","","","","","","","","","","","","","","","","","","","","","","","","","MET069MOBOB0 METAR 7018 //000 000000 121114Z AUTO 13001KT //// 23/23 A2990=","","","","","","","","","",""
"00701899999","2013-07-12T11:29:00","0.0","0.0","7018.0","WXPOD 7018","FM-15","4","29.89","73","73","","","","","100","","","","","","VRB","","1","","","","","","","","","","","","","","","","","","","","","","","","","","","","","","","","","","","","","","","","","","","","","","","","","","","","","","","","","","","","","","","","","","","","","","","","","","","","","","","","","","","","","","","","","","","MET069MOBOB0 METAR 7018 //000 000000 121129Z AUTO VRB01KT //// 23/23 A2989=","","","","","","","","","",""
"00701899999","2013-07-12T11:44:00","0.0","0.0","7018.0","WXPOD 7018","FM-15","4","29.88","73","73","","","","","100","","","","","","VRB","","1","","","","","","","","","","","","","","","","","","","","","","","","","","","","","","","","","","","","","","","","","","","","","","","","","","","","","","","","","","","","","","","","","","","","","","","","","","","","","","","","","","","","","","","","","","","MET069MOBOB0 METAR 7018 //000 000000 121144Z AUTO VRB01KT //// 23/23 A2988=","","","","","","","","","",""
"00701899999","2013-07-12T11:59:00","0.0","0.0","7018.0","WXPOD 7018","FM-15","4","29.87","73","73","","","","","100","","","","","","VRB","","1","","","","","","","","","","","","","","","","","","","","","","","","","","","","","","","","","","","","","","","","","","","","","","","","","","","","","","","","","","","","","","","","","","","","","","","","","","","","","","","","","","","","","","","","","","","MET069MOBOB0 METAR 7018 //000 000000 121159Z AUTO VRB01KT //// 23/23 A2987=","","","","","","","","","",""
"00701899999","2013-07-12T12:14:00","0.0","0.0","7018.0","WXPOD 7018","FM-15","4","29.88","73","73","","","","","100","","","","","","VRB","","2","","","","","","","","","","","","","","","","","","","","","","","","","","","","","","","","","","","","","","","","","","","","","","","","","","","","","","","","","","","","","","","","","","","","","","","","","","","","","","","","","","","","","","","","","","","MET069MOBOB0 METAR 7018 //000 000000 121214Z AUTO VRB02KT //// 23/23 A2988=","","","","","","","","","",""
"00701899999","2013-07-12T12:29:00","0.0","0.0","7018.0","WXPOD 7018","FM-15","4","29.89","73","73","","","","","100","","","","","","VRB","","2","","","","","","","","","","","","","","","","","","","","","","","","","","","","","","","","","","","","","","","","","","","","","","","","","","","","","","","","","","","","","","","","","","","","","","","","","","","","","","","","","","","","","","","","","","","MET069MOBOB0 METAR 7018 //000 000000 121229Z AUTO VRB02KT //// 23/23 A2989=","","","","","","","","","",""
"00701899999","2013-07-12T12:44:00","0.0","0.0","7018.0","WXPOD 7018","FM-15","4","29.88","75","75","","","","","100","","","","","","VRB","","2","","","","","","","","","","","","","","","","","","","","","","","","","","","","","","","","","","","","","","","","","","","","","","","","","","","","","","","","","","","","","","","","","","","","","","","","","","","","","","","","","","","","","","","","","","","MET069MOBOB0 METAR 7018 //000 000000 121244Z AUTO VRB02KT //// 24/24 A2988=","","","","","","","","","",""
"00701899999","2013-07-12T12:59:00","0.0","0.0","7018.0","WXPOD 7018","FM-15","4","29.89","75","75","","","","","100","","","","","","VRB","","2","","","","","","","","","","","","","","","","","","","","","","","","","","","","","","","","","","","","","","","","","","","","","","","","","","","","","","","","","","","","","","","","","","","","","","","","","","","","","","","","","","","","","","","","","","","MET069MOBOB0 METAR 7018 //000 000000 121259Z AUTO VRB02KT //// 24/24 A2989=","","","","","","","","","",""
"00701899999","2013-07-12T13:14:00","0.0","0.0","7018.0","WXPOD 7018","FM-15","4","29.92","73","73","","","","","100","","","","","","VRB","","2","","","","","","","","","","","","","","","","","","","","","","","","","","","","","","","","","","","","","","","","","","","","","","","","","","","","","","","","","","","","","","","","","","","","","","","","","","","","","","","","","","","","","","","","","","","MET069MOBOB0 METAR 7018 //000 000000 121314Z AUTO VRB02KT //// 23/23 A2992=","","","","","","","","","",""
"00701899999","2013-07-12T13:29:00","0.0","0.0","7018.0","WXPOD 7018","FM-15","4","29.91","73","73","","","","","100","","","","","","VRB","","3","","","","","","","","","","","","","","","","","","","","","","","","","","","","","","","","","","","","","","","","","","","","","","","","","","","","","","","","","","","","","","","","","","","","","","","","","","","","","","","","","","","","","","","","","","","MET069MOBOB0 METAR 7018 //000 000000 121329Z AUTO VRB03KT //// 23/23 A2991=","","","","","","","","","",""
"00701899999","2013-07-12T13:44:00","0.0","0.0","7018.0","WXPOD 7018","FM-15","4","29.92","73","73","","","","","100","","","","","","VRB","","3","","","","","","","","","","","","","","","","","","","","","","","","","","","","","","","","","","","","","","","","","","","","","","","","","","","","","","","","","","","","","","","","","","","","","","","","","","","","","","","","","","","","","","","","","","","MET069MOBOB0 METAR 7018 //000 000000 121344Z AUTO VRB03KT //// 23/23 A2992=","","","","","","","","","",""
"00701899999","2013-07-12T13:59:00","0.0","0.0","7018.0","WXPOD 7018","FM-15","4","29.92","73","73","","","","","100","","","","","","VRB","","2","","","","","","","","","","","","","","","","","","","","","","","","","","","","","","","","","","","","","","","","","","","","","","","","","","","","","","","","","","","","","","","","","","","","","","","","","","","","","","","","","","","","","","","","","","","MET069MOBOB0 METAR 7018 //000 000000 121359Z AUTO VRB02KT //// 23/23 A2992=","","","","","","","","","",""
"00701899999","2013-07-12T14:14:00","0.0","0.0","7018.0","WXPOD 7018","FM-15","4","29.91","73","73","","","","","100","","","","","","VRB","","6","","","","","","","","","","","","","","","","","","","","","","","","","","","","","","","","","","","","","","","","","","","","","","","","","","","","","","","","","","","","","","","","","","","","","","","","","","","","","","","","","","","","","","","","","","","MET069MOBOB0 METAR 7018 //000 000000 121414Z AUTO VRB05KT //// 23/23 A2991=","","","","","","","","","",""
"00701899999","2013-07-12T14:29:00","0.0","0.0","7018.0","WXPOD 7018","FM-15","4","29.93","73","73","","","","","100","","","","","","VRB","","6","","","","","","","","","","","","","","","","","","","","","","","","","","","","","","","","","","","","","","","","","","","","","","","","","","","","","","","","","","","","","","","","","","","","","","","","","","","","","","","","","","","","","","","","","","","MET069MOBOB0 METAR 7018 //000 000000 121429Z AUTO VRB05KT //// 23/23 A2993=","","","","","","","","","",""
"00701899999","2013-07-12T14:44:00","0.0","0.0","7018.0","WXPOD 7018","FM-15","4","29.94","73","73","","","","","100","","","","","","VRB","","3","","","","","","","","","","","","","","","","","","","","","","","","","","","","","","","","","","","","","","","","","","","","","","","","","","","","","","","","","","","","","","","","","","","","","","","","","","","","","","","","","","","","","","","","","","","MET069MOBOB0 METAR 7018 //000 000000 121444Z AUTO VRB03KT //// 23/23 A2994=","","","","","","","","","",""
"00701899999","2013-07-12T14:59:00","0.0","0.0","7018.0","WXPOD 7018","FM-15","4","29.93","73","73","","","","","100","","","","","","VRB","","3","","","","","","","","","","","","","","","","","","","","","","","","","","","","","","","","","","","","","","","","","","","","","","","","","","","","","","","","","","","","","","","","","","","","","","","","","","","","","","","","","","","","","","","","","","","MET069MOBOB0 METAR 7018 //000 000000 121459Z AUTO VRB03KT //// 23/23 A2993=","","","","","","","","","",""
"00701899999","2013-07-12T15:14:00","0.0","0.0","7018.0","WXPOD 7018","FM-15","4","29.93","73","73","","","","","100","","","","","","VRB","","3","","","","","","","","","","","","","","","","","","","","","","","","","","","","","","","","","","","","","","","","","","","","","","","","","","","","","","","","","","","","","","","","","","","","","","","","","","","","","","","","","","","","","","","","","","","MET069MOBOB0 METAR 7018 //000 000000 121514Z AUTO VRB03KT //// 23/23 A2993=","","","","","","","","","",""
"00701899999","2013-07-12T15:29:00","0.0","0.0","7018.0","WXPOD 7018","FM-15","4","29.91","75","75","","","","","100","","","","","","VRB","","3","","","","","","","","","","","","","","","","","","","","","","","","","","","","","","","","","","","","","","","","","","","","","","","","","","","","","","","","","","","","","","","","","","","","","","","","","","","","","","","","","","","","","","","","","","","MET069MOBOB0 METAR 7018 //000 000000 121529Z AUTO VRB03KT //// 24/24 A2991=","","","","","","","","","",""
"00701899999","2013-07-12T15:44:00","0.0","0.0","7018.0","WXPOD 7018","FM-15","4","29.95","75","75","","","","","100","","","","","","VRB","","2","","","","","","","","","","","","","","","","","","","","","","","","","","","","","","","","","","","","","","","","","","","","","","","","","","","","","","","","","","","","","","","","","","","","","","","","","","","","","","","","","","","","","","","","","","","MET069MOBOB0 METAR 7018 //000 000000 121544Z AUTO VRB02KT //// 24/24 A2995=","","","","","","","","","",""
"00701899999","2013-07-12T15:59:00","0.0","0.0","7018.0","WXPOD 7018","FM-15","4","30.05s","75","75","","","","","100","","","","","","VRB","","2","","","","","","","","","","","","","","","","","","","","","","","","","","","","","","","","","","","","","","","","","","","","","","","","","","","","","","","","","","","","","","","","","","","","","","","","","","","","","","","","","","","","","","","","","","","MET069MOBOB0 METAR 7018 //000 000000 121559Z AUTO VRB02KT //// 24/24 A3005=","","","","","","","","","",""
"00701899999","2013-07-12T16:14:00","0.0","0.0","7018.0","WXPOD 7018","FM-15","4","30.03s","77","77","","","","","100","","","","","","VRB","","2","","","","","","","","","","","","","","","","","","","","","","","","","","","","","","","","","","","","","","","","","","","","","","","","","","","","","","","","","","","","","","","","","","","","","","","","","","","","","","","","","","","","","","","","","","","MET069MOBOB0 METAR 7018 //000 000000 121614Z AUTO VRB02KT //// 25/25 A3003=","","","","","","","","","",""
"00701899999","2013-07-12T16:29:00","0.0","0.0","7018.0","WXPOD 7018","FM-15","4","30.01","75","77","","","","","94","","","","","","VRB","","3","","","","","","","","","","","","","","","","","","","","","","","","","","","","","","","","","","","","","","","","","","","","","","","","","","","","","","","","","","","","","","","","","","","","","","","","","","","","","","","","","","","","","","","","","","","MET069MOBOB0 METAR 7018 //000 000000 121629Z AUTO VRB03KT //// 25/24 A3001=","","","","","","","","","",""
"00701899999","2013-07-12T16:44:00","0.0","0.0","7018.0","WXPOD 7018","FM-15","4","29.95","75","75","","","","","100","","","","","","VRB","","2","","","","","","","","","","","","","","","","","","","","","","","","","","","","","","","","","","","","","","","","","","","","","","","","","","","","","","","","","","","","","","","","","","","","","","","","","","","","","","","","","","","","","","","","","","","MET069MOBOB0 METAR 7018 //000 000000 121644Z AUTO VRB02KT //// 24/24 A2995=","","","","","","","","","",""
"00701899999","2013-07-12T16:59:00","0.0","0.0","7018.0","WXPOD 7018","FM-15","4","30.02","75","77","","","","","94","","","","","","VRB","","3","","","","","","","","","","","","","","","","","","","","","","","","","","","","","","","","","","","","","","","","","","","","","","","","","","","","","","","","","","","","","","","","","","","","","","","","","","","","","","","","","","","","","","","","","","","MET069MOBOB0 METAR 7018 //000 000000 121659Z AUTO VRB03KT //// 25/24 A3002=","","","","","","","","","",""
"00701899999","2013-07-12T17:14:00","0.0","0.0","7018.0","WXPOD 7018","FM-15","4","30.03","75","77","","","","","94","","","","","","VRB","","3","","","","","","","","","","","","","","","","","","","","","","","","","","","","","","","","","","","","","","","","","","","","","","","","","","","","","","","","","","","","","","","","","","","","","","","","","","","","","","","","","","","","","","","","","","","MET069MOBOB0 METAR 7018 //000 000000 121714Z AUTO VRB03KT //// 25/24 A3003=","","","","","","","","","",""
"00701899999","2013-07-12T17:29:00","0.0","0.0","7018.0","WXPOD 7018","FM-15","4","29.95","75","77","","","","","94","","","","","","VRB","","2","","","","","","","","","","","","","","","","","","","","","","","","","","","","","","","","","","","","","","","","","","","","","","","","","","","","","","","","","","","","","","","","","","","","","","","","","","","","","","","","","","","","","","","","","","","MET069MOBOB0 METAR 7018 //000 000000 121729Z AUTO VRB02KT //// 25/24 A2995=","","","","","","","","","",""
"00701899999","2013-07-12T17:44:00","0.0","0.0","7018.0","WXPOD 7018","FM-15","4","29.92","75","75","","","","","100","","","","","","VRB","","3","","","","","","","","","","","","","","","","","","","","","","","","","","","","","","","","","","","","","","","","","","","","","","","","","","","","","","","","","","","","","","","","","","","","","","","","","","","","","","","","","","","","","","","","","","","MET069MOBOB0 METAR 7018 //000 000000 121744Z AUTO VRB03KT //// 24/24 A2992=","","","","","","","","","",""
"00701899999","2013-07-12T17:59:00","0.0","0.0","7018.0","WXPOD 7018","FM-15","4","29.90","75","75","","","","","100","","","","","","VRB","","5","","","","","","","","","","","","","","","","","","","","","","","","","","","","","","","","","","","","","","","","","","","","","","","","","","","","","","","","","","","","","","","","","","","","","","","","","","","","","","","","","","","","","","","","","","","MET069MOBOB0 METAR 7018 //000 000000 121759Z AUTO VRB04KT //// 24/24 A2990=","","","","","","","","","",""
"00701899999","2013-07-12T18:14:00","0.0","0.0","7018.0","WXPOD 7018","FM-15","4","","75","77","","","","","94","","","","","","VRB","","2","","","","","","","","","","","","","","","","","","","","","","","","","","","","","","","","","","","","","","","","","","","","","","","","","","","","","","","","","","","","","","","","","","","","","","","","","","","","","","","","","","","","","","","","","","","MET069MOBOB0 METAR 7018 //000 000000 121814Z AUTO VRB02KT //// 25/24 A2988=","","","","","","","","","",""
"00701899999","2013-07-12T18:29:00","0.0","0.0","7018.0","WXPOD 7018","FM-15","4","29.92","75","75","","","","","100","","","","","","VRB","","3","","","","","","","","","","","","","","","","","","","","","","","","","","","","","","","","","","","","","","","","","","","","","","","","","","","","","","","","","","","","","","","","","","","","","","","","","","","","","","","","","","","","","","","","","","","MET069MOBOB0 METAR 7018 //000 000000 121829Z AUTO VRB03KT //// 24/24 A2992=","","","","","","","","","",""
"00701899999","2013-07-12T18:44:00","0.0","0.0","7018.0","WXPOD 7018","FM-15","4","","77","79","","","","","94","","","","","","VRB","","5","","","","","","","","","","","","","","","","","","","","","","","","","","","","","","","","","","","","","","","","","","","","","","","","","","","","","","","","","","","","","","","","","","","","","","","","","","","","","","","","","","","","","","","","","","","MET069MOBOB0 METAR 7018 //000 000000 121844Z AUTO VRB04KT //// 26/25 A3002=","","","","","","","","","",""
"00701899999","2013-07-12T18:59:00","0.0","0.0","7018.0","WXPOD 7018","FM-15","4","29.99","77","77","","","","","100","","","","","","VRB","","2","","","","","","","","","","","","","","","","","","","","","","","","","","","","","","","","","","","","","","","","","","","","","","","","","","","","","","","","","","","","","","","","","","","","","","","","","","","","","","","","","","","","","","","","","","","MET069MOBOB0 METAR 7018 //000 000000 121859Z AUTO VRB02KT //// 25/25 A2999=","","","","","","","","","",""
"00701899999","2013-07-12T19:14:00","0.0","0.0","7018.0","WXPOD 7018","FM-15","4","29.97","77","77","","","","","100","","","","","","VRB","","5","","","","","","","","","","","","","","","","","","","","","","","","","","","","","","","","","","","","","","","","","","","","","","","","","","","","","","","","","","","","","","","","","","","","","","","","","","","","","","","","","","","","","","","","","","","MET069MOBOB0 METAR 7018 //000 000000 121914Z AUTO VRB04KT //// 25/25 A2997=","","","","","","","","","",""
"00701899999","2013-07-12T19:29:00","0.0","0.0","7018.0","WXPOD 7018","FM-15","4","29.90","75","75","","","","","100","","","","","","VRB","","5","","","","","","","","","","","","","","","","","","","","","","","","","","","","","","","","","","","","","","","","","","","","","","","","","","","","","","","","","","","","","","","","","","","","","","","","","","","","","","","","","","","","","","","","","","","MET069MOBOB0 METAR 7018 //000 000000 121929Z AUTO VRB04KT //// 24/24 A2990=","","","","","","","","","",""
"00701899999","2013-07-12T19:44:00","0.0","0.0","7018.0","WXPOD 7018","FM-15","4","","75","75","","","","","100","","","","","","VRB","","6","","","","","","","","","","","","","","","","","","","","","","","","","","","","","","","","","","","","","","","","","","","","","","","","","","","","","","","","","","","","","","","","","","","","","","","","","","","","","","","","","","","","","","","","","","","MET069MOBOB0 METAR 7018 //000 000000 121944Z AUTO VRB05KT //// 24/24 A2985=","","","","","","","","","",""
"00701899999","2013-07-12T19:59:00","0.0","0.0","7018.0","WXPOD 7018","FM-15","4","29.92","77","77","","","","","100","","","","","","VRB","","2","","","","","","","","","","","","","","","","","","","","","","","","","","","","","","","","","","","","","","","","","","","","","","","","","","","","","","","","","","","","","","","","","","","","","","","","","","","","","","","","","","","","","","","","","","","MET069MOBOB0 METAR 7018 //000 000000 121959Z AUTO VRB02KT //// 25/25 A2992=","","","","","","","","","",""
"00701899999","2013-07-12T20:14:00","0.0","0.0","7018.0","WXPOD 7018","FM-15","4","29.98","77","79","","","","","94","","","","","","VRB","","2","","","","","","","","","","","","","","","","","","","","","","","","","","","","","","","","","","","","","","","","","","","","","","","","","","","","","","","","","","","","","","","","","","","","","","","","","","","","","","","","","","","","","","","","","","","MET069MOBOB0 METAR 7018 //000 000000 122014Z AUTO VRB02KT //// 26/25 A2998=","","","","","","","","","",""
"00701899999","2013-07-12T20:29:00","0.0","0.0","7018.0","WXPOD 7018","FM-15","4","30.01","79","79","","","","","100","","","","","","VRB","","2","","","","","","","","","","","","","","","","","","","","","","","","","","","","","","","","","","","","","","","","","","","","","","","","","","","","","","","","","","","","","","","","","","","","","","","","","","","","","","","","","","","","","","","","","","","MET069MOBOB0 METAR 7018 //000 000000 122029Z AUTO VRB02KT //// 26/26 A3001=","","","","","","","","","",""
"00701899999","2013-07-12T20:44:00","0.0","0.0","7018.0","WXPOD 7018","FM-15","4","29.98","79","79","","","","","100","","","","","","270","","6","","","","","","","","","","","","","","","","","","","","","","","","","","","","","","","","","","","","","","","","","","","","","","","","","","","","","","","","","","","","","","","","","","","","","","","","","","","","","","","","","","","","","","","","","","","MET069MOBOB0 METAR 7018 //000 000000 122044Z AUTO 27005KT //// 26/26 A2998=","","","","","","","","","",""
"00701899999","2013-07-12T20:59:00","0.0","0.0","7018.0","WXPOD 7018","FM-15","4","29.99","77","79","","","","","94","","","","","","VRB","","2","","","","","","","","","","","","","","","","","","","","","","","","","","","","","","","","","","","","","","","","","","","","","","","","","","","","","","","","","","","","","","","","","","","","","","","","","","","","","","","","","","","","","","","","","","","MET069MOBOB0 METAR 7018 //000 000000 122059Z AUTO VRB02KT //// 26/25 A2999=","","","","","","","","","",""
"00701899999","2013-07-12T21:14:00","0.0","0.0","7018.0","WXPOD 7018","FM-15","4","30.02","77","79","","","","","94","","","","","","VRB","","2","","","","","","","","","","","","","","","","","","","","","","","","","","","","","","","","","","","","","","","","","","","","","","","","","","","","","","","","","","","","","","","","","","","","","","","","","","","","","","","","","","","","","","","","","","","MET069MOBOB0 METAR 7018 //000 000000 122114Z AUTO VRB02KT //// 26/25 A3002=","","","","","","","","","",""
"00701899999","2013-07-12T21:29:00","0.0","0.0","7018.0","WXPOD 7018","FM-15","4","29.94","77","81","","","","","89","","","","","","VRB","","5","","","","","","","","","","","","","","","","","","","","","","","","","","","","","","","","","","","","","","","","","","","","","","","","","","","","","","","","","","","","","","","","","","","","","","","","","","","","","","","","","","","","","","","","","","","MET069MOBOB0 METAR 7018 //000 000000 122129Z AUTO VRB04KT //// 27/25 A2994=","","","","","","","","","",""
"00701899999","2013-07-12T21:44:00","0.0","0.0","7018.0","WXPOD 7018","FM-15","4","29.94","77","81","","","","","89","","","","","","VRB","","3","","","","","","","","","","","","","","","","","","","","","","","","","","","","","","","","","","","","","","","","","","","","","","","","","","","","","","","","","","","","","","","","","","","","","","","","","","","","","","","","","","","","","","","","","","","MET069MOBOB0 METAR 7018 //000 000000 122144Z AUTO VRB03KT //// 27/25 A2994=","","","","","","","","","",""
"00701899999","2013-07-12T21:59:00","0.0","0.0","7018.0","WXPOD 7018","FM-15","4","29.94","77","79","","","","","94","","","","","","VRB","","3","","","","","","","","","","","","","","","","","","","","","","","","","","","","","","","","","","","","","","","","","","","","","","","","","","","","","","","","","","","","","","","","","","","","","","","","","","","","","","","","","","","","","","","","","","","MET069MOBOB0 METAR 7018 //000 000000 122159Z AUTO VRB03KT //// 26/25 A2994=","","","","","","","","","",""
"00701899999","2013-07-12T22:14:00","0.0","0.0","7018.0","WXPOD 7018","FM-15","4","29.93","77","79","","","","","94","","","","","","VRB","","2","","","","","","","","","","","","","","","","","","","","","","","","","","","","","","","","","","","","","","","","","","","","","","","","","","","","","","","","","","","","","","","","","","","","","","","","","","","","","","","","","","","","","","","","","","","MET069MOBOB0 METAR 7018 //000 000000 122214Z AUTO VRB02KT //// 26/25 A2993=","","","","","","","","","",""
"00701899999","2013-07-12T22:29:00","0.0","0.0","7018.0","WXPOD 7018","FM-15","4","29.93","77","79","","","","","94","","","","","","VRB","","2","","","","","","","","","","","","","","","","","","","","","","","","","","","","","","","","","","","","","","","","","","","","","","","","","","","","","","","","","","","","","","","","","","","","","","","","","","","","","","","","","","","","","","","","","","","MET069MOBOB0 METAR 7018 //000 000000 122229Z AUTO VRB02KT //// 26/25 A2993=","","","","","","","","","",""
"00701899999","2013-07-12T22:44:00","0.0","0.0","7018.0","WXPOD 7018","FM-15","4","29.94","77","77","","","","","100","","","","","","VRB","","2","","","","","","","","","","","","","","","","","","","","","","","","","","","","","","","","","","","","","","","","","","","","","","","","","","","","","","","","","","","","","","","","","","","","","","","","","","","","","","","","","","","","","","","","","","","MET069MOBOB0 METAR 7018 //000 000000 122244Z AUTO VRB02KT //// 25/25 A2994=","","","","","","","","","",""
"00701899999","2013-07-12T22:59:00","0.0","0.0","7018.0","WXPOD 7018","FM-15","4","29.95","77","79","","","","","94","","","","","","VRB","","2","","","","","","","","","","","","","","","","","","","","","","","","","","","","","","","","","","","","","","","","","","","","","","","","","","","","","","","","","","","","","","","","","","","","","","","","","","","","","","","","","","","","","","","","","","","MET069MOBOB0 METAR 7018 //000 000000 122259Z AUTO VRB02KT //// 26/25 A2995=","","","","","","","","","",""
"00701899999","2013-07-12T23:14:00","0.0","0.0","7018.0","WXPOD 7018","FM-15","4","29.95","77","79","","","","","94","","","","","","VRB","","2","","","","","","","","","","","","","","","","","","","","","","","","","","","","","","","","","","","","","","","","","","","","","","","","","","","","","","","","","","","","","","","","","","","","","","","","","","","","","","","","","","","","","","","","","","","MET069MOBOB0 METAR 7018 //000 000000 122314Z AUTO VRB02KT //// 26/25 A2995=","","","","","","","","","",""
"00701899999","2013-07-12T23:29:00","0.0","0.0","7018.0","WXPOD 7018","FM-15","4","29.95","77","79","","","","","94","","","","","","VRB","","2","","","","","","","","","","","","","","","","","","","","","","","","","","","","","","","","","","","","","","","","","","","","","","","","","","","","","","","","","","","","","","","","","","","","","","","","","","","","","","","","","","","","","","","","","","","MET069MOBOB0 METAR 7018 //000 000000 122329Z AUTO VRB02KT //// 26/25 A2995=","","","","","","","","","",""
"00701899999","2013-07-12T23:44:00","0.0","0.0","7018.0","WXPOD 7018","FM-15","4","29.96","77","79","","","","","94","","","","","","VRB","","5","","","","","","","","","","","","","","","","","","","","","","","","","","","","","","","","","","","","","","","","","","","","","","","","","","","","","","","","","","","","","","","","","","","","","","","","","","","","","","","","","","","","","","","","","","","MET069MOBOB0 METAR 7018 //000 000000 122344Z AUTO VRB04KT //// 26/25 A2996=","","","","","","","","","",""
"00701899999","2013-07-12T23:59:00","0.0","0.0","7018.0","WXPOD 7018","FM-15","4","29.96","77","77","","","","","100","","","","","","290","","5","","","","","","","","","","","","","","","","","","","","","","","","","","","","","","","","","","","","","","","","","","","","","","","","","","","","","","","","","","","","","","","","","","","","","","","","","","","","","","","","","","","","","","","","","","","MET069MOBOB0 METAR 7018 //000 000000 122359Z AUTO 29004KT //// 25/25 A2996=","","","","","","","","","",""
"00701899999","2013-07-13T00:14:00","0.0","0.0","7018.0","WXPOD 7018","FM-15","4","29.97","77","77","","","","","100","","","","","","VRB","","2","","","","","","","","","","","","","","","","","","","","","","","","","","","","","","","","","","","","","","","","","","","","","","","","","","","","","","","","","","","","","","","","","","","","","","","","","","","","","","","","","","","","","","","","","","","MET069MOBOB0 METAR 7018 //000 000000 130014Z AUTO VRB02KT //// 25/25 A2997=","","","","","","","","","",""
"00701899999","2013-07-13T00:29:00","0.0","0.0","7018.0","WXPOD 7018","FM-15","4","29.97","75","77","","","","","94","","","","","","VRB","","2","","","","","","","","","","","","","","","","","","","","","","","","","","","","","","","","","","","","","","","","","","","","","","","","","","","","","","","","","","","","","","","","","","","","","","","","","","","","","","","","","","","","","","","","","","","MET069MOBOB0 METAR 7018 //000 000000 130029Z AUTO VRB02KT //// 25/24 A2997=","","","","","","","","","",""
"00701899999","2013-07-13T00:44:00","0.0","0.0","7018.0","WXPOD 7018","FM-15","4","29.97","77","77","","","","","100","","","","","","VRB","","2","","","","","","","","","","","","","","","","","","","","","","","","","","","","","","","","","","","","","","","","","","","","","","","","","","","","","","","","","","","","","","","","","","","","","","","","","","","","","","","","","","","","","","","","","","","MET069MOBOB0 METAR 7018 //000 000000 130044Z AUTO VRB02KT //// 25/25 A2997=","","","","","","","","","",""
"00701899999","2013-07-13T00:59:00","0.0","0.0","7018.0","WXPOD 7018","FM-15","4","29.98","75","77","","","","","94","","","","","","VRB","","1","","","","","","","","","","","","","","","","","","","","","","","","","","","","","","","","","","","","","","","","","","","","","","","","","","","","","","","","","","","","","","","","","","","","","","","","","","","","","","","","","","","","","","","","","","","MET069MOBOB0 METAR 7018 //000 000000 130059Z AUTO VRB01KT //// 25/24 A2998=","","","","","","","","","",""
"00701899999","2013-07-13T01:14:00","0.0","0.0","7018.0","WXPOD 7018","FM-15","4","29.98","75","75","","","","","100","","","","","","VRB","","2","","","","","","","","","","","","","","","","","","","","","","","","","","","","","","","","","","","","","","","","","","","","","","","","","","","","","","","","","","","","","","","","","","","","","","","","","","","","","","","","","","","","","","","","","","","MET069MOBOB0 METAR 7018 //000 000000 130114Z AUTO VRB02KT //// 24/24 A2998=","","","","","","","","","",""
"00701899999","2013-07-13T01:29:00","0.0","0.0","7018.0","WXPOD 7018","FM-15","4","29.98","75","75","","","","","100","","","","","","VRB","","2","","","","","","","","","","","","","","","","","","","","","","","","","","","","","","","","","","","","","","","","","","","","","","","","","","","","","","","","","","","","","","","","","","","","","","","","","","","","","","","","","","","","","","","","","","","MET069MOBOB0 METAR 7018 //000 000000 130129Z AUTO VRB02KT //// 24/24 A2998=","","","","","","","","","",""
"00701899999","2013-07-13T01:44:00","0.0","0.0","7018.0","WXPOD 7018","FM-15","4","29.98","75","75","","","","","100","","","","","","VRB","","1","","","","","","","","","","","","","","","","","","","","","","","","","","","","","","","","","","","","","","","","","","","","","","","","","","","","","","","","","","","","","","","","","","","","","","","","","","","","","","","","","","","","","","","","","","","MET069MOBOB0 METAR 7018 //000 000000 130144Z AUTO VRB01KT //// 24/24 A2998=","","","","","","","","","",""
"00701899999","2013-07-13T01:59:00","0.0","0.0","7018.0","WXPOD 7018","FM-15","4","29.98","73","73","","","","","100","","","","","","290","","1","","","","","","","","","","","","","","","","","","","","","","","","","","","","","","","","","","","","","","","","","","","","","","","","","","","","","","","","","","","","","","","","","","","","","","","","","","","","","","","","","","","","","","","","","","","MET069MOBOB0 METAR 7018 //000 000000 130159Z AUTO 29001KT //// 23/23 A2998=","","","","","","","","","",""
"00701899999","2013-07-13T02:14:00","0.0","0.0","7018.0","WXPOD 7018","FM-15","4","29.99","75","75","","","","","100","","","","","","VRB","","2","","","","","","","","","","","","","","","","","","","","","","","","","","","","","","","","","","","","","","","","","","","","","","","","","","","","","","","","","","","","","","","","","","","","","","","","","","","","","","","","","","","","","","","","","","","MET069MOBOB0 METAR 7018 //000 000000 130214Z AUTO VRB02KT //// 24/24 A2999=","","","","","","","","","",""
"00701899999","2013-07-13T02:29:00","0.0","0.0","7018.0","WXPOD 7018","FM-15","4","30.00","73","73","","","","","100","","","","","","VRB","","2","","","","","","","","","","","","","","","","","","","","","","","","","","","","","","","","","","","","","","","","","","","","","","","","","","","","","","","","","","","","","","","","","","","","","","","","","","","","","","","","","","","","","","","","","","","MET069MOBOB0 METAR 7018 //000 000000 130229Z AUTO VRB02KT //// 23/23 A3000=","","","","","","","","","",""
"00701899999","2013-07-13T02:44:00","0.0","0.0","7018.0","WXPOD 7018","FM-15","4","30.01","73","73","","","","","100","","","","","","VRB","","2","","","","","","","","","","","","","","","","","","","","","","","","","","","","","","","","","","","","","","","","","","","","","","","","","","","","","","","","","","","","","","","","","","","","","","","","","","","","","","","","","","","","","","","","","","","MET069MOBOB0 METAR 7018 //000 000000 130244Z AUTO VRB02KT //// 23/23 A3001=","","","","","","","","","",""
"00701899999","2013-07-13T02:59:00","0.0","0.0","7018.0","WXPOD 7018","FM-15","4","30.00","73","73","","","","","100","","","","","","310","","1","","","","","","","","","","","","","","","","","","","","","","","","","","","","","","","","","","","","","","","","","","","","","","","","","","","","","","","","","","","","","","","","","","","","","","","","","","","","","","","","","","","","","","","","","","","MET069MOBOB0 METAR 7018 //000 000000 130259Z AUTO 31001KT //// 23/23 A3000=","","","","","","","","","",""
"00701899999","2013-07-13T03:14:00","0.0","0.0","7018.0","WXPOD 7018","FM-15","4","30.01","73","73","","","","","100","","","","","","320","","1","","","","","","","","","","","","","","","","","","","","","","","","","","","","","","","","","","","","","","","","","","","","","","","","","","","","","","","","","","","","","","","","","","","","","","","","","","","","","","","","","","","","","","","","","","","MET069MOBOB0 METAR 7018 //000 000000 130314Z AUTO 32001KT //// 23/23 A3001=","","","","","","","","","",""
"00701899999","2013-07-13T03:30:00","0.0","0.0","7018.0","WXPOD 7018","FM-15","4","30.01","73","73","","","","","100","","","","","","000","","0","","","","","","","","","","","","","","","","","","","","","","","","","","","","","","","","","","","","","","","","","","","","","","","","","","","","","","","","","","","","","","","","","","","","","","","","","","","","","","","","","","","","","","","","","","","MET069MOBOB0 METAR 7018 //000 000000 130330Z AUTO 00000KT //// 23/23 A3001=","","","","","","","","","",""
"00701899999","2013-07-13T03:59:00","0.0","0.0","7018.0","WXPOD 7018","FM-15","4","30.01","75","75","","","","","100","","","","","","320","","1","","","","","","","","","","","","","","","","","","","","","","","","","","","","","","","","","","","","","","","","","","","","","","","","","","","","","","","","","","","","","","","","","","","","","","","","","","","","","","","","","","","","","","","","","","","MET069MOBOB0 METAR 7018 //000 000000 130359Z AUTO 32001KT //// 24/24 A3001=","","","","","","","","","",""
"00701899999","2013-07-13T04:14:00","0.0","0.0","7018.0","WXPOD 7018","FM-15","4","30.01","75","75","","","","","100","","","","","","VRB","","1","","","","","","","","","","","","","","","","","","","","","","","","","","","","","","","","","","","","","","","","","","","","","","","","","","","","","","","","","","","","","","","","","","","","","","","","","","","","","","","","","","","","","","","","","","","MET069MOBOB0 METAR 7018 //000 000000 130414Z AUTO VRB01KT //// 24/24 A3001=","","","","","","","","","",""
"00701899999","2013-07-13T04:29:00","0.0","0.0","7018.0","WXPOD 7018","FM-15","4","30.01","73","73","","","","","100","","","","","","VRB","","2","","","","","","","","","","","","","","","","","","","","","","","","","","","","","","","","","","","","","","","","","","","","","","","","","","","","","","","","","","","","","","","","","","","","","","","","","","","","","","","","","","","","","","","","","","","MET069MOBOB0 METAR 7018 //000 000000 130429Z AUTO VRB02KT //// 23/23 A3001=","","","","","","","","","",""
"00701899999","2013-07-13T04:44:00","0.0","0.0","7018.0","WXPOD 7018","FM-15","4","30.01","73","73","","","","","100","","","","","","VRB","","1","","","","","","","","","","","","","","","","","","","","","","","","","","","","","","","","","","","","","","","","","","","","","","","","","","","","","","","","","","","","","","","","","","","","","","","","","","","","","","","","","","","","","","","","","","","MET069MOBOB0 METAR 7018 //000 000000 130444Z AUTO VRB01KT //// 23/23 A3001=","","","","","","","","","",""
"00701899999","2013-07-13T04:59:00","0.0","0.0","7018.0","WXPOD 7018","FM-15","4","30.01","73","73","","","","","100","","","","","","VRB","","1","","","","","","","","","","","","","","","","","","","","","","","","","","","","","","","","","","","","","","","","","","","","","","","","","","","","","","","","","","","","","","","","","","","","","","","","","","","","","","","","","","","","","","","","","","","MET069MOBOB0 METAR 7018 //000 000000 130459Z AUTO VRB01KT //// 23/23 A3001=","","","","","","","","","",""
"00701899999","2013-07-13T05:14:00","0.0","0.0","7018.0","WXPOD 7018","FM-15","4","30.00","73","73","","","","","100","","","","","","VRB","","2","","","","","","","","","","","","","","","","","","","","","","","","","","","","","","","","","","","","","","","","","","","","","","","","","","","","","","","","","","","","","","","","","","","","","","","","","","","","","","","","","","","","","","","","","","","MET069MOBOB0 METAR 7018 //000 000000 130514Z AUTO VRB02KT //// 23/23 A3000=","","","","","","","","","",""
"00701899999","2013-07-13T05:29:00","0.0","0.0","7018.0","WXPOD 7018","FM-15","4","30.00","73","73","","","","","100","","","","","","VRB","","2","","","","","","","","","","","","","","","","","","","","","","","","","","","","","","","","","","","","","","","","","","","","","","","","","","","","","","","","","","","","","","","","","","","","","","","","","","","","","","","","","","","","","","","","","","","MET069MOBOB0 METAR 7018 //000 000000 130529Z AUTO VRB02KT //// 23/23 A3000=","","","","","","","","","",""
"00701899999","2013-07-13T05:44:00","0.0","0.0","7018.0","WXPOD 7018","FM-15","4","30.00","73","73","","","","","100","","","","","","VRB","","1","","","","","","","","","","","","","","","","","","","","","","","","","","","","","","","","","","","","","","","","","","","","","","","","","","","","","","","","","","","","","","","","","","","","","","","","","","","","","","","","","","","","","","","","","","","MET069MOBOB0 METAR 7018 //000 000000 130544Z AUTO VRB01KT //// 23/23 A3000=","","","","","","","","","",""
"00701899999","2013-07-13T05:59:00","0.0","0.0","7018.0","WXPOD 7018","FM-15","4","30.00","73","73","","","","","100","","","","","","010","","1","","","","","","","","","","","","","","","","","","","","","","","","","","","","","","","","","","","","","","","","","","","","","","","","","","","","","","","","","","","","","","","","","","","","","","","","","","","","","","","","","","","","","","","","","","","MET069MOBOB0 METAR 7018 //000 000000 130559Z AUTO 01001KT //// 23/23 A3000=","","","","","","","","","",""
"00701899999","2013-07-13T06:14:00","0.0","0.0","7018.0","WXPOD 7018","FM-15","4","30.00","73","73","","","","","100","","","","","","VRB","","2","","","","","","","","","","","","","","","","","","","","","","","","","","","","","","","","","","","","","","","","","","","","","","","","","","","","","","","","","","","","","","","","","","","","","","","","","","","","","","","","","","","","","","","","","","","MET069MOBOB0 METAR 7018 //000 000000 130614Z AUTO VRB02KT //// 23/23 A3000=","","","","","","","","","",""
"00701899999","2013-07-13T06:29:00","0.0","0.0","7018.0","WXPOD 7018","FM-15","4","30.00","73","73","","","","","100","","","","","","VRB","","1","","","","","","","","","","","","","","","","","","","","","","","","","","","","","","","","","","","","","","","","","","","","","","","","","","","","","","","","","","","","","","","","","","","","","","","","","","","","","","","","","","","","","","","","","","","MET069MOBOB0 METAR 7018 //000 000000 130629Z AUTO VRB01KT //// 23/23 A3000=","","","","","","","","","",""
"00701899999","2013-07-13T06:44:00","0.0","0.0","7018.0","WXPOD 7018","FM-15","4","30.00","73","73","","","","","100","","","","","","000","","0","","","","","","","","","","","","","","","","","","","","","","","","","","","","","","","","","","","","","","","","","","","","","","","","","","","","","","","","","","","","","","","","","","","","","","","","","","","","","","","","","","","","","","","","","","","MET069MOBOB0 METAR 7018 //000 000000 130644Z AUTO 00000KT //// 23/23 A3000=","","","","","","","","","",""
"00701899999","2013-07-13T06:59:00","0.0","0.0","7018.0","WXPOD 7018","FM-15","4","30.00","72","72","","","","","100","","","","","","020","","1","","","","","","","","","","","","","","","","","","","","","","","","","","","","","","","","","","","","","","","","","","","","","","","","","","","","","","","","","","","","","","","","","","","","","","","","","","","","","","","","","","","","","","","","","","","MET069MOBOB0 METAR 7018 //000 000000 130659Z AUTO 02001KT //// 22/22 A3000=","","","","","","","","","",""
"00701899999","2013-07-13T07:14:00","0.0","0.0","7018.0","WXPOD 7018","FM-15","4","30.00","72","72","","","","","100","","","","","","VRB","","1","","","","","","","","","","","","","","","","","","","","","","","","","","","","","","","","","","","","","","","","","","","","","","","","","","","","","","","","","","","","","","","","","","","","","","","","","","","","","","","","","","","","","","","","","","","MET069MOBOB0 METAR 7018 //000 000000 130714Z AUTO VRB01KT //// 22/22 A3000=","","","","","","","","","",""
"00701899999","2013-07-13T07:29:00","0.0","0.0","7018.0","WXPOD 7018","FM-15","4","30.00","73","73","","","","","100","","","","","","VRB","","1","","","","","","","","","","","","","","","","","","","","","","","","","","","","","","","","","","","","","","","","","","","","","","","","","","","","","","","","","","","","","","","","","","","","","","","","","","","","","","","","","","","","","","","","","","","MET069MOBOB0 METAR 7018 //000 000000 130729Z AUTO VRB01KT //// 23/23 A3000=","","","","","","","","","",""
"00701899999","2013-07-13T07:44:00","0.0","0.0","7018.0","WXPOD 7018","FM-15","4","30.00","73","73","","","","","100","","","","","","340","","1","","","","","","","","","","","","","","","","","","","","","","","","","","","","","","","","","","","","","","","","","","","","","","","","","","","","","","","","","","","","","","","","","","","","","","","","","","","","","","","","","","","","","","","","","","","MET069MOBOB0 METAR 7018 //000 000000 130744Z AUTO 34001KT //// 23/23 A3000=","","","","","","","","","",""
"00701899999","2013-07-13T07:59:00","0.0","0.0","7018.0","WXPOD 7018","FM-15","4","30.00","72","72","","","","","100","","","","","","VRB","","2","","","","","","","","","","","","","","","","","","","","","","","","","","","","","","","","","","","","","","","","","","","","","","","","","","","","","","","","","","","","","","","","","","","","","","","","","","","","","","","","","","","","","","","","","","","MET069MOBOB0 METAR 7018 //000 000000 130759Z AUTO VRB02KT //// 22/22 A3000=","","","","","","","","","",""
"00701899999","2013-07-13T08:14:00","0.0","0.0","7018.0","WXPOD 7018","FM-15","4","30.00","72","72","","","","","100","","","","","","300","","1","","","","","","","","","","","","","","","","","","","","","","","","","","","","","","","","","","","","","","","","","","","","","","","","","","","","","","","","","","","","","","","","","","","","","","","","","","","","","","","","","","","","","","","","","","","MET069MOBOB0 METAR 7018 //000 000000 130814Z AUTO 30001KT //// 22/22 A3000=","","","","","","","","","",""
"00701899999","2013-07-13T08:29:00","0.0","0.0","7018.0","WXPOD 7018","FM-15","4","30.01","73","73","","","","","100","","","","","","VRB","","1","","","","","","","","","","","","","","","","","","","","","","","","","","","","","","","","","","","","","","","","","","","","","","","","","","","","","","","","","","","","","","","","","","","","","","","","","","","","","","","","","","","","","","","","","","","MET069MOBOB0 METAR 7018 //000 000000 130829Z AUTO VRB01KT //// 23/23 A3001=","","","","","","","","","",""
"00701899999","2013-07-13T08:44:00","0.0","0.0","7018.0","WXPOD 7018","FM-15","4","30.01","72","72","","","","","100","","","","","","VRB","","1","","","","","","","","","","","","","","","","","","","","","","","","","","","","","","","","","","","","","","","","","","","","","","","","","","","","","","","","","","","","","","","","","","","","","","","","","","","","","","","","","","","","","","","","","","","MET069MOBOB0 METAR 7018 //000 000000 130844Z AUTO VRB01KT //// 22/22 A3001=","","","","","","","","","",""
"00701899999","2013-07-13T08:59:00","0.0","0.0","7018.0","WXPOD 7018","FM-15","4","30.01","72","72","","","","","100","","","","","","VRB","","2","","","","","","","","","","","","","","","","","","","","","","","","","","","","","","","","","","","","","","","","","","","","","","","","","","","","","","","","","","","","","","","","","","","","","","","","","","","","","","","","","","","","","","","","","","","MET069MOBOB0 METAR 7018 //000 000000 130859Z AUTO VRB02KT //// 22/22 A3001=","","","","","","","","","",""
"00701899999","2013-07-13T09:14:00","0.0","0.0","7018.0","WXPOD 7018","FM-15","4","30.01","72","72","","","","","100","","","","","","VRB","","1","","","","","","","","","","","","","","","","","","","","","","","","","","","","","","","","","","","","","","","","","","","","","","","","","","","","","","","","","","","","","","","","","","","","","","","","","","","","","","","","","","","","","","","","","","","MET069MOBOB0 METAR 7018 //000 000000 130914Z AUTO VRB01KT //// 22/22 A3001=","","","","","","","","","",""
"00701899999","2013-07-13T09:29:00","0.0","0.0","7018.0","WXPOD 7018","FM-15","4","30.01","72","72","","","","","100","","","","","","350","","1","","","","","","","","","","","","","","","","","","","","","","","","","","","","","","","","","","","","","","","","","","","","","","","","","","","","","","","","","","","","","","","","","","","","","","","","","","","","","","","","","","","","","","","","","","","MET069MOBOB0 METAR 7018 //000 000000 130929Z AUTO 35001KT //// 22/22 A3001=","","","","","","","","","",""
"00701899999","2013-07-13T09:44:00","0.0","0.0","7018.0","WXPOD 7018","FM-15","4","30.02","72","72","","","","","100","","","","","","VRB","","3","","","","","","","","","","","","","","","","","","","","","","","","","","","","","","","","","","","","","","","","","","","","","","","","","","","","","","","","","","","","","","","","","","","","","","","","","","","","","","","","","","","","","","","","","","","MET069MOBOB0 METAR 7018 //000 000000 130944Z AUTO VRB03KT //// 22/22 A3002=","","","","","","","","","",""
"00701899999","2013-07-13T09:59:00","0.0","0.0","7018.0","WXPOD 7018","FM-15","4","30.03","72","72","","","","","100","","","","","","VRB","","1","","","","","","","","","","","","","","","","","","","","","","","","","","","","","","","","","","","","","","","","","","","","","","","","","","","","","","","","","","","","","","","","","","","","","","","","","","","","","","","","","","","","","","","","","","","MET069MOBOB0 METAR 7018 //000 000000 130959Z AUTO VRB01KT //// 22/22 A3003=","","","","","","","","","",""
"00701899999","2013-07-13T10:14:00","0.0","0.0","7018.0","WXPOD 7018","FM-15","4","30.04","72","72","","","","","100","","","","","","VRB","","2","","","","","","","","","","","","","","","","","","","","","","","","","","","","","","","","","","","","","","","","","","","","","","","","","","","","","","","","","","","","","","","","","","","","","","","","","","","","","","","","","","","","","","","","","","","MET069MOBOB0 METAR 7018 //000 000000 131014Z AUTO VRB02KT //// 22/22 A3004=","","","","","","","","","",""
"00701899999","2013-07-13T10:29:00","0.0","0.0","7018.0","WXPOD 7018","FM-15","4","30.05","72","72","","","","","100","","","","","","VRB","","2","","","","","","","","","","","","","","","","","","","","","","","","","","","","","","","","","","","","","","","","","","","","","","","","","","","","","","","","","","","","","","","","","","","","","","","","","","","","","","","","","","","","","","","","","","","MET069MOBOB0 METAR 7018 //000 000000 131029Z AUTO VRB02KT //// 22/22 A3005=","","","","","","","","","",""
"00701899999","2013-07-13T10:44:00","0.0","0.0","7018.0","WXPOD 7018","FM-15","4","30.06","73","73","","","","","100","","","","","","VRB","","2","","","","","","","","","","","","","","","","","","","","","","","","","","","","","","","","","","","","","","","","","","","","","","","","","","","","","","","","","","","","","","","","","","","","","","","","","","","","","","","","","","","","","","","","","","","MET069MOBOB0 METAR 7018 //000 000000 131044Z AUTO VRB02KT //// 23/23 A3006=","","","","","","","","","",""
"00701899999","2013-07-13T10:59:00","0.0","0.0","7018.0","WXPOD 7018","FM-15","4","30.08","75","75","","","","","100","","","","","","VRB","","2","","","","","","","","","","","","","","","","","","","","","","","","","","","","","","","","","","","","","","","","","","","","","","","","","","","","","","","","","","","","","","","","","","","","","","","","","","","","","","","","","","","","","","","","","","","MET069MOBOB0 METAR 7018 //000 000000 131059Z AUTO VRB02KT //// 24/24 A3008=","","","","","","","","","",""
"00701899999","2013-07-13T11:14:00","0.0","0.0","7018.0","WXPOD 7018","FM-15","4","30.08","75","75","","","","","100","","","","","","VRB","","3","","","","","","","","","","","","","","","","","","","","","","","","","","","","","","","","","","","","","","","","","","","","","","","","","","","","","","","","","","","","","","","","","","","","","","","","","","","","","","","","","","","","","","","","","","","MET069MOBOB0 METAR 7018 //000 000000 131114Z AUTO VRB03KT //// 24/24 A3008=","","","","","","","","","",""
"00701899999","2013-07-13T11:29:00","0.0","0.0","7018.0","WXPOD 7018","FM-15","4","30.17","75","75","","","","","100","","","","","","VRB","","2","","","","","","","","","","","","","","","","","","","","","","","","","","","","","","","","","","","","","","","","","","","","","","","","","","","","","","","","","","","","","","","","","","","","","","","","","","","","","","","","","","","","","","","","","","","MET069MOBOB0 METAR 7018 //000 000000 131129Z AUTO VRB02KT //// 24/24 A3017=","","","","","","","","","",""
"00701899999","2013-07-13T11:44:00","0.0","0.0","7018.0","WXPOD 7018","FM-15","4","30.14","75","75","","","","","100","","","","","","VRB","","2","","","","","","","","","","","","","","","","","","","","","","","","","","","","","","","","","","","","","","","","","","","","","","","","","","","","","","","","","","","","","","","","","","","","","","","","","","","","","","","","","","","","","","","","","","","MET069MOBOB0 METAR 7018 //000 000000 131144Z AUTO VRB02KT //// 24/24 A3014=","","","","","","","","","",""
"00701899999","2013-07-13T11:59:00","0.0","0.0","7018.0","WXPOD 7018","FM-15","4","","77","77","","","","","100","","","","","","VRB","","1","","","","","","","","","","","","","","","","","","","","","","","","","","","","","","","","","","","","","","","","","","","","","","","","","","","","","","","","","","","","","","","","","","","","","","","","","","","","","","","","","","","","","","","","","","","MET069MOBOB0 METAR 7018 //000 000000 131159Z AUTO VRB01KT //// 25/25 A3025=","","","","","","","","","",""
"00701899999","2013-07-13T12:14:00","0.0","0.0","7018.0","WXPOD 7018","FM-15","4","","79","81","","","","","94","","","","","","VRB","","1","","","","","","","","","","","","","","","","","","","","","","","","","","","","","","","","","","","","","","","","","","","","","","","","","","","","","","","","","","","","","","","","","","","","","","","","","","","","","","","","","","","","","","","","","","","MET069MOBOB0 METAR 7018 //000 000000 131214Z AUTO VRB01KT //// 27/26 A3024=","","","","","","","","","",""
"00701899999","2013-07-13T12:29:00","0.0","0.0","7018.0","WXPOD 7018","FM-15","4","30.17","79","81","","","","","94","","","","","","VRB","","1","","","","","","","","","","","","","","","","","","","","","","","","","","","","","","","","","","","","","","","","","","","","","","","","","","","","","","","","","","","","","","","","","","","","","","","","","","","","","","","","","","","","","","","","","","","MET069MOBOB0 METAR 7018 //000 000000 131229Z AUTO VRB01KT //// 27/26 A3017=","","","","","","","","","",""
"00701899999","2013-07-13T12:44:00","0.0","0.0","7018.0","WXPOD 7018","FM-15","4","30.13","77","77","","","","","100","","","","","","VRB","","1","","","","","","","","","","","","","","","","","","","","","","","","","","","","","","","","","","","","","","","","","","","","","","","","","","","","","","","","","","","","","","","","","","","","","","","","","","","","","","","","","","","","","","","","","","","MET069MOBOB0 METAR 7018 //000 000000 131244Z AUTO VRB01KT //// 25/25 A3013=","","","","","","","","","",""
"00701899999","2013-07-13T12:59:00","0.0","0.0","7018.0","WXPOD 7018","FM-15","4","30.12","73","73","","","","","100","","","","","","VRB","","2","","","","","","","","","","","","","","","","","","","","","","","","","","","","","","","","","","","","","","","","","","","","","","","","","","","","","","","","","","","","","","","","","","","","","","","","","","","","","","","","","","","","","","","","","","","MET069MOBOB0 METAR 7018 //000 000000 131259Z AUTO VRB02KT //// 23/23 A3012=","","","","","","","","","",""
"00701899999","2013-07-13T13:14:00","0.0","0.0","7018.0","WXPOD 7018","FM-15","4","30.15","73","73","","","","","100","","","","","","290","","2","","","","","","","","","","","","","","","","","","","","","","","","","","","","","","","","","","","","","","","","","","","","","","","","","","","","","","","","","","","","","","","","","","","","","","","","","","","","","","","","","","","","","","","","","","","MET069MOBOB0 METAR 7018 //000 000000 131314Z AUTO 29002KT //// 23/23 A3015=","","","","","","","","","",""
"00701899999","2013-07-13T13:29:00","0.0","0.0","7018.0","WXPOD 7018","FM-15","4","30.14","75","75","","","","","100","","","","","","VRB","","2","","","","","","","","","","","","","","","","","","","","","","","","","","","","","","","","","","","","","","","","","","","","","","","","","","","","","","","","","","","","","","","","","","","","","","","","","","","","","","","","","","","","","","","","","","","MET069MOBOB0 METAR 7018 //000 000000 131329Z AUTO VRB02KT //// 24/24 A3014=","","","","","","","","","",""
"00701899999","2013-07-13T13:44:00","0.0","0.0","7018.0","WXPOD 7018","FM-15","4","30.12","75","75","","","","","100","","","","","","VRB","","3","","","","","","","","","","","","","","","","","","","","","","","","","","","","","","","","","","","","","","","","","","","","","","","","","","","","","","","","","","","","","","","","","","","","","","","","","","","","","","","","","","","","","","","","","","","MET069MOBOB0 METAR 7018 //000 000000 131344Z AUTO VRB03KT //// 24/24 A3012=","","","","","","","","","",""
"00701899999","2013-07-13T13:59:00","0.0","0.0","7018.0","WXPOD 7018","FM-15","4","30.16","77","77","","","","","100","","","","","","VRB","","1","","","","","","","","","","","","","","","","","","","","","","","","","","","","","","","","","","","","","","","","","","","","","","","","","","","","","","","","","","","","","","","","","","","","","","","","","","","","","","","","","","","","","","","","","","","MET069MOBOB0 METAR 7018 //000 000000 131359Z AUTO VRB01KT //// 25/25 A3016=","","","","","","","","","",""
"00701899999","2013-07-13T14:14:00","0.0","0.0","7018.0","WXPOD 7018","FM-15","4","30.29","77","77","","","","","100","","","","","","280","","1","","","","","","","","","","","","","","","","","","","","","","","","","","","","","","","","","","","","","","","","","","","","","","","","","","","","","","","","","","","","","","","","","","","","","","","","","","","","","","","","","","","","","","","","","","","MET069MOBOB0 METAR 7018 //000 000000 131414Z AUTO 28001KT //// 25/25 A3029=","","","","","","","","","",""
"00701899999","2013-07-13T14:29:00","0.0","0.0","7018.0","WXPOD 7018","FM-15","4","","79","79","","","","","100","","","","","","VRB","","2","","","","","","","","","","","","","","","","","","","","","","","","","","","","","","","","","","","","","","","","","","","","","","","","","","","","","","","","","","","","","","","","","","","","","","","","","","","","","","","","","","","","","","","","","","","MET069MOBOB0 METAR 7018 //000 000000 131429Z AUTO VRB02KT //// 26/26 A3031=","","","","","","","","","",""
"00701899999","2013-07-13T14:44:00","0.0","0.0","7018.0","WXPOD 7018","FM-15","4","","79","79","","","","","100","","","","","","VRB","","5","","","","","","","","","","","","","","","","","","","","","","","","","","","","","","","","","","","","","","","","","","","","","","","","","","","","","","","","","","","","","","","","","","","","","","","","","","","","","","","","","","","","","","","","","","","MET069MOBOB0 METAR 7018 //000 000000 131444Z AUTO VRB04KT //// 26/26 A3029=","","","","","","","","","",""
"00701899999","2013-07-13T14:59:00","0.0","0.0","7018.0","WXPOD 7018","FM-15","4","30.15s","79","79","","","","","100","","","","","","VRB","","3","","","","","","","","","","","","","","","","","","","","","","","","","","","","","","","","","","","","","","","","","","","","","","","","","","","","","","","","","","","","","","","","","","","","","","","","","","","","","","","","","","","","","","","","","","","MET069MOBOB0 METAR 7018 //000 000000 131459Z AUTO VRB03KT //// 26/26 A3015=","","","","","","","","","",""
"00701899999","2013-07-13T15:14:00","0.0","0.0","7018.0","WXPOD 7018","FM-15","4","30.16","79","79","","","","","100","","","","","","VRB","","6","","","","","","","","","","","","","","","","","","","","","","","","","","","","","","","","","","","","","","","","","","","","","","","","","","","","","","","","","","","","","","","","","","","","","","","","","","","","","","","","","","","","","","","","","","","MET069MOBOB0 METAR 7018 //000 000000 131514Z AUTO VRB05KT //// 26/26 A3016=","","","","","","","","","",""
"00701899999","2013-07-13T15:29:00","0.0","0.0","7018.0","WXPOD 7018","FM-15","4","30.16","77","77","","","","","100","","","","","","VRB","","5","","","","","","","","","","","","","","","","","","","","","","","","","","","","","","","","","","","","","","","","","","","","","","","","","","","","","","","","","","","","","","","","","","","","","","","","","","","","","","","","","","","","","","","","","","","MET069MOBOB0 METAR 7018 //000 000000 131529Z AUTO VRB04KT //// 25/25 A3016=","","","","","","","","","",""
"00701899999","2013-07-13T15:44:00","0.0","0.0","7018.0","WXPOD 7018","FM-15","4","30.17","79","79","","","","","100","","","","","","VRB","","6","","","","","","","","","","","","","","","","","","","","","","","","","","","","","","","","","","","","","","","","","","","","","","","","","","","","","","","","","","","","","","","","","","","","","","","","","","","","","","","","","","","","","","","","","","","MET069MOBOB0 METAR 7018 //000 000000 131544Z AUTO VRB05KT //// 26/26 A3017=","","","","","","","","","",""
"00701899999","2013-07-13T15:59:00","0.0","0.0","7018.0","WXPOD 7018","FM-15","4","30.18","79","79","","","","","100","","","","","","VRB","","5","","","","","","","","","","","","","","","","","","","","","","","","","","","","","","","","","","","","","","","","","","","","","","","","","","","","","","","","","","","","","","","","","","","","","","","","","","","","","","","","","","","","","","","","","","","MET069MOBOB0 METAR 7018 //000 000000 131559Z AUTO VRB04KT //// 26/26 A3018=","","","","","","","","","",""
"00701899999","2013-07-13T16:17:00","0.0","0.0","7018.0","WXPOD 7018","FM-15","4","30.18","79","79","","","","","100","","","","","","VRB","","6","","","","","","","","","","","","","","","","","","","","","","","","","","","","","","","","","","","","","","","","","","","","","","","","","","","","","","","","","","","","","","","","","","","","","","","","","","","","","","","","","","","","","","","","","","","MET069MOBOB0 METAR 7018 //000 000000 131617Z AUTO VRB05KT //// 26/26 A3018=","","","","","","","","","",""
"00701899999","2013-07-13T16:44:00","0.0","0.0","7018.0","WXPOD 7018","FM-15","4","30.24","81","81","","","","","100","","","","","","VRB","","3","","","","","","","","","","","","","","","","","","","","","","","","","","","","","","","","","","","","","","","","","","","","","","","","","","","","","","","","","","","","","","","","","","","","","","","","","","","","","","","","","","","","","","","","","","","MET069MOBOB0 METAR 7018 //000 000000 131644Z AUTO VRB03KT //// 27/27 A3024=","","","","","","","","","",""
"00701899999","2013-07-13T16:59:00","0.0","0.0","7018.0","WXPOD 7018","FM-15","4","30.27","81","81","","","","","100","","","","","","VRB","","2","","","","","","","","","","","","","","","","","","","","","","","","","","","","","","","","","","","","","","","","","","","","","","","","","","","","","","","","","","","","","","","","","","","","","","","","","","","","","","","","","","","","","","","","","","","MET069MOBOB0 METAR 7018 //000 000000 131659Z AUTO VRB02KT //// 27/27 A3027=","","","","","","","","","",""
"00701899999","2013-07-13T17:14:00","0.0","0.0","7018.0","WXPOD 7018","FM-15","4","30.25","81","81","","","","","100","","","","","","VRB","","2","","","","","","","","","","","","","","","","","","","","","","","","","","","","","","","","","","","","","","","","","","","","","","","","","","","","","","","","","","","","","","","","","","","","","","","","","","","","","","","","","","","","","","","","","","","MET069MOBOB0 METAR 7018 //000 000000 131714Z AUTO VRB02KT //// 27/27 A3025=","","","","","","","","","",""
"00701899999","2013-07-13T17:29:00","0.0","0.0","7018.0","WXPOD 7018","FM-15","4","30.27","79","82","","","","","89","","","","","","VRB","","2","","","","","","","","","","","","","","","","","","","","","","","","","","","","","","","","","","","","","","","","","","","","","","","","","","","","","","","","","","","","","","","","","","","","","","","","","","","","","","","","","","","","","","","","","","","MET069MOBOB0 METAR 7018 //000 000000 131729Z AUTO VRB02KT //// 28/26 A3027=","","","","","","","","","",""
"00701899999","2013-07-13T17:44:00","0.0","0.0","7018.0","WXPOD 7018","FM-15","4","30.23","79","82","","","","","89","","","","","","VRB","","5","","","","","","","","","","","","","","","","","","","","","","","","","","","","","","","","","","","","","","","","","","","","","","","","","","","","","","","","","","","","","","","","","","","","","","","","","","","","","","","","","","","","","","","","","","","MET069MOBOB0 METAR 7018 //000 000000 131744Z AUTO VRB04KT //// 28/26 A3023=","","","","","","","","","",""
"00701899999","2013-07-13T17:59:00","0.0","0.0","7018.0","WXPOD 7018","FM-15","4","30.23","79","82","","","","","89","","","","","","VRB","","5","","","","","","","","","","","","","","","","","","","","","","","","","","","","","","","","","","","","","","","","","","","","","","","","","","","","","","","","","","","","","","","","","","","","","","","","","","","","","","","","","","","","","","","","","","","MET069MOBOB0 METAR 7018 //000 000000 131759Z AUTO VRB04KT //// 28/26 A3023=","","","","","","","","","",""
"00701899999","2013-07-13T18:14:00","0.0","0.0","7018.0","WXPOD 7018","FM-15","4","30.24","79","82","","","","","89","","","","","","VRB","","3","","","","","","","","","","","","","","","","","","","","","","","","","","","","","","","","","","","","","","","","","","","","","","","","","","","","","","","","","","","","","","","","","","","","","","","","","","","","","","","","","","","","","","","","","","","MET069MOBOB0 METAR 7018 //000 000000 131814Z AUTO VRB03KT //// 28/26 A3024=","","","","","","","","","",""
"00701899999","2013-07-13T18:29:00","0.0","0.0","7018.0","WXPOD 7018","FM-15","4","30.21","79","82","","","","","89","","","","","","VRB","","6","","","","","","","","","","","","","","","","","","","","","","","","","","","","","","","","","","","","","","","","","","","","","","","","","","","","","","","","","","","","","","","","","","","","","","","","","","","","","","","","","","","","","","","","","","","MET069MOBOB0 METAR 7018 //000 000000 131829Z AUTO VRB05KT //// 28/26 A3021=","","","","","","","","","",""
"00701899999","2013-07-13T18:44:00","0.0","0.0","7018.0","WXPOD 7018","FM-15","4","30.22","79","82","","","","","89","","","","","","VRB","","6","","","","","","","","","","","","","","","","","","","","","","","","","","","","","","","","","","","","","","","","","","","","","","","","","","","","","","","","","","","","","","","","","","","","","","","","","","","","","","","","","","","","","","","","","","","MET069MOBOB0 METAR 7018 //000 000000 131844Z AUTO VRB05KT //// 28/26 A3022=","","","","","","","","","",""
"00701899999","2013-07-13T18:59:00","0.0","0.0","7018.0","WXPOD 7018","FM-15","4","30.22","79","82","","","","","89","","","","","","VRB","","6","","","","","","","","","","","","","","","","","","","","","","","","","","","","","","","","","","","","","","","","","","","","","","","","","","","","","","","","","","","","","","","","","","","","","","","","","","","","","","","","","","","","","","","","","","","MET069MOBOB0 METAR 7018 //000 000000 131859Z AUTO VRB05KT //// 28/26 A3022=","","","","","","","","","",""
"00701899999","2013-07-13T19:14:00","0.0","0.0","7018.0","WXPOD 7018","FM-15","4","30.22","79","84","","","","","84","","","","","","VRB","","6","","","","","","","","","","","","","","","","","","","","","","","","","","","","","","","","","","","","","","","","","","","","","","","","","","","","","","","","","","","","","","","","","","","","","","","","","","","","","","","","","","","","","","","","","","","MET069MOBOB0 METAR 7018 //000 000000 131914Z AUTO VRB05KT //// 29/26 A3022=","","","","","","","","","",""
"00701899999","2013-07-13T19:29:00","0.0","0.0","7018.0","WXPOD 7018","FM-15","4","30.20","79","82","","","","","89","","","","","","VRB","","6","","","","","","","","","","","","","","","","","","","","","","","","","","","","","","","","","","","","","","","","","","","","","","","","","","","","","","","","","","","","","","","","","","","","","","","","","","","","","","","","","","","","","","","","","","","MET069MOBOB0 METAR 7018 //000 000000 131929Z AUTO VRB05KT //// 28/26 A3020=","","","","","","","","","",""
"00701899999","2013-07-13T19:44:00","0.0","0.0","7018.0","WXPOD 7018","FM-15","4","30.21","79","82","","","","","89","","","","","","VRB","","5","","","","","","","","","","","","","","","","","","","","","","","","","","","","","","","","","","","","","","","","","","","","","","","","","","","","","","","","","","","","","","","","","","","","","","","","","","","","","","","","","","","","","","","","","","","MET069MOBOB0 METAR 7018 //000 000000 131944Z AUTO VRB04KT //// 28/26 A3021=","","","","","","","","","",""
"00701899999","2013-07-13T19:59:00","0.0","0.0","7018.0","WXPOD 7018","FM-15","4","30.20","79","82","","","","","89","","","","","","VRB","","5","","","","","","","","","","","","","","","","","","","","","","","","","","","","","","","","","","","","","","","","","","","","","","","","","","","","","","","","","","","","","","","","","","","","","","","","","","","","","","","","","","","","","","","","","","","MET069MOBOB0 METAR 7018 //000 000000 131959Z AUTO VRB04KT //// 28/26 A3020=","","","","","","","","","",""
"00701899999","2013-07-13T20:14:00","0.0","0.0","7018.0","WXPOD 7018","FM-15","4","30.20","79","82","","","","","89","","","","","","VRB","","3","","","","","","","","","","","","","","","","","","","","","","","","","","","","","","","","","","","","","","","","","","","","","","","","","","","","","","","","","","","","","","","","","","","","","","","","","","","","","","","","","","","","","","","","","","","MET069MOBOB0 METAR 7018 //000 000000 132014Z AUTO VRB03KT //// 28/26 A3020=","","","","","","","","","",""
"00701899999","2013-07-13T20:29:00","0.0","0.0","7018.0","WXPOD 7018","FM-15","4","30.19","79","82","","","","","89","","","","","","VRB","","3","","","","","","","","","","","","","","","","","","","","","","","","","","","","","","","","","","","","","","","","","","","","","","","","","","","","","","","","","","","","","","","","","","","","","","","","","","","","","","","","","","","","","","","","","","","MET069MOBOB0 METAR 7018 //000 000000 132029Z AUTO VRB03KT //// 28/26 A3019=","","","","","","","","","",""
"00701899999","2013-07-13T20:44:00","0.0","0.0","7018.0","WXPOD 7018","FM-15","4","30.15","79","82","","","","","89","","","","","","VRB","","3","","","","","","","","","","","","","","","","","","","","","","","","","","","","","","","","","","","","","","","","","","","","","","","","","","","","","","","","","","","","","","","","","","","","","","","","","","","","","","","","","","","","","","","","","","","MET069MOBOB0 METAR 7018 //000 000000 132044Z AUTO VRB03KT //// 28/26 A3015=","","","","","","","","","",""
"00701899999","2013-07-13T20:59:00","0.0","0.0","7018.0","WXPOD 7018","FM-15","4","30.13","79","82","","","","","89","","","","","","VRB","","3","","","","","","","","","","","","","","","","","","","","","","","","","","","","","","","","","","","","","","","","","","","","","","","","","","","","","","","","","","","","","","","","","","","","","","","","","","","","","","","","","","","","","","","","","","","MET069MOBOB0 METAR 7018 //000 000000 132059Z AUTO VRB03KT //// 28/26 A3013=","","","","","","","","","",""
"00701899999","2013-07-13T21:14:00","0.0","0.0","7018.0","WXPOD 7018","FM-15","4","30.17","79","82","","","","","89","","","","","","VRB","","5","","","","","","","","","","","","","","","","","","","","","","","","","","","","","","","","","","","","","","","","","","","","","","","","","","","","","","","","","","","","","","","","","","","","","","","","","","","","","","","","","","","","","","","","","","","MET069MOBOB0 METAR 7018 //000 000000 132114Z AUTO VRB04KT //// 28/26 A3017=","","","","","","","","","",""
"00701899999","2013-07-13T21:29:00","0.0","0.0","7018.0","WXPOD 7018","FM-15","4","30.18","79","82","","","","","89","","","","","","VRB","","3","","","","","","","","","","","","","","","","","","","","","","","","","","","","","","","","","","","","","","","","","","","","","","","","","","","","","","","","","","","","","","","","","","","","","","","","","","","","","","","","","","","","","","","","","","","MET069MOBOB0 METAR 7018 //000 000000 132129Z AUTO VRB03KT //// 28/26 A3018=","","","","","","","","","",""
"00701899999","2013-07-13T21:44:00","0.0","0.0","7018.0","WXPOD 7018","FM-15","4","30.18","79","82","","","","","89","","","","","","VRB","","3","","","","","","","","","","","","","","","","","","","","","","","","","","","","","","","","","","","","","","","","","","","","","","","","","","","","","","","","","","","","","","","","","","","","","","","","","","","","","","","","","","","","","","","","","","","MET069MOBOB0 METAR 7018 //000 000000 132144Z AUTO VRB03KT //// 28/26 A3018=","","","","","","","","","",""
"00701899999","2013-07-13T21:59:00","0.0","0.0","7018.0","WXPOD 7018","FM-15","4","30.18","79","82","","","","","89","","","","","","VRB","","3","","","","","","","","","","","","","","","","","","","","","","","","","","","","","","","","","","","","","","","","","","","","","","","","","","","","","","","","","","","","","","","","","","","","","","","","","","","","","","","","","","","","","","","","","","","MET069MOBOB0 METAR 7018 //000 000000 132159Z AUTO VRB03KT //// 28/26 A3018=","","","","","","","","","",""
"00701899999","2013-07-13T22:14:00","0.0","0.0","7018.0","WXPOD 7018","FM-15","4","30.18","79","82","","","","","89","","","","","","VRB","","3","","","","","","","","","","","","","","","","","","","","","","","","","","","","","","","","","","","","","","","","","","","","","","","","","","","","","","","","","","","","","","","","","","","","","","","","","","","","","","","","","","","","","","","","","","","MET069MOBOB0 METAR 7018 //000 000000 132214Z AUTO VRB03KT //// 28/26 A3018=","","","","","","","","","",""
"00701899999","2013-07-13T22:29:00","0.0","0.0","7018.0","WXPOD 7018","FM-15","4","30.18","79","81","","","","","94","","","","","","VRB","","5","","","","","","","","","","","","","","","","","","","","","","","","","","","","","","","","","","","","","","","","","","","","","","","","","","","","","","","","","","","","","","","","","","","","","","","","","","","","","","","","","","","","","","","","","","","MET069MOBOB0 METAR 7018 //000 000000 132229Z AUTO VRB04KT //// 27/26 A3018=","","","","","","","","","",""
"00701899999","2013-07-13T22:44:00","0.0","0.0","7018.0","WXPOD 7018","FM-15","4","30.18","79","81","","","","","94","","","","","","VRB","","2","","","","","","","","","","","","","","","","","","","","","","","","","","","","","","","","","","","","","","","","","","","","","","","","","","","","","","","","","","","","","","","","","","","","","","","","","","","","","","","","","","","","","","","","","","","MET069MOBOB0 METAR 7018 //000 000000 132244Z AUTO VRB02KT //// 27/26 A3018=","","","","","","","","","",""
"00701899999","2013-07-13T22:59:00","0.0","0.0","7018.0","WXPOD 7018","FM-15","4","30.19","79","81","","","","","94","","","","","","VRB","","5","","","","","","","","","","","","","","","","","","","","","","","","","","","","","","","","","","","","","","","","","","","","","","","","","","","","","","","","","","","","","","","","","","","","","","","","","","","","","","","","","","","","","","","","","","","MET069MOBOB0 METAR 7018 //000 000000 132259Z AUTO VRB04KT //// 27/26 A3019=","","","","","","","","","",""
"00701899999","2013-07-13T23:14:00","0.0","0.0","7018.0","WXPOD 7018","FM-15","4","30.19","79","81","","","","","94","","","","","","VRB","","5","","","","","","","","","","","","","","","","","","","","","","","","","","","","","","","","","","","","","","","","","","","","","","","","","","","","","","","","","","","","","","","","","","","","","","","","","","","","","","","","","","","","","","","","","","","MET069MOBOB0 METAR 7018 //000 000000 132314Z AUTO VRB04KT //// 27/26 A3019=","","","","","","","","","",""
"00701899999","2013-07-13T23:29:00","0.0","0.0","7018.0","WXPOD 7018","FM-15","4","30.19","79","79","","","","","100","","","","","","VRB","","2","","","","","","","","","","","","","","","","","","","","","","","","","","","","","","","","","","","","","","","","","","","","","","","","","","","","","","","","","","","","","","","","","","","","","","","","","","","","","","","","","","","","","","","","","","","MET069MOBOB0 METAR 7018 //000 000000 132329Z AUTO VRB02KT //// 26/26 A3019=","","","","","","","","","",""
"00701899999","2013-07-13T23:44:00","0.0","0.0","7018.0","WXPOD 7018","FM-15","4","30.19","77","79","","","","","94","","","","","","VRB","","2","","","","","","","","","","","","","","","","","","","","","","","","","","","","","","","","","","","","","","","","","","","","","","","","","","","","","","","","","","","","","","","","","","","","","","","","","","","","","","","","","","","","","","","","","","","MET069MOBOB0 METAR 7018 //000 000000 132344Z AUTO VRB02KT //// 26/25 A3019=","","","","","","","","","",""
"00701899999","2013-07-13T23:59:00","0.0","0.0","7018.0","WXPOD 7018","FM-15","4","30.20","77","79","","","","","94","","","","","","VRB","","2","","","","","","","","","","","","","","","","","","","","","","","","","","","","","","","","","","","","","","","","","","","","","","","","","","","","","","","","","","","","","","","","","","","","","","","","","","","","","","","","","","","","","","","","","","","MET069MOBOB0 METAR 7018 //000 000000 132359Z AUTO VRB02KT //// 26/25 A3020=","","","","","","","","","",""
"00701899999","2013-07-14T00:14:00","0.0","0.0","7018.0","WXPOD 7018","FM-15","4","30.20","79","79","","","","","100","","","","","","VRB","","2","","","","","","","","","","","","","","","","","","","","","","","","","","","","","","","","","","","","","","","","","","","","","","","","","","","","","","","","","","","","","","","","","","","","","","","","","","","","","","","","","","","","","","","","","","","MET069MOBOB0 METAR 7018 //000 000000 140014Z AUTO VRB02KT //// 26/26 A3020=","","","","","","","","","",""
"00701899999","2013-07-14T00:29:00","0.0","0.0","7018.0","WXPOD 7018","FM-15","4","30.21","77","77","","","","","100","","","","","","VRB","","2","","","","","","","","","","","","","","","","","","","","","","","","","","","","","","","","","","","","","","","","","","","","","","","","","","","","","","","","","","","","","","","","","","","","","","","","","","","","","","","","","","","","","","","","","","","MET069MOBOB0 METAR 7018 //000 000000 140029Z AUTO VRB02KT //// 25/25 A3021=","","","","","","","","","",""
"00701899999","2013-07-14T00:44:00","0.0","0.0","7018.0","WXPOD 7018","FM-15","4","30.21","77","77","","","","","100","","","","","","VRB","","2","","","","","","","","","","","","","","","","","","","","","","","","","","","","","","","","","","","","","","","","","","","","","","","","","","","","","","","","","","","","","","","","","","","","","","","","","","","","","","","","","","","","","","","","","","","MET069MOBOB0 METAR 7018 //000 000000 140044Z AUTO VRB02KT //// 25/25 A3021=","","","","","","","","","",""
"00701899999","2013-07-14T00:59:00","0.0","0.0","7018.0","WXPOD 7018","FM-15","4","30.21","77","77","","","","","100","","","","","","VRB","","2","","","","","","","","","","","","","","","","","","","","","","","","","","","","","","","","","","","","","","","","","","","","","","","","","","","","","","","","","","","","","","","","","","","","","","","","","","","","","","","","","","","","","","","","","","","MET069MOBOB0 METAR 7018 //000 000000 140059Z AUTO VRB02KT //// 25/25 A3021=","","","","","","","","","",""
"00701899999","2013-07-14T01:14:00","0.0","0.0","7018.0","WXPOD 7018","FM-15","4","30.21","77","77","","","","","100","","","","","","VRB","","2","","","","","","","","","","","","","","","","","","","","","","","","","","","","","","","","","","","","","","","","","","","","","","","","","","","","","","","","","","","","","","","","","","","","","","","","","","","","","","","","","","","","","","","","","","","MET069MOBOB0 METAR 7018 //000 000000 140114Z AUTO VRB02KT //// 25/25 A3021=","","","","","","","","","",""
"00701899999","2013-07-14T01:29:00","0.0","0.0","7018.0","WXPOD 7018","FM-15","4","30.22","77","77","","","","","100","","","","","","VRB","","1","","","","","","","","","","","","","","","","","","","","","","","","","","","","","","","","","","","","","","","","","","","","","","","","","","","","","","","","","","","","","","","","","","","","","","","","","","","","","","","","","","","","","","","","","","","MET069MOBOB0 METAR 7018 //000 000000 140129Z AUTO VRB01KT //// 25/25 A3022=","","","","","","","","","",""
"00701899999","2013-07-14T01:44:00","0.0","0.0","7018.0","WXPOD 7018","FM-15","4","30.23","77","77","","","","","100","","","","","","VRB","","2","","","","","","","","","","","","","","","","","","","","","","","","","","","","","","","","","","","","","","","","","","","","","","","","","","","","","","","","","","","","","","","","","","","","","","","","","","","","","","","","","","","","","","","","","","","MET069MOBOB0 METAR 7018 //000 000000 140144Z AUTO VRB02KT //// 25/25 A3023=","","","","","","","","","",""
"00701899999","2013-07-14T01:59:00","0.0","0.0","7018.0","WXPOD 7018","FM-15","4","30.24","77","77","","","","","100","","","","","","VRB","","2","","","","","","","","","","","","","","","","","","","","","","","","","","","","","","","","","","","","","","","","","","","","","","","","","","","","","","","","","","","","","","","","","","","","","","","","","","","","","","","","","","","","","","","","","","","MET069MOBOB0 METAR 7018 //000 000000 140159Z AUTO VRB02KT //// 25/25 A3024=","","","","","","","","","",""
"00701899999","2013-07-14T02:14:00","0.0","0.0","7018.0","WXPOD 7018","FM-15","4","30.24","77","77","","","","","100","","","","","","VRB","","2","","","","","","","","","","","","","","","","","","","","","","","","","","","","","","","","","","","","","","","","","","","","","","","","","","","","","","","","","","","","","","","","","","","","","","","","","","","","","","","","","","","","","","","","","","","MET069MOBOB0 METAR 7018 //000 000000 140214Z AUTO VRB02KT //// 25/25 A3024=","","","","","","","","","",""
"00701899999","2013-07-14T02:29:00","0.0","0.0","7018.0","WXPOD 7018","FM-15","4","30.24","77","77","","","","","100","","","","","","VRB","","2","","","","","","","","","","","","","","","","","","","","","","","","","","","","","","","","","","","","","","","","","","","","","","","","","","","","","","","","","","","","","","","","","","","","","","","","","","","","","","","","","","","","","","","","","","","MET069MOBOB0 METAR 7018 //000 000000 140229Z AUTO VRB02KT //// 25/25 A3024=","","","","","","","","","",""
"00701899999","2013-07-14T02:44:00","0.0","0.0","7018.0","WXPOD 7018","FM-15","4","30.25","77","77","","","","","100","","","","","","VRB","","1","","","","","","","","","","","","","","","","","","","","","","","","","","","","","","","","","","","","","","","","","","","","","","","","","","","","","","","","","","","","","","","","","","","","","","","","","","","","","","","","","","","","","","","","","","","MET069MOBOB0 METAR 7018 //000 000000 140244Z AUTO VRB01KT //// 25/25 A3025=","","","","","","","","","",""
"00701899999","2013-07-14T02:59:00","0.0","0.0","7018.0","WXPOD 7018","FM-15","4","30.25","77","77","","","","","100","","","","","","VRB","","1","","","","","","","","","","","","","","","","","","","","","","","","","","","","","","","","","","","","","","","","","","","","","","","","","","","","","","","","","","","","","","","","","","","","","","","","","","","","","","","","","","","","","","","","","","","MET069MOBOB0 METAR 7018 //000 000000 140259Z AUTO VRB01KT //// 25/25 A3025=","","","","","","","","","",""
"00701899999","2013-07-14T03:14:00","0.0","0.0","7018.0","WXPOD 7018","FM-15","4","30.25","77","77","","","","","100","","","","","","VRB","","1","","","","","","","","","","","","","","","","","","","","","","","","","","","","","","","","","","","","","","","","","","","","","","","","","","","","","","","","","","","","","","","","","","","","","","","","","","","","","","","","","","","","","","","","","","","MET069MOBOB0 METAR 7018 //000 000000 140314Z AUTO VRB01KT //// 25/25 A3025=","","","","","","","","","",""
"00701899999","2013-07-14T03:29:00","0.0","0.0","7018.0","WXPOD 7018","FM-15","4","30.25","77","77","","","","","100","","","","","","060","","1","","","","","","","","","","","","","","","","","","","","","","","","","","","","","","","","","","","","","","","","","","","","","","","","","","","","","","","","","","","","","","","","","","","","","","","","","","","","","","","","","","","","","","","","","","","MET069MOBOB0 METAR 7018 //000 000000 140329Z AUTO 06001KT //// 25/25 A3025=","","","","","","","","","",""
"00701899999","2013-07-14T03:44:00","0.0","0.0","7018.0","WXPOD 7018","FM-15","4","30.25","75","75","","","","","100","","","","","","000","","0","","","","","","","","","","","","","","","","","","","","","","","","","","","","","","","","","","","","","","","","","","","","","","","","","","","","","","","","","","","","","","","","","","","","","","","","","","","","","","","","","","","","","","","","","","","MET069MOBOB0 METAR 7018 //000 000000 140344Z AUTO 00000KT //// 24/24 A3025=","","","","","","","","","",""
"00701899999","2013-07-14T03:59:00","0.0","0.0","7018.0","WXPOD 7018","FM-15","4","30.26","77","77","","","","","100","","","","","","000","","0","","","","","","","","","","","","","","","","","","","","","","","","","","","","","","","","","","","","","","","","","","","","","","","","","","","","","","","","","","","","","","","","","","","","","","","","","","","","","","","","","","","","","","","","","","","MET069MOBOB0 METAR 7018 //000 000000 140359Z AUTO 00000KT //// 25/25 A3026=","","","","","","","","","",""
"00701899999","2013-07-14T04:14:00","0.0","0.0","7018.0","WXPOD 7018","FM-15","4","30.26","75","75","","","","","100","","","","","","VRB","","2","","","","","","","","","","","","","","","","","","","","","","","","","","","","","","","","","","","","","","","","","","","","","","","","","","","","","","","","","","","","","","","","","","","","","","","","","","","","","","","","","","","","","","","","","","","MET069MOBOB0 METAR 7018 //000 000000 140414Z AUTO VRB02KT //// 24/24 A3026=","","","","","","","","","",""
"00701899999","2013-07-14T04:29:00","0.0","0.0","7018.0","WXPOD 7018","FM-15","4","30.26","75","75","","","","","100","","","","","","280","","1","","","","","","","","","","","","","","","","","","","","","","","","","","","","","","","","","","","","","","","","","","","","","","","","","","","","","","","","","","","","","","","","","","","","","","","","","","","","","","","","","","","","","","","","","","","MET069MOBOB0 METAR 7018 //000 000000 140429Z AUTO 28001KT //// 24/24 A3026=","","","","","","","","","",""
"00701899999","2013-07-14T04:44:00","0.0","0.0","7018.0","WXPOD 7018","FM-15","4","30.26","75","75","","","","","100","","","","","","070","","1","","","","","","","","","","","","","","","","","","","","","","","","","","","","","","","","","","","","","","","","","","","","","","","","","","","","","","","","","","","","","","","","","","","","","","","","","","","","","","","","","","","","","","","","","","","MET069MOBOB0 METAR 7018 //000 000000 140444Z AUTO 07001KT //// 24/24 A3026=","","","","","","","","","",""
"00701899999","2013-07-14T04:59:00","0.0","0.0","7018.0","WXPOD 7018","FM-15","4","30.26","77","77","","","","","100","","","","","","290","","1","","","","","","","","","","","","","","","","","","","","","","","","","","","","","","","","","","","","","","","","","","","","","","","","","","","","","","","","","","","","","","","","","","","","","","","","","","","","","","","","","","","","","","","","","","","MET069MOBOB0 METAR 7018 //000 000000 140459Z AUTO 29001KT //// 25/25 A3026=","","","","","","","","","",""
"00701899999","2013-07-14T05:14:00","0.0","0.0","7018.0","WXPOD 7018","FM-15","4","30.25","77","77","","","","","100","","","","","","310","","1","","","","","","","","","","","","","","","","","","","","","","","","","","","","","","","","","","","","","","","","","","","","","","","","","","","","","","","","","","","","","","","","","","","","","","","","","","","","","","","","","","","","","","","","","","","MET069MOBOB0 METAR 7018 //000 000000 140514Z AUTO 31001KT //// 25/25 A3025=","","","","","","","","","",""
"00701899999","2013-07-14T05:29:00","0.0","0.0","7018.0","WXPOD 7018","FM-15","4","30.24","75","75","","","","","100","","","","","","VRB","","2","","","","","","","","","","","","","","","","","","","","","","","","","","","","","","","","","","","","","","","","","","","","","","","","","","","","","","","","","","","","","","","","","","","","","","","","","","","","","","","","","","","","","","","","","","","MET069MOBOB0 METAR 7018 //000 000000 140529Z AUTO VRB02KT //// 24/24 A3024=","","","","","","","","","",""
"00701899999","2013-07-14T05:44:00","0.0","0.0","7018.0","WXPOD 7018","FM-15","4","30.24","75","75","","","","","100","","","","","","VRB","","1","","","","","","","","","","","","","","","","","","","","","","","","","","","","","","","","","","","","","","","","","","","","","","","","","","","","","","","","","","","","","","","","","","","","","","","","","","","","","","","","","","","","","","","","","","","MET069MOBOB0 METAR 7018 //000 000000 140544Z AUTO VRB01KT //// 24/24 A3024=","","","","","","","","","",""
"00701899999","2013-07-14T05:59:00","0.0","0.0","7018.0","WXPOD 7018","FM-15","4","30.25","75","75","","","","","100","","","","","","VRB","","2","","","","","","","","","","","","","","","","","","","","","","","","","","","","","","","","","","","","","","","","","","","","","","","","","","","","","","","","","","","","","","","","","","","","","","","","","","","","","","","","","","","","","","","","","","","MET069MOBOB0 METAR 7018 //000 000000 140559Z AUTO VRB02KT //// 24/24 A3025=","","","","","","","","","",""
"00701899999","2013-07-14T06:14:00","0.0","0.0","7018.0","WXPOD 7018","FM-15","4","30.25","75","75","","","","","100","","","","","","VRB","","1","","","","","","","","","","","","","","","","","","","","","","","","","","","","","","","","","","","","","","","","","","","","","","","","","","","","","","","","","","","","","","","","","","","","","","","","","","","","","","","","","","","","","","","","","","","MET069MOBOB0 METAR 7018 //000 000000 140614Z AUTO VRB01KT //// 24/24 A3025=","","","","","","","","","",""
"00701899999","2013-07-14T06:29:00","0.0","0.0","7018.0","WXPOD 7018","FM-15","4","30.25","75","75","","","","","100","","","","","","080","","1","","","","","","","","","","","","","","","","","","","","","","","","","","","","","","","","","","","","","","","","","","","","","","","","","","","","","","","","","","","","","","","","","","","","","","","","","","","","","","","","","","","","","","","","","","","MET069MOBOB0 METAR 7018 //000 000000 140629Z AUTO 08001KT //// 24/24 A3025=","","","","","","","","","",""
"00701899999","2013-07-14T06:44:00","0.0","0.0","7018.0","WXPOD 7018","FM-15","4","30.25","75","75","","","","","100","","","","","","VRB","","2","","","","","","","","","","","","","","","","","","","","","","","","","","","","","","","","","","","","","","","","","","","","","","","","","","","","","","","","","","","","","","","","","","","","","","","","","","","","","","","","","","","","","","","","","","","MET069MOBOB0 METAR 7018 //000 000000 140644Z AUTO VRB02KT //// 24/24 A3025=","","","","","","","","","",""
"00701899999","2013-07-14T06:59:00","0.0","0.0","7018.0","WXPOD 7018","FM-15","4","30.25","75","75","","","","","100","","","","","","VRB","","1","","","","","","","","","","","","","","","","","","","","","","","","","","","","","","","","","","","","","","","","","","","","","","","","","","","","","","","","","","","","","","","","","","","","","","","","","","","","","","","","","","","","","","","","","","","MET069MOBOB0 METAR 7018 //000 000000 140659Z AUTO VRB01KT //// 24/24 A3025=","","","","","","","","","",""
"00701899999","2013-07-14T07:14:00","0.0","0.0","7018.0","WXPOD 7018","FM-15","4","30.25","75","75","","","","","100","","","","","","VRB","","1","","","","","","","","","","","","","","","","","","","","","","","","","","","","","","","","","","","","","","","","","","","","","","","","","","","","","","","","","","","","","","","","","","","","","","","","","","","","","","","","","","","","","","","","","","","MET069MOBOB0 METAR 7018 //000 000000 140714Z AUTO VRB01KT //// 24/24 A3025=","","","","","","","","","",""
"00701899999","2013-07-14T07:29:00","0.0","0.0","7018.0","WXPOD 7018","FM-15","4","30.25","75","75","","","","","100","","","","","","VRB","","2","","","","","","","","","","","","","","","","","","","","","","","","","","","","","","","","","","","","","","","","","","","","","","","","","","","","","","","","","","","","","","","","","","","","","","","","","","","","","","","","","","","","","","","","","","","MET069MOBOB0 METAR 7018 //000 000000 140729Z AUTO VRB02KT //// 24/24 A3025=","","","","","","","","","",""
"00701899999","2013-07-14T07:44:00","0.0","0.0","7018.0","WXPOD 7018","FM-15","4","30.26","75","75","","","","","100","","","","","","VRB","","1","","","","","","","","","","","","","","","","","","","","","","","","","","","","","","","","","","","","","","","","","","","","","","","","","","","","","","","","","","","","","","","","","","","","","","","","","","","","","","","","","","","","","","","","","","","MET069MOBOB0 METAR 7018 //000 000000 140744Z AUTO VRB01KT //// 24/24 A3026=","","","","","","","","","",""
"00701899999","2013-07-14T07:59:00","0.0","0.0","7018.0","WXPOD 7018","FM-15","4","30.26","75","75","","","","","100","","","","","","VRB","","1","","","","","","","","","","","","","","","","","","","","","","","","","","","","","","","","","","","","","","","","","","","","","","","","","","","","","","","","","","","","","","","","","","","","","","","","","","","","","","","","","","","","","","","","","","","MET069MOBOB0 METAR 7018 //000 000000 140759Z AUTO VRB01KT //// 24/24 A3026=","","","","","","","","","",""
"00701899999","2013-07-14T08:14:00","0.0","0.0","7018.0","WXPOD 7018","FM-15","4","30.27","75","75","","","","","100","","","","","","VRB","","1","","","","","","","","","","","","","","","","","","","","","","","","","","","","","","","","","","","","","","","","","","","","","","","","","","","","","","","","","","","","","","","","","","","","","","","","","","","","","","","","","","","","","","","","","","","MET069MOBOB0 METAR 7018 //000 000000 140814Z AUTO VRB01KT //// 24/24 A3027=","","","","","","","","","",""
"00701899999","2013-07-14T08:29:00","0.0","0.0","7018.0","WXPOD 7018","FM-15","4","30.26","75","75","","","","","100","","","","","","330","","1","","","","","","","","","","","","","","","","","","","","","","","","","","","","","","","","","","","","","","","","","","","","","","","","","","","","","","","","","","","","","","","","","","","","","","","","","","","","","","","","","","","","","","","","","","","MET069MOBOB0 METAR 7018 //000 000000 140829Z AUTO 33001KT //// 24/24 A3026=","","","","","","","","","",""
"00701899999","2013-07-14T08:44:00","0.0","0.0","7018.0","WXPOD 7018","FM-15","4","30.27","75","75","","","","","100","","","","","","VRB","","1","","","","","","","","","","","","","","","","","","","","","","","","","","","","","","","","","","","","","","","","","","","","","","","","","","","","","","","","","","","","","","","","","","","","","","","","","","","","","","","","","","","","","","","","","","","MET069MOBOB0 METAR 7018 //000 000000 140844Z AUTO VRB01KT //// 24/24 A3027=","","","","","","","","","",""
"00701899999","2013-07-14T08:59:00","0.0","0.0","7018.0","WXPOD 7018","FM-15","4","30.27","75","75","","","","","100","","","","","","VRB","","1","","","","","","","","","","","","","","","","","","","","","","","","","","","","","","","","","","","","","","","","","","","","","","","","","","","","","","","","","","","","","","","","","","","","","","","","","","","","","","","","","","","","","","","","","","","MET069MOBOB0 METAR 7018 //000 000000 140859Z AUTO VRB01KT //// 24/24 A3027=","","","","","","","","","",""
"00701899999","2013-07-14T09:14:00","0.0","0.0","7018.0","WXPOD 7018","FM-15","4","30.27","75","75","","","","","100","","","","","","VRB","","2","","","","","","","","","","","","","","","","","","","","","","","","","","","","","","","","","","","","","","","","","","","","","","","","","","","","","","","","","","","","","","","","","","","","","","","","","","","","","","","","","","","","","","","","","","","MET069MOBOB0 METAR 7018 //000 000000 140914Z AUTO VRB02KT //// 24/24 A3027=","","","","","","","","","",""
"00701899999","2013-07-14T09:29:00","0.0","0.0","7018.0","WXPOD 7018","FM-15","4","30.27","75","75","","","","","100","","","","","","VRB","","1","","","","","","","","","","","","","","","","","","","","","","","","","","","","","","","","","","","","","","","","","","","","","","","","","","","","","","","","","","","","","","","","","","","","","","","","","","","","","","","","","","","","","","","","","","","MET069MOBOB0 METAR 7018 //000 000000 140929Z AUTO VRB01KT //// 24/24 A3027=","","","","","","","","","",""
"00701899999","2013-07-14T09:44:00","0.0","0.0","7018.0","WXPOD 7018","FM-15","4","30.27","73","73","","","","","100","","","","","","VRB","","2","","","","","","","","","","","","","","","","","","","","","","","","","","","","","","","","","","","","","","","","","","","","","","","","","","","","","","","","","","","","","","","","","","","","","","","","","","","","","","","","","","","","","","","","","","","MET069MOBOB0 METAR 7018 //000 000000 140944Z AUTO VRB02KT //// 23/23 A3027=","","","","","","","","","",""
"00701899999","2013-07-14T09:59:00","0.0","0.0","7018.0","WXPOD 7018","FM-15","4","30.28","75","75","","","","","100","","","","","","VRB","","1","","","","","","","","","","","","","","","","","","","","","","","","","","","","","","","","","","","","","","","","","","","","","","","","","","","","","","","","","","","","","","","","","","","","","","","","","","","","","","","","","","","","","","","","","","","MET069MOBOB0 METAR 7018 //000 000000 140959Z AUTO VRB01KT //// 24/24 A3028=","","","","","","","","","",""
"00701899999","2013-07-14T10:14:00","0.0","0.0","7018.0","WXPOD 7018","FM-15","4","30.28","73","73","","","","","100","","","","","","VRB","","3","","","","","","","","","","","","","","","","","","","","","","","","","","","","","","","","","","","","","","","","","","","","","","","","","","","","","","","","","","","","","","","","","","","","","","","","","","","","","","","","","","","","","","","","","","","MET069MOBOB0 METAR 7018 //000 000000 141014Z AUTO VRB03KT //// 23/23 A3028=","","","","","","","","","",""
"00701899999","2013-07-14T10:29:00","0.0","0.0","7018.0","WXPOD 7018","FM-15","4","30.28","75","75","","","","","100","","","","","","VRB","","2","","","","","","","","","","","","","","","","","","","","","","","","","","","","","","","","","","","","","","","","","","","","","","","","","","","","","","","","","","","","","","","","","","","","","","","","","","","","","","","","","","","","","","","","","","","MET069MOBOB0 METAR 7018 //000 000000 141029Z AUTO VRB02KT //// 24/24 A3028=","","","","","","","","","",""
"00701899999","2013-07-14T10:44:00","0.0","0.0","7018.0","WXPOD 7018","FM-15","4","30.29","75","75","","","","","100","","","","","","VRB","","2","","","","","","","","","","","","","","","","","","","","","","","","","","","","","","","","","","","","","","","","","","","","","","","","","","","","","","","","","","","","","","","","","","","","","","","","","","","","","","","","","","","","","","","","","","","MET069MOBOB0 METAR 7018 //000 000000 141044Z AUTO VRB02KT //// 24/24 A3029=","","","","","","","","","",""
"00701899999","2013-07-14T10:59:00","0.0","0.0","7018.0","WXPOD 7018","FM-15","4","30.29","75","75","","","","","100","","","","","","VRB","","2","","","","","","","","","","","","","","","","","","","","","","","","","","","","","","","","","","","","","","","","","","","","","","","","","","","","","","","","","","","","","","","","","","","","","","","","","","","","","","","","","","","","","","","","","","","MET069MOBOB0 METAR 7018 //000 000000 141059Z AUTO VRB02KT //// 24/24 A3029=","","","","","","","","","",""
"00701899999","2013-07-14T11:14:00","0.0","0.0","7018.0","WXPOD 7018","FM-15","4","30.29","77","77","","","","","100","","","","","","VRB","","3","","","","","","","","","","","","","","","","","","","","","","","","","","","","","","","","","","","","","","","","","","","","","","","","","","","","","","","","","","","","","","","","","","","","","","","","","","","","","","","","","","","","","","","","","","","MET069MOBOB0 METAR 7018 //000 000000 141114Z AUTO VRB03KT //// 25/25 A3029=","","","","","","","","","",""
"00701899999","2013-07-14T11:29:00","0.0","0.0","7018.0","WXPOD 7018","FM-15","4","30.29","77","77","","","","","100","","","","","","VRB","","3","","","","","","","","","","","","","","","","","","","","","","","","","","","","","","","","","","","","","","","","","","","","","","","","","","","","","","","","","","","","","","","","","","","","","","","","","","","","","","","","","","","","","","","","","","","MET069MOBOB0 METAR 7018 //000 000000 141129Z AUTO VRB03KT //// 25/25 A3029=","","","","","","","","","",""
"00701899999","2013-07-14T11:44:00","0.0","0.0","7018.0","WXPOD 7018","FM-15","4","30.29","77","77","","","","","100","","","","","","VRB","","2","","","","","","","","","","","","","","","","","","","","","","","","","","","","","","","","","","","","","","","","","","","","","","","","","","","","","","","","","","","","","","","","","","","","","","","","","","","","","","","","","","","","","","","","","","","MET069MOBOB0 METAR 7018 //000 000000 141144Z AUTO VRB02KT //// 25/25 A3029=","","","","","","","","","",""
"00701899999","2013-07-14T11:59:00","0.0","0.0","7018.0","WXPOD 7018","FM-15","4","30.29","77","77","","","","","100","","","","","","VRB","","2","","","","","","","","","","","","","","","","","","","","","","","","","","","","","","","","","","","","","","","","","","","","","","","","","","","","","","","","","","","","","","","","","","","","","","","","","","","","","","","","","","","","","","","","","","","MET069MOBOB0 METAR 7018 //000 000000 141159Z AUTO VRB02KT //// 25/25 A3029=","","","","","","","","","",""
"00701899999","2013-07-14T12:14:00","0.0","0.0","7018.0","WXPOD 7018","FM-15","4","30.29","77","77","","","","","100","","","","","","VRB","","2","","","","","","","","","","","","","","","","","","","","","","","","","","","","","","","","","","","","","","","","","","","","","","","","","","","","","","","","","","","","","","","","","","","","","","","","","","","","","","","","","","","","","","","","","","","MET069MOBOB0 METAR 7018 //000 000000 141214Z AUTO VRB02KT //// 25/25 A3029=","","","","","","","","","",""
"00701899999","2013-07-14T12:29:00","0.0","0.0","7018.0","WXPOD 7018","FM-15","4","30.30","77","79","","","","","94","","","","","","VRB","","3","","","","","","","","","","","","","","","","","","","","","","","","","","","","","","","","","","","","","","","","","","","","","","","","","","","","","","","","","","","","","","","","","","","","","","","","","","","","","","","","","","","","","","","","","","","MET069MOBOB0 METAR 7018 //000 000000 141229Z AUTO VRB03KT //// 26/25 A3030=","","","","","","","","","",""
"00701899999","2013-07-14T12:44:00","0.0","0.0","7018.0","WXPOD 7018","FM-15","4","30.30","79","81","","","","","94","","","","","","VRB","","1","","","","","","","","","","","","","","","","","","","","","","","","","","","","","","","","","","","","","","","","","","","","","","","","","","","","","","","","","","","","","","","","","","","","","","","","","","","","","","","","","","","","","","","","","","","MET069MOBOB0 METAR 7018 //000 000000 141244Z AUTO VRB01KT //// 27/26 A3030=","","","","","","","","","",""
"00701899999","2013-07-14T12:59:00","0.0","0.0","7018.0","WXPOD 7018","FM-15","4","30.31","79","82","","","","","89","","","","","","VRB","","2","","","","","","","","","","","","","","","","","","","","","","","","","","","","","","","","","","","","","","","","","","","","","","","","","","","","","","","","","","","","","","","","","","","","","","","","","","","","","","","","","","","","","","","","","","","MET069MOBOB0 METAR 7018 //000 000000 141259Z AUTO VRB02KT //// 28/26 A3031=","","","","","","","","","",""
"00701899999","2013-07-14T13:14:00","0.0","0.0","7018.0","WXPOD 7018","FM-15","4","30.31","79","86","","","","","79","","","","","","VRB","","2","","","","","","","","","","","","","","","","","","","","","","","","","","","","","","","","","","","","","","","","","","","","","","","","","","","","","","","","","","","","","","","","","","","","","","","","","","","","","","","","","","","","","","","","","","","MET069MOBOB0 METAR 7018 //000 000000 141314Z AUTO VRB02KT //// 30/26 A3031=","","","","","","","","","",""
"00701899999","2013-07-14T13:29:00","0.0","0.0","7018.0","WXPOD 7018","FM-15","4","30.31","81","86","","","","","84","","","","","","000","","0","","","","","","","","","","","","","","","","","","","","","","","","","","","","","","","","","","","","","","","","","","","","","","","","","","","","","","","","","","","","","","","","","","","","","","","","","","","","","","","","","","","","","","","","","","","MET069MOBOB0 METAR 7018 //000 000000 141329Z AUTO 00000KT //// 30/27 A3031=","","","","","","","","","",""
"00701899999","2013-07-14T13:44:00","0.0","0.0","7018.0","WXPOD 7018","FM-15","4","30.31","79","84","","","","","84","","","","","","030","","1","","","","","","","","","","","","","","","","","","","","","","","","","","","","","","","","","","","","","","","","","","","","","","","","","","","","","","","","","","","","","","","","","","","","","","","","","","","","","","","","","","","","","","","","","","","MET069MOBOB0 METAR 7018 //000 000000 141344Z AUTO 03001KT //// 29/26 A3031=","","","","","","","","","",""
"00701899999","2013-07-14T13:59:00","0.0","0.0","7018.0","WXPOD 7018","FM-15","4","30.31","79","88","","","","","75","","","","","","VRB","","1","","","","","","","","","","","","","","","","","","","","","","","","","","","","","","","","","","","","","","","","","","","","","","","","","","","","","","","","","","","","","","","","","","","","","","","","","","","","","","","","","","","","","","","","","","","MET069MOBOB0 METAR 7018 //000 000000 141359Z AUTO VRB01KT //// 31/26 A3031=","","","","","","","","","",""
"00701899999","2013-07-14T14:14:00","0.0","0.0","7018.0","WXPOD 7018","FM-15","4","30.31","79","84","","","","","84","","","","","","VRB","","3","","","","","","","","","","","","","","","","","","","","","","","","","","","","","","","","","","","","","","","","","","","","","","","","","","","","","","","","","","","","","","","","","","","","","","","","","","","","","","","","","","","","","","","","","","","MET069MOBOB0 METAR 7018 //000 000000 141414Z AUTO VRB03KT //// 29/26 A3031=","","","","","","","","","",""
"00701899999","2013-07-14T14:29:00","0.0","0.0","7018.0","WXPOD 7018","FM-15","4","30.31","79","84","","","","","84","","","","","","VRB","","5","","","","","","","","","","","","","","","","","","","","","","","","","","","","","","","","","","","","","","","","","","","","","","","","","","","","","","","","","","","","","","","","","","","","","","","","","","","","","","","","","","","","","","","","","","","MET069MOBOB0 METAR 7018 //000 000000 141429Z AUTO VRB04KT //// 29/26 A3031=","","","","","","","","","",""
"00701899999","2013-07-14T14:44:00","0.0","0.0","7018.0","WXPOD 7018","FM-15","4","30.32","79","82","","","","","89","","","","","","VRB","","3","","","","","","","","","","","","","","","","","","","","","","","","","","","","","","","","","","","","","","","","","","","","","","","","","","","","","","","","","","","","","","","","","","","","","","","","","","","","","","","","","","","","","","","","","","","MET069MOBOB0 METAR 7018 //000 000000 141444Z AUTO VRB03KT //// 28/26 A3032=","","","","","","","","","",""
"00701899999","2013-07-14T14:59:00","0.0","0.0","7018.0","WXPOD 7018","FM-15","4","30.32","79","84","","","","","84","","","","","","VRB","","5","","","","","","","","","","","","","","","","","","","","","","","","","","","","","","","","","","","","","","","","","","","","","","","","","","","","","","","","","","","","","","","","","","","","","","","","","","","","","","","","","","","","","","","","","","","MET069MOBOB0 METAR 7018 //000 000000 141459Z AUTO VRB04KT //// 29/26 A3032=","","","","","","","","","",""
"00701899999","2013-07-14T15:14:00","0.0","0.0","7018.0","WXPOD 7018","FM-15","4","30.33","79","84","","","","","84","","","","","","VRB","","6","","","","","","","","","","","","","","","","","","","","","","","","","","","","","","","","","","","","","","","","","","","","","","","","","","","","","","","","","","","","","","","","","","","","","","","","","","","","","","","","","","","","","","","","","","","MET069MOBOB0 METAR 7018 //000 000000 141514Z AUTO VRB05KT //// 29/26 A3033=","","","","","","","","","",""
"00701899999","2013-07-14T15:29:00","0.0","0.0","7018.0","WXPOD 7018","FM-15","4","30.32","81","86","","","","","84","","","","","","VRB","","5","","","","","","","","","","","","","","","","","","","","","","","","","","","","","","","","","","","","","","","","","","","","","","","","","","","","","","","","","","","","","","","","","","","","","","","","","","","","","","","","","","","","","","","","","","","MET069MOBOB0 METAR 7018 //000 000000 141529Z AUTO VRB04KT //// 30/27 A3032=","","","","","","","","","",""
"00701899999","2013-07-14T15:44:00","0.0","0.0","7018.0","WXPOD 7018","FM-15","4","30.32","79","84","","","","","84","","","","","","VRB","","5","","","","","","","","","","","","","","","","","","","","","","","","","","","","","","","","","","","","","","","","","","","","","","","","","","","","","","","","","","","","","","","","","","","","","","","","","","","","","","","","","","","","","","","","","","","MET069MOBOB0 METAR 7018 //000 000000 141544Z AUTO VRB04KT //// 29/26 A3032=","","","","","","","","","",""
"00701899999","2013-07-14T15:59:00","0.0","0.0","7018.0","WXPOD 7018","FM-15","4","30.32","79","84","","","","","84","","","","","","VRB","","5","","","","","","","","","","","","","","","","","","","","","","","","","","","","","","","","","","","","","","","","","","","","","","","","","","","","","","","","","","","","","","","","","","","","","","","","","","","","","","","","","","","","","","","","","","","MET069MOBOB0 METAR 7018 //000 000000 141559Z AUTO VRB04KT //// 29/26 A3032=","","","","","","","","","",""
"00701899999","2013-07-14T16:14:00","0.0","0.0","7018.0","WXPOD 7018","FM-15","4","30.32","79","86","","","","","79","","","","","","VRB","","5","","","","","","","","","","","","","","","","","","","","","","","","","","","","","","","","","","","","","","","","","","","","","","","","","","","","","","","","","","","","","","","","","","","","","","","","","","","","","","","","","","","","","","","","","","","MET069MOBOB0 METAR 7018 //000 000000 141614Z AUTO VRB04KT //// 30/26 A3032=","","","","","","","","","",""
"00701899999","2013-07-14T16:29:00","0.0","0.0","7018.0","WXPOD 7018","FM-15","4","30.32","79","84","","","","","84","","","","","","VRB","","5","","","","","","","","","","","","","","","","","","","","","","","","","","","","","","","","","","","","","","","","","","","","","","","","","","","","","","","","","","","","","","","","","","","","","","","","","","","","","","","","","","","","","","","","","","","MET069MOBOB0 METAR 7018 //000 000000 141629Z AUTO VRB04KT //// 29/26 A3032=","","","","","","","","","",""
"00701899999","2013-07-14T16:44:00","0.0","0.0","7018.0","WXPOD 7018","FM-15","4","30.32","79","86","","","","","79","","","","","","VRB","","3","","","","","","","","","","","","","","","","","","","","","","","","","","","","","","","","","","","","","","","","","","","","","","","","","","","","","","","","","","","","","","","","","","","","","","","","","","","","","","","","","","","","","","","","","","","MET069MOBOB0 METAR 7018 //000 000000 141644Z AUTO VRB03KT //// 30/26 A3032=","","","","","","","","","",""
"00701899999","2013-07-14T16:59:00","0.0","0.0","7018.0","WXPOD 7018","FM-15","4","30.32","79","86","","","","","79","","","","","","VRB","","3","","","","","","","","","","","","","","","","","","","","","","","","","","","","","","","","","","","","","","","","","","","","","","","","","","","","","","","","","","","","","","","","","","","","","","","","","","","","","","","","","","","","","","","","","","","MET069MOBOB0 METAR 7018 //000 000000 141659Z AUTO VRB03KT //// 30/26 A3032=","","","","","","","","","",""
"00701899999","2013-07-14T17:14:00","0.0","0.0","7018.0","WXPOD 7018","FM-15","4","30.32","79","84","","","","","84","","","","","","VRB","","2","","","","","","","","","","","","","","","","","","","","","","","","","","","","","","","","","","","","","","","","","","","","","","","","","","","","","","","","","","","","","","","","","","","","","","","","","","","","","","","","","","","","","","","","","","","MET069MOBOB0 METAR 7018 //000 000000 141714Z AUTO VRB02KT //// 29/26 A3032=","","","","","","","","","",""
"00701899999","2013-07-14T17:29:00","0.0","0.0","7018.0","WXPOD 7018","FM-15","4","30.32","79","86","","","","","79","","","","","","VRB","","2","","","","","","","","","","","","","","","","","","","","","","","","","","","","","","","","","","","","","","","","","","","","","","","","","","","","","","","","","","","","","","","","","","","","","","","","","","","","","","","","","","","","","","","","","","","MET069MOBOB0 METAR 7018 //000 000000 141729Z AUTO VRB02KT //// 30/26 A3032=","","","","","","","","","",""
"00701899999","2013-07-14T17:44:00","0.0","0.0","7018.0","WXPOD 7018","FM-15","4","30.31","81","88","","","","","79","","","","","","VRB","","2","","","","","","","","","","","","","","","","","","","","","","","","","","","","","","","","","","","","","","","","","","","","","","","","","","","","","","","","","","","","","","","","","","","","","","","","","","","","","","","","","","","","","","","","","","","MET069MOBOB0 METAR 7018 //000 000000 141744Z AUTO VRB02KT //// 31/27 A3031=","","","","","","","","","",""
"00701899999","2013-07-14T17:59:00","0.0","0.0","7018.0","WXPOD 7018","FM-15","4","30.31","79","86","","","","","79","","","","","","VRB","","2","","","","","","","","","","","","","","","","","","","","","","","","","","","","","","","","","","","","","","","","","","","","","","","","","","","","","","","","","","","","","","","","","","","","","","","","","","","","","","","","","","","","","","","","","","","MET069MOBOB0 METAR 7018 //000 000000 141759Z AUTO VRB02KT //// 30/26 A3031=","","","","","","","","","",""
"00701899999","2013-07-14T18:14:00","0.0","0.0","7018.0","WXPOD 7018","FM-15","4","30.31","79","86","","","","","79","","","","","","VRB","","2","","","","","","","","","","","","","","","","","","","","","","","","","","","","","","","","","","","","","","","","","","","","","","","","","","","","","","","","","","","","","","","","","","","","","","","","","","","","","","","","","","","","","","","","","","","MET069MOBOB0 METAR 7018 //000 000000 141814Z AUTO VRB02KT //// 30/26 A3031=","","","","","","","","","",""
"00701899999","2013-07-14T18:29:00","0.0","0.0","7018.0","WXPOD 7018","FM-15","4","30.30","79","84","","","","","84","","","","","","VRB","","3","","","","","","","","","","","","","","","","","","","","","","","","","","","","","","","","","","","","","","","","","","","","","","","","","","","","","","","","","","","","","","","","","","","","","","","","","","","","","","","","","","","","","","","","","","","MET069MOBOB0 METAR 7018 //000 000000 141829Z AUTO VRB03KT //// 29/26 A3030=","","","","","","","","","",""
"00701899999","2013-07-14T18:44:00","0.0","0.0","7018.0","WXPOD 7018","FM-15","4","30.30","79","84","","","","","84","","","","","","VRB","","3","","","","","","","","","","","","","","","","","","","","","","","","","","","","","","","","","","","","","","","","","","","","","","","","","","","","","","","","","","","","","","","","","","","","","","","","","","","","","","","","","","","","","","","","","","","MET069MOBOB0 METAR 7018 //000 000000 141844Z AUTO VRB03KT //// 29/26 A3030=","","","","","","","","","",""
"00701899999","2013-07-14T18:59:00","0.0","0.0","7018.0","WXPOD 7018","FM-15","4","30.30","79","84","","","","","84","","","","","","VRB","","3","","","","","","","","","","","","","","","","","","","","","","","","","","","","","","","","","","","","","","","","","","","","","","","","","","","","","","","","","","","","","","","","","","","","","","","","","","","","","","","","","","","","","","","","","","","MET069MOBOB0 METAR 7018 //000 000000 141859Z AUTO VRB03KT //// 29/26 A3030=","","","","","","","","","",""
"00701899999","2013-07-14T19:14:00","0.0","0.0","7018.0","WXPOD 7018","FM-15","4","30.30","79","84","","","","","84","","","","","","VRB","","2","","","","","","","","","","","","","","","","","","","","","","","","","","","","","","","","","","","","","","","","","","","","","","","","","","","","","","","","","","","","","","","","","","","","","","","","","","","","","","","","","","","","","","","","","","","MET069MOBOB0 METAR 7018 //000 000000 141914Z AUTO VRB02KT //// 29/26 A3030=","","","","","","","","","",""
"00701899999","2013-07-14T19:29:00","0.0","0.0","7018.0","WXPOD 7018","FM-15","4","30.30","81","86","","","","","84","","","","","","VRB","","2","","","","","","","","","","","","","","","","","","","","","","","","","","","","","","","","","","","","","","","","","","","","","","","","","","","","","","","","","","","","","","","","","","","","","","","","","","","","","","","","","","","","","","","","","","","MET069MOBOB0 METAR 7018 //000 000000 141929Z AUTO VRB02KT //// 30/27 A3030=","","","","","","","","","",""
"00701899999","2013-07-14T19:44:00","0.0","0.0","7018.0","WXPOD 7018","FM-15","4","30.29","79","84","","","","","84","","","","","","VRB","","2","","","","","","","","","","","","","","","","","","","","","","","","","","","","","","","","","","","","","","","","","","","","","","","","","","","","","","","","","","","","","","","","","","","","","","","","","","","","","","","","","","","","","","","","","","","MET069MOBOB0 METAR 7018 //000 000000 141944Z AUTO VRB02KT //// 29/26 A3029=","","","","","","","","","",""
"00701899999","2013-07-14T19:59:00","0.0","0.0","7018.0","WXPOD 7018","FM-15","4","30.29","79","84","","","","","84","","","","","","VRB","","2","","","","","","","","","","","","","","","","","","","","","","","","","","","","","","","","","","","","","","","","","","","","","","","","","","","","","","","","","","","","","","","","","","","","","","","","","","","","","","","","","","","","","","","","","","","MET069MOBOB0 METAR 7018 //000 000000 141959Z AUTO VRB02KT //// 29/26 A3029=","","","","","","","","","",""
"00701899999","2013-07-14T20:14:00","0.0","0.0","7018.0","WXPOD 7018","FM-15","4","30.29","79","84","","","","","84","","","","","","VRB","","2","","","","","","","","","","","","","","","","","","","","","","","","","","","","","","","","","","","","","","","","","","","","","","","","","","","","","","","","","","","","","","","","","","","","","","","","","","","","","","","","","","","","","","","","","","","MET069MOBOB0 METAR 7018 //000 000000 142014Z AUTO VRB02KT //// 29/26 A3029=","","","","","","","","","",""
"00701899999","2013-07-14T20:29:00","0.0","0.0","7018.0","WXPOD 7018","FM-15","4","30.28","79","84","","","","","84","","","","","","VRB","","2","","","","","","","","","","","","","","","","","","","","","","","","","","","","","","","","","","","","","","","","","","","","","","","","","","","","","","","","","","","","","","","","","","","","","","","","","","","","","","","","","","","","","","","","","","","MET069MOBOB0 METAR 7018 //000 000000 142029Z AUTO VRB02KT //// 29/26 A3028=","","","","","","","","","",""
"00701899999","2013-07-14T20:44:00","0.0","0.0","7018.0","WXPOD 7018","FM-15","4","30.28","79","84","","","","","84","","","","","","VRB","","2","","","","","","","","","","","","","","","","","","","","","","","","","","","","","","","","","","","","","","","","","","","","","","","","","","","","","","","","","","","","","","","","","","","","","","","","","","","","","","","","","","","","","","","","","","","MET069MOBOB0 METAR 7018 //000 000000 142044Z AUTO VRB02KT //// 29/26 A3028=","","","","","","","","","",""
"00701899999","2013-07-14T20:59:00","0.0","0.0","7018.0","WXPOD 7018","FM-15","4","30.28","81","86","","","","","84","","","","","","VRB","","3","","","","","","","","","","","","","","","","","","","","","","","","","","","","","","","","","","","","","","","","","","","","","","","","","","","","","","","","","","","","","","","","","","","","","","","","","","","","","","","","","","","","","","","","","","","MET069MOBOB0 METAR 7018 //000 000000 142059Z AUTO VRB03KT //// 30/27 A3028=","","","","","","","","","",""
"00701899999","2013-07-14T21:14:00","0.0","0.0","7018.0","WXPOD 7018","FM-15","4","30.28","81","86","","","","","84","","","","","","VRB","","3","","","","","","","","","","","","","","","","","","","","","","","","","","","","","","","","","","","","","","","","","","","","","","","","","","","","","","","","","","","","","","","","","","","","","","","","","","","","","","","","","","","","","","","","","","","MET069MOBOB0 METAR 7018 //000 000000 142114Z AUTO VRB03KT //// 30/27 A3028=","","","","","","","","","",""
"00701899999","2013-07-14T21:29:00","0.0","0.0","7018.0","WXPOD 7018","FM-15","4","30.28","81","86","","","","","84","","","","","","VRB","","3","","","","","","","","","","","","","","","","","","","","","","","","","","","","","","","","","","","","","","","","","","","","","","","","","","","","","","","","","","","","","","","","","","","","","","","","","","","","","","","","","","","","","","","","","","","MET069MOBOB0 METAR 7018 //000 000000 142129Z AUTO VRB03KT //// 30/27 A3028=","","","","","","","","","",""
"00701899999","2013-07-14T21:44:00","0.0","0.0","7018.0","WXPOD 7018","FM-15","4","30.28","81","84","","","","","89","","","","","","VRB","","3","","","","","","","","","","","","","","","","","","","","","","","","","","","","","","","","","","","","","","","","","","","","","","","","","","","","","","","","","","","","","","","","","","","","","","","","","","","","","","","","","","","","","","","","","","","MET069MOBOB0 METAR 7018 //000 000000 142144Z AUTO VRB03KT //// 29/27 A3028=","","","","","","","","","",""
"00701899999","2013-07-14T21:59:00","0.0","0.0","7018.0","WXPOD 7018","FM-15","4","30.28","81","86","","","","","84","","","","","","VRB","","1","","","","","","","","","","","","","","","","","","","","","","","","","","","","","","","","","","","","","","","","","","","","","","","","","","","","","","","","","","","","","","","","","","","","","","","","","","","","","","","","","","","","","","","","","","","MET069MOBOB0 METAR 7018 //000 000000 142159Z AUTO VRB01KT //// 30/27 A3028=","","","","","","","","","",""
"00701899999","2013-07-14T22:14:00","0.0","0.0","7018.0","WXPOD 7018","FM-15","4","30.28","81","86","","","","","84","","","","","","VRB","","3","","","","","","","","","","","","","","","","","","","","","","","","","","","","","","","","","","","","","","","","","","","","","","","","","","","","","","","","","","","","","","","","","","","","","","","","","","","","","","","","","","","","","","","","","","","MET069MOBOB0 METAR 7018 //000 000000 142214Z AUTO VRB03KT //// 30/27 A3028=","","","","","","","","","",""
"00701899999","2013-07-14T22:29:00","0.0","0.0","7018.0","WXPOD 7018","FM-15","4","30.28","81","86","","","","","84","","","","","","050","","1","","","","","","","","","","","","","","","","","","","","","","","","","","","","","","","","","","","","","","","","","","","","","","","","","","","","","","","","","","","","","","","","","","","","","","","","","","","","","","","","","","","","","","","","","","","MET069MOBOB0 METAR 7018 //000 000000 142229Z AUTO 05001KT //// 30/27 A3028=","","","","","","","","","",""
"00701899999","2013-07-14T22:44:00","0.0","0.0","7018.0","WXPOD 7018","FM-15","4","30.28","79","82","","","","","89","","","","","","VRB","","2","","","","","","","","","","","","","","","","","","","","","","","","","","","","","","","","","","","","","","","","","","","","","","","","","","","","","","","","","","","","","","","","","","","","","","","","","","","","","","","","","","","","","","","","","","","MET069MOBOB0 METAR 7018 //000 000000 142244Z AUTO VRB02KT //// 28/26 A3028=","","","","","","","","","",""
"00701899999","2013-07-14T22:59:00","0.0","0.0","7018.0","WXPOD 7018","FM-15","4","30.28","79","81","","","","","94","","","","","","VRB","","1","","","","","","","","","","","","","","","","","","","","","","","","","","","","","","","","","","","","","","","","","","","","","","","","","","","","","","","","","","","","","","","","","","","","","","","","","","","","","","","","","","","","","","","","","","","MET069MOBOB0 METAR 7018 //000 000000 142259Z AUTO VRB01KT //// 27/26 A3028=","","","","","","","","","",""
"00701899999","2013-07-14T23:14:00","0.0","0.0","7018.0","WXPOD 7018","FM-15","4","30.28","79","82","","","","","89","","","","","","VRB","","2","","","","","","","","","","","","","","","","","","","","","","","","","","","","","","","","","","","","","","","","","","","","","","","","","","","","","","","","","","","","","","","","","","","","","","","","","","","","","","","","","","","","","","","","","","","MET069MOBOB0 METAR 7018 //000 000000 142314Z AUTO VRB02KT //// 28/26 A3028=","","","","","","","","","",""
"00701899999","2013-07-14T23:29:00","0.0","0.0","7018.0","WXPOD 7018","FM-15","4","30.28","79","81","","","","","94","","","","","","VRB","","2","","","","","","","","","","","","","","","","","","","","","","","","","","","","","","","","","","","","","","","","","","","","","","","","","","","","","","","","","","","","","","","","","","","","","","","","","","","","","","","","","","","","","","","","","","","MET069MOBOB0 METAR 7018 //000 000000 142329Z AUTO VRB02KT //// 27/26 A3028=","","","","","","","","","",""
"00701899999","2013-07-14T23:44:00","0.0","0.0","7018.0","WXPOD 7018","FM-15","4","30.28","79","81","","","","","94","","","","","","VRB","","2","","","","","","","","","","","","","","","","","","","","","","","","","","","","","","","","","","","","","","","","","","","","","","","","","","","","","","","","","","","","","","","","","","","","","","","","","","","","","","","","","","","","","","","","","","","MET069MOBOB0 METAR 7018 //000 000000 142344Z AUTO VRB02KT //// 27/26 A3028=","","","","","","","","","",""
"00701899999","2013-07-14T23:59:00","0.0","0.0","7018.0","WXPOD 7018","FM-15","4","30.29","79","79","","","","","100","","","","","","VRB","","2","","","","","","","","","","","","","","","","","","","","","","","","","","","","","","","","","","","","","","","","","","","","","","","","","","","","","","","","","","","","","","","","","","","","","","","","","","","","","","","","","","","","","","","","","","","MET069MOBOB0 METAR 7018 //000 000000 142359Z AUTO VRB02KT //// 26/26 A3029=","","","","","","","","","",""
"00701899999","2013-07-15T00:14:00","0.0","0.0","7018.0","WXPOD 7018","FM-15","4","30.29","79","79","","","","","100","","","","","","VRB","","1","","","","","","","","","","","","","","","","","","","","","","","","","","","","","","","","","","","","","","","","","","","","","","","","","","","","","","","","","","","","","","","","","","","","","","","","","","","","","","","","","","","","","","","","","","","MET069MOBOB0 METAR 7018 //000 000000 150014Z AUTO VRB01KT //// 26/26 A3029=","","","","","","","","","",""
"00701899999","2013-07-15T00:29:00","0.0","0.0","7018.0","WXPOD 7018","FM-15","4","30.29","79","79","","","","","100","","","","","","VRB","","2","","","","","","","","","","","","","","","","","","","","","","","","","","","","","","","","","","","","","","","","","","","","","","","","","","","","","","","","","","","","","","","","","","","","","","","","","","","","","","","","","","","","","","","","","","","MET069MOBOB0 METAR 7018 //000 000000 150029Z AUTO VRB02KT //// 26/26 A3029=","","","","","","","","","",""
"00701899999","2013-07-15T00:44:00","0.0","0.0","7018.0","WXPOD 7018","FM-15","4","30.29","79","79","","","","","100","","","","","","VRB","","2","","","","","","","","","","","","","","","","","","","","","","","","","","","","","","","","","","","","","","","","","","","","","","","","","","","","","","","","","","","","","","","","","","","","","","","","","","","","","","","","","","","","","","","","","","","MET069MOBOB0 METAR 7018 //000 000000 150044Z AUTO VRB02KT //// 26/26 A3029=","","","","","","","","","",""
"00701899999","2013-07-15T00:59:00","0.0","0.0","7018.0","WXPOD 7018","FM-15","4","30.29","79","79","","","","","100","","","","","","VRB","","2","","","","","","","","","","","","","","","","","","","","","","","","","","","","","","","","","","","","","","","","","","","","","","","","","","","","","","","","","","","","","","","","","","","","","","","","","","","","","","","","","","","","","","","","","","","MET069MOBOB0 METAR 7018 //000 000000 150059Z AUTO VRB02KT //// 26/26 A3029=","","","","","","","","","",""
"00701899999","2013-07-15T01:14:00","0.0","0.0","7018.0","WXPOD 7018","FM-15","4","30.29","79","79","","","","","100","","","","","","VRB","","1","","","","","","","","","","","","","","","","","","","","","","","","","","","","","","","","","","","","","","","","","","","","","","","","","","","","","","","","","","","","","","","","","","","","","","","","","","","","","","","","","","","","","","","","","","","MET069MOBOB0 METAR 7018 //000 000000 150114Z AUTO VRB01KT //// 26/26 A3029=","","","","","","","","","",""
"00701899999","2013-07-15T01:29:00","0.0","0.0","7018.0","WXPOD 7018","FM-15","4","30.29","79","79","","","","","100","","","","","","VRB","","2","","","","","","","","","","","","","","","","","","","","","","","","","","","","","","","","","","","","","","","","","","","","","","","","","","","","","","","","","","","","","","","","","","","","","","","","","","","","","","","","","","","","","","","","","","","MET069MOBOB0 METAR 7018 //000 000000 150129Z AUTO VRB02KT //// 26/26 A3029=","","","","","","","","","",""
"00701899999","2013-07-15T01:44:00","0.0","0.0","7018.0","WXPOD 7018","FM-15","4","30.30","77","77","","","","","100","","","","","","VRB","","1","","","","","","","","","","","","","","","","","","","","","","","","","","","","","","","","","","","","","","","","","","","","","","","","","","","","","","","","","","","","","","","","","","","","","","","","","","","","","","","","","","","","","","","","","","","MET069MOBOB0 METAR 7018 //000 000000 150144Z AUTO VRB01KT //// 25/25 A3030=","","","","","","","","","",""
"00701899999","2013-07-15T01:59:00","0.0","0.0","7018.0","WXPOD 7018","FM-15","4","30.30","77","77","","","","","100","","","","","","VRB","","2","","","","","","","","","","","","","","","","","","","","","","","","","","","","","","","","","","","","","","","","","","","","","","","","","","","","","","","","","","","","","","","","","","","","","","","","","","","","","","","","","","","","","","","","","","","MET069MOBOB0 METAR 7018 //000 000000 150159Z AUTO VRB02KT //// 25/25 A3030=","","","","","","","","","",""
"00701899999","2013-07-15T02:14:00","0.0","0.0","7018.0","WXPOD 7018","FM-15","4","30.30","79","79","","","","","100","","","","","","000","","0","","","","","","","","","","","","","","","","","","","","","","","","","","","","","","","","","","","","","","","","","","","","","","","","","","","","","","","","","","","","","","","","","","","","","","","","","","","","","","","","","","","","","","","","","","","MET069MOBOB0 METAR 7018 //000 000000 150214Z AUTO 00000KT //// 26/26 A3030=","","","","","","","","","",""
"00701899999","2013-07-15T02:29:00","0.0","0.0","7018.0","WXPOD 7018","FM-15","4","30.30","77","77","","","","","100","","","","","","330","","1","","","","","","","","","","","","","","","","","","","","","","","","","","","","","","","","","","","","","","","","","","","","","","","","","","","","","","","","","","","","","","","","","","","","","","","","","","","","","","","","","","","","","","","","","","","MET069MOBOB0 METAR 7018 //000 000000 150229Z AUTO 33001KT //// 25/25 A3030=","","","","","","","","","",""
"00701899999","2013-07-15T02:44:00","0.0","0.0","7018.0","WXPOD 7018","FM-15","4","30.30","77","77","","","","","100","","","","","","VRB","","1","","","","","","","","","","","","","","","","","","","","","","","","","","","","","","","","","","","","","","","","","","","","","","","","","","","","","","","","","","","","","","","","","","","","","","","","","","","","","","","","","","","","","","","","","","","MET069MOBOB0 METAR 7018 //000 000000 150244Z AUTO VRB01KT //// 25/25 A3030=","","","","","","","","","",""
"00701899999","2013-07-15T02:59:00","0.0","0.0","7018.0","WXPOD 7018","FM-15","4","30.30","77","77","","","","","100","","","","","","VRB","","2","","","","","","","","","","","","","","","","","","","","","","","","","","","","","","","","","","","","","","","","","","","","","","","","","","","","","","","","","","","","","","","","","","","","","","","","","","","","","","","","","","","","","","","","","","","MET069MOBOB0 METAR 7018 //000 000000 150259Z AUTO VRB02KT //// 25/25 A3030=","","","","","","","","","",""
"00701899999","2013-07-15T03:14:00","0.0","0.0","7018.0","WXPOD 7018","FM-15","4","30.30","77","77","","","","","100","","","","","","VRB","","2","","","","","","","","","","","","","","","","","","","","","","","","","","","","","","","","","","","","","","","","","","","","","","","","","","","","","","","","","","","","","","","","","","","","","","","","","","","","","","","","","","","","","","","","","","","MET069MOBOB0 METAR 7018 //000 000000 150314Z AUTO VRB02KT //// 25/25 A3030=","","","","","","","","","",""
"00701899999","2013-07-15T03:29:00","0.0","0.0","7018.0","WXPOD 7018","FM-15","4","30.30","77","77","","","","","100","","","","","","VRB","","1","","","","","","","","","","","","","","","","","","","","","","","","","","","","","","","","","","","","","","","","","","","","","","","","","","","","","","","","","","","","","","","","","","","","","","","","","","","","","","","","","","","","","","","","","","","MET069MOBOB0 METAR 7018 //000 000000 150329Z AUTO VRB01KT //// 25/25 A3030=","","","","","","","","","",""
"00701899999","2013-07-15T03:44:00","0.0","0.0","7018.0","WXPOD 7018","FM-15","4","30.30","77","77","","","","","100","","","","","","VRB","","2","","","","","","","","","","","","","","","","","","","","","","","","","","","","","","","","","","","","","","","","","","","","","","","","","","","","","","","","","","","","","","","","","","","","","","","","","","","","","","","","","","","","","","","","","","","MET069MOBOB0 METAR 7018 //000 000000 150344Z AUTO VRB02KT //// 25/25 A3030=","","","","","","","","","",""
"00701899999","2013-07-15T03:59:00","0.0","0.0","7018.0","WXPOD 7018","FM-15","4","30.29","77","77","","","","","100","","","","","","000","","0","","","","","","","","","","","","","","","","","","","","","","","","","","","","","","","","","","","","","","","","","","","","","","","","","","","","","","","","","","","","","","","","","","","","","","","","","","","","","","","","","","","","","","","","","","","MET069MOBOB0 METAR 7018 //000 000000 150359Z AUTO 00000KT //// 25/25 A3029=","","","","","","","","","",""
"00701899999","2013-07-15T04:14:00","0.0","0.0","7018.0","WXPOD 7018","FM-15","4","30.29","77","77","","","","","100","","","","","","010","","1","","","","","","","","","","","","","","","","","","","","","","","","","","","","","","","","","","","","","","","","","","","","","","","","","","","","","","","","","","","","","","","","","","","","","","","","","","","","","","","","","","","","","","","","","","","MET069MOBOB0 METAR 7018 //000 000000 150414Z AUTO 01001KT //// 25/25 A3029=","","","","","","","","","",""
"00701899999","2013-07-15T04:29:00","0.0","0.0","7018.0","WXPOD 7018","FM-15","4","30.29","77","77","","","","","100","","","","","","VRB","","1","","","","","","","","","","","","","","","","","","","","","","","","","","","","","","","","","","","","","","","","","","","","","","","","","","","","","","","","","","","","","","","","","","","","","","","","","","","","","","","","","","","","","","","","","","","MET069MOBOB0 METAR 7018 //000 000000 150429Z AUTO VRB01KT //// 25/25 A3029=","","","","","","","","","",""
"00701899999","2013-07-15T04:44:00","0.0","0.0","7018.0","WXPOD 7018","FM-15","4","30.29","77","77","","","","","100","","","","","","340","","1","","","","","","","","","","","","","","","","","","","","","","","","","","","","","","","","","","","","","","","","","","","","","","","","","","","","","","","","","","","","","","","","","","","","","","","","","","","","","","","","","","","","","","","","","","","MET069MOBOB0 METAR 7018 //000 000000 150444Z AUTO 34001KT //// 25/25 A3029=","","","","","","","","","",""
"00701899999","2013-07-15T04:59:00","0.0","0.0","7018.0","WXPOD 7018","FM-15","4","30.29","77","77","","","","","100","","","","","","070","","1","","","","","","","","","","","","","","","","","","","","","","","","","","","","","","","","","","","","","","","","","","","","","","","","","","","","","","","","","","","","","","","","","","","","","","","","","","","","","","","","","","","","","","","","","","","MET069MOBOB0 METAR 7018 //000 000000 150459Z AUTO 07001KT //// 25/25 A3029=","","","","","","","","","",""
"00701899999","2013-07-15T05:14:00","0.0","0.0","7018.0","WXPOD 7018","FM-15","4","30.29","77","77","","","","","100","","","","","","VRB","","1","","","","","","","","","","","","","","","","","","","","","","","","","","","","","","","","","","","","","","","","","","","","","","","","","","","","","","","","","","","","","","","","","","","","","","","","","","","","","","","","","","","","","","","","","","","MET069MOBOB0 METAR 7018 //000 000000 150514Z AUTO VRB01KT //// 25/25 A3029=","","","","","","","","","",""
"00701899999","2013-07-15T05:29:00","0.0","0.0","7018.0","WXPOD 7018","FM-15","4","30.28","77","77","","","","","100","","","","","","VRB","","1","","","","","","","","","","","","","","","","","","","","","","","","","","","","","","","","","","","","","","","","","","","","","","","","","","","","","","","","","","","","","","","","","","","","","","","","","","","","","","","","","","","","","","","","","","","MET069MOBOB0 METAR 7018 //000 000000 150529Z AUTO VRB01KT //// 25/25 A3028=","","","","","","","","","",""
"00701899999","2013-07-15T05:44:00","0.0","0.0","7018.0","WXPOD 7018","FM-15","4","30.28","75","75","","","","","100","","","","","","VRB","","1","","","","","","","","","","","","","","","","","","","","","","","","","","","","","","","","","","","","","","","","","","","","","","","","","","","","","","","","","","","","","","","","","","","","","","","","","","","","","","","","","","","","","","","","","","","MET069MOBOB0 METAR 7018 //000 000000 150544Z AUTO VRB01KT //// 24/24 A3028=","","","","","","","","","",""
"00701899999","2013-07-15T05:59:00","0.0","0.0","7018.0","WXPOD 7018","FM-15","4","30.28","75","75","","","","","100","","","","","","VRB","","1","","","","","","","","","","","","","","","","","","","","","","","","","","","","","","","","","","","","","","","","","","","","","","","","","","","","","","","","","","","","","","","","","","","","","","","","","","","","","","","","","","","","","","","","","","","MET069MOBOB0 METAR 7018 //000 000000 150559Z AUTO VRB01KT //// 24/24 A3028=","","","","","","","","","",""
"00701899999","2013-07-15T06:14:00","0.0","0.0","7018.0","WXPOD 7018","FM-15","4","30.28","77","77","","","","","100","","","","","","VRB","","2","","","","","","","","","","","","","","","","","","","","","","","","","","","","","","","","","","","","","","","","","","","","","","","","","","","","","","","","","","","","","","","","","","","","","","","","","","","","","","","","","","","","","","","","","","","MET069MOBOB0 METAR 7018 //000 000000 150614Z AUTO VRB02KT //// 25/25 A3028=","","","","","","","","","",""
"00701899999","2013-07-15T06:29:00","0.0","0.0","7018.0","WXPOD 7018","FM-15","4","30.27","75","75","","","","","100","","","","","","VRB","","2","","","","","","","","","","","","","","","","","","","","","","","","","","","","","","","","","","","","","","","","","","","","","","","","","","","","","","","","","","","","","","","","","","","","","","","","","","","","","","","","","","","","","","","","","","","MET069MOBOB0 METAR 7018 //000 000000 150629Z AUTO VRB02KT //// 24/24 A3027=","","","","","","","","","",""
"00701899999","2013-07-15T06:44:00","0.0","0.0","7018.0","WXPOD 7018","FM-15","4","30.28","75","75","","","","","100","","","","","","VRB","","1","","","","","","","","","","","","","","","","","","","","","","","","","","","","","","","","","","","","","","","","","","","","","","","","","","","","","","","","","","","","","","","","","","","","","","","","","","","","","","","","","","","","","","","","","","","MET069MOBOB0 METAR 7018 //000 000000 150644Z AUTO VRB01KT //// 24/24 A3028=","","","","","","","","","",""
"00701899999","2013-07-15T06:59:00","0.0","0.0","7018.0","WXPOD 7018","FM-15","4","30.28","75","75","","","","","100","","","","","","350","","1","","","","","","","","","","","","","","","","","","","","","","","","","","","","","","","","","","","","","","","","","","","","","","","","","","","","","","","","","","","","","","","","","","","","","","","","","","","","","","","","","","","","","","","","","","","MET069MOBOB0 METAR 7018 //000 000000 150659Z AUTO 35001KT //// 24/24 A3028=","","","","","","","","","",""
"00701899999","2013-07-15T07:14:00","0.0","0.0","7018.0","WXPOD 7018","FM-15","4","30.28","75","75","","","","","100","","","","","","VRB","","2","","","","","","","","","","","","","","","","","","","","","","","","","","","","","","","","","","","","","","","","","","","","","","","","","","","","","","","","","","","","","","","","","","","","","","","","","","","","","","","","","","","","","","","","","","","MET069MOBOB0 METAR 7018 //000 000000 150714Z AUTO VRB02KT //// 24/24 A3028=","","","","","","","","","",""
"00701899999","2013-07-15T07:29:00","0.0","0.0","7018.0","WXPOD 7018","FM-15","4","30.28","73","73","","","","","100","","","","","","VRB","","2","","","","","","","","","","","","","","","","","","","","","","","","","","","","","","","","","","","","","","","","","","","","","","","","","","","","","","","","","","","","","","","","","","","","","","","","","","","","","","","","","","","","","","","","","","","MET069MOBOB0 METAR 7018 //000 000000 150729Z AUTO VRB02KT //// 23/23 A3028=","","","","","","","","","",""
"00701899999","2013-07-15T07:44:00","0.0","0.0","7018.0","WXPOD 7018","FM-15","4","30.28","75","75","","","","","100","","","","","","VRB","","2","","","","","","","","","","","","","","","","","","","","","","","","","","","","","","","","","","","","","","","","","","","","","","","","","","","","","","","","","","","","","","","","","","","","","","","","","","","","","","","","","","","","","","","","","","","MET069MOBOB0 METAR 7018 //000 000000 150744Z AUTO VRB02KT //// 24/24 A3028=","","","","","","","","","",""
"00701899999","2013-07-15T07:59:00","0.0","0.0","7018.0","WXPOD 7018","FM-15","4","30.28","75","75","","","","","100","","","","","","VRB","","2","","","","","","","","","","","","","","","","","","","","","","","","","","","","","","","","","","","","","","","","","","","","","","","","","","","","","","","","","","","","","","","","","","","","","","","","","","","","","","","","","","","","","","","","","","","MET069MOBOB0 METAR 7018 //000 000000 150759Z AUTO VRB02KT //// 24/24 A3028=","","","","","","","","","",""
"00701899999","2013-07-15T08:14:00","0.0","0.0","7018.0","WXPOD 7018","FM-15","4","30.28","75","75","","","","","100","","","","","","VRB","","2","","","","","","","","","","","","","","","","","","","","","","","","","","","","","","","","","","","","","","","","","","","","","","","","","","","","","","","","","","","","","","","","","","","","","","","","","","","","","","","","","","","","","","","","","","","MET069MOBOB0 METAR 7018 //000 000000 150814Z AUTO VRB02KT //// 24/24 A3028=","","","","","","","","","",""
"00701899999","2013-07-15T08:29:00","0.0","0.0","7018.0","WXPOD 7018","FM-15","4","30.28","75","75","","","","","100","","","","","","VRB","","2","","","","","","","","","","","","","","","","","","","","","","","","","","","","","","","","","","","","","","","","","","","","","","","","","","","","","","","","","","","","","","","","","","","","","","","","","","","","","","","","","","","","","","","","","","","MET069MOBOB0 METAR 7018 //000 000000 150829Z AUTO VRB02KT //// 24/24 A3028=","","","","","","","","","",""
"00701899999","2013-07-15T08:44:00","0.0","0.0","7018.0","WXPOD 7018","FM-15","4","30.28","75","75","","","","","100","","","","","","VRB","","2","","","","","","","","","","","","","","","","","","","","","","","","","","","","","","","","","","","","","","","","","","","","","","","","","","","","","","","","","","","","","","","","","","","","","","","","","","","","","","","","","","","","","","","","","","","MET069MOBOB0 METAR 7018 //000 000000 150844Z AUTO VRB02KT //// 24/24 A3028=","","","","","","","","","",""
"00701899999","2013-07-15T08:59:00","0.0","0.0","7018.0","WXPOD 7018","FM-15","4","30.28","75","75","","","","","100","","","","","","VRB","","1","","","","","","","","","","","","","","","","","","","","","","","","","","","","","","","","","","","","","","","","","","","","","","","","","","","","","","","","","","","","","","","","","","","","","","","","","","","","","","","","","","","","","","","","","","","MET069MOBOB0 METAR 7018 //000 000000 150859Z AUTO VRB01KT //// 24/24 A3028=","","","","","","","","","",""
"00701899999","2013-07-15T09:14:00","0.0","0.0","7018.0","WXPOD 7018","FM-15","4","30.28","75","75","","","","","100","","","","","","VRB","","2","","","","","","","","","","","","","","","","","","","","","","","","","","","","","","","","","","","","","","","","","","","","","","","","","","","","","","","","","","","","","","","","","","","","","","","","","","","","","","","","","","","","","","","","","","","MET069MOBOB0 METAR 7018 //000 000000 150914Z AUTO VRB02KT //// 24/24 A3028=","","","","","","","","","",""
"00701899999","2013-07-15T09:29:00","0.0","0.0","7018.0","WXPOD 7018","FM-15","4","30.28","75","75","","","","","100","","","","","","VRB","","2","","","","","","","","","","","","","","","","","","","","","","","","","","","","","","","","","","","","","","","","","","","","","","","","","","","","","","","","","","","","","","","","","","","","","","","","","","","","","","","","","","","","","","","","","","","MET069MOBOB0 METAR 7018 //000 000000 150929Z AUTO VRB02KT //// 24/24 A3028=","","","","","","","","","",""
"00701899999","2013-07-15T09:44:00","0.0","0.0","7018.0","WXPOD 7018","FM-15","4","30.29","75","75","","","","","100","","","","","","VRB","","3","","","","","","","","","","","","","","","","","","","","","","","","","","","","","","","","","","","","","","","","","","","","","","","","","","","","","","","","","","","","","","","","","","","","","","","","","","","","","","","","","","","","","","","","","","","MET069MOBOB0 METAR 7018 //000 000000 150944Z AUTO VRB03KT //// 24/24 A3029=","","","","","","","","","",""
"00701899999","2013-07-15T09:59:00","0.0","0.0","7018.0","WXPOD 7018","FM-15","4","30.29","75","75","","","","","100","","","","","","VRB","","2","","","","","","","","","","","","","","","","","","","","","","","","","","","","","","","","","","","","","","","","","","","","","","","","","","","","","","","","","","","","","","","","","","","","","","","","","","","","","","","","","","","","","","","","","","","MET069MOBOB0 METAR 7018 //000 000000 150959Z AUTO VRB02KT //// 24/24 A3029=","","","","","","","","","",""
"00701899999","2013-07-15T10:14:00","0.0","0.0","7018.0","WXPOD 7018","FM-15","4","30.29","75","75","","","","","100","","","","","","VRB","","2","","","","","","","","","","","","","","","","","","","","","","","","","","","","","","","","","","","","","","","","","","","","","","","","","","","","","","","","","","","","","","","","","","","","","","","","","","","","","","","","","","","","","","","","","","","MET069MOBOB0 METAR 7018 //000 000000 151014Z AUTO VRB02KT //// 24/24 A3029=","","","","","","","","","",""
"00701899999","2013-07-15T10:29:00","0.0","0.0","7018.0","WXPOD 7018","FM-15","4","30.29","75","75","","","","","100","","","","","","VRB","","3","","","","","","","","","","","","","","","","","","","","","","","","","","","","","","","","","","","","","","","","","","","","","","","","","","","","","","","","","","","","","","","","","","","","","","","","","","","","","","","","","","","","","","","","","","","MET069MOBOB0 METAR 7018 //000 000000 151029Z AUTO VRB03KT //// 24/24 A3029=","","","","","","","","","",""
"00701899999","2013-07-15T10:44:00","0.0","0.0","7018.0","WXPOD 7018","FM-15","4","30.29","75","75","","","","","100","","","","","","VRB","","2","","","","","","","","","","","","","","","","","","","","","","","","","","","","","","","","","","","","","","","","","","","","","","","","","","","","","","","","","","","","","","","","","","","","","","","","","","","","","","","","","","","","","","","","","","","MET069MOBOB0 METAR 7018 //000 000000 151044Z AUTO VRB02KT //// 24/24 A3029=","","","","","","","","","",""
"00701899999","2013-07-15T10:59:00","0.0","0.0","7018.0","WXPOD 7018","FM-15","4","30.30","77","77","","","","","100","","","","","","VRB","","2","","","","","","","","","","","","","","","","","","","","","","","","","","","","","","","","","","","","","","","","","","","","","","","","","","","","","","","","","","","","","","","","","","","","","","","","","","","","","","","","","","","","","","","","","","","MET069MOBOB0 METAR 7018 //000 000000 151059Z AUTO VRB02KT //// 25/25 A3030=","","","","","","","","","",""
"00701899999","2013-07-15T11:14:00","0.0","0.0","7018.0","WXPOD 7018","FM-15","4","30.30","79","79","","","","","100","","","","","","VRB","","3","","","","","","","","","","","","","","","","","","","","","","","","","","","","","","","","","","","","","","","","","","","","","","","","","","","","","","","","","","","","","","","","","","","","","","","","","","","","","","","","","","","","","","","","","","","MET069MOBOB0 METAR 7018 //000 000000 151114Z AUTO VRB03KT //// 26/26 A3030=","","","","","","","","","",""
"00701899999","2013-07-15T11:29:00","0.0","0.0","7018.0","WXPOD 7018","FM-15","4","30.30","79","81","","","","","94","","","","","","VRB","","1","","","","","","","","","","","","","","","","","","","","","","","","","","","","","","","","","","","","","","","","","","","","","","","","","","","","","","","","","","","","","","","","","","","","","","","","","","","","","","","","","","","","","","","","","","","MET069MOBOB0 METAR 7018 //000 000000 151129Z AUTO VRB01KT //// 27/26 A3030=","","","","","","","","","",""
"00701899999","2013-07-15T11:44:00","0.0","0.0","7018.0","WXPOD 7018","FM-15","4","30.30","79","81","","","","","94","","","","","","VRB","","3","","","","","","","","","","","","","","","","","","","","","","","","","","","","","","","","","","","","","","","","","","","","","","","","","","","","","","","","","","","","","","","","","","","","","","","","","","","","","","","","","","","","","","","","","","","MET069MOBOB0 METAR 7018 //000 000000 151144Z AUTO VRB03KT //// 27/26 A3030=","","","","","","","","","",""
"00701899999","2013-07-15T11:59:00","0.0","0.0","7018.0","WXPOD 7018","FM-15","4","30.31","79","81","","","","","94","","","","","","VRB","","2","","","","","","","","","","","","","","","","","","","","","","","","","","","","","","","","","","","","","","","","","","","","","","","","","","","","","","","","","","","","","","","","","","","","","","","","","","","","","","","","","","","","","","","","","","","MET069MOBOB0 METAR 7018 //000 000000 151159Z AUTO VRB02KT //// 27/26 A3031=","","","","","","","","","",""
"00701899999","2013-07-15T12:14:00","0.0","0.0","7018.0","WXPOD 7018","FM-15","4","30.31","79","81","","","","","94","","","","","","VRB","","3","","","","","","","","","","","","","","","","","","","","","","","","","","","","","","","","","","","","","","","","","","","","","","","","","","","","","","","","","","","","","","","","","","","","","","","","","","","","","","","","","","","","","","","","","","","MET069MOBOB0 METAR 7018 //000 000000 151214Z AUTO VRB03KT //// 27/26 A3031=","","","","","","","","","",""
"00701899999","2013-07-15T12:29:00","0.0","0.0","7018.0","WXPOD 7018","FM-15","4","30.31","79","81","","","","","94","","","","","","VRB","","3","","","","","","","","","","","","","","","","","","","","","","","","","","","","","","","","","","","","","","","","","","","","","","","","","","","","","","","","","","","","","","","","","","","","","","","","","","","","","","","","","","","","","","","","","","","MET069MOBOB0 METAR 7018 //000 000000 151229Z AUTO VRB03KT //// 27/26 A3031=","","","","","","","","","",""
"00701899999","2013-07-15T12:44:00","0.0","0.0","7018.0","WXPOD 7018","FM-15","4","30.31","79","82","","","","","89","","","","","","VRB","","5","","","","","","","","","","","","","","","","","","","","","","","","","","","","","","","","","","","","","","","","","","","","","","","","","","","","","","","","","","","","","","","","","","","","","","","","","","","","","","","","","","","","","","","","","","","MET069MOBOB0 METAR 7018 //000 000000 151244Z AUTO VRB04KT //// 28/26 A3031=","","","","","","","","","",""
"00701899999","2013-07-15T12:59:00","0.0","0.0","7018.0","WXPOD 7018","FM-15","4","30.31","79","82","","","","","89","","","","","","VRB","","5","","","","","","","","","","","","","","","","","","","","","","","","","","","","","","","","","","","","","","","","","","","","","","","","","","","","","","","","","","","","","","","","","","","","","","","","","","","","","","","","","","","","","","","","","","","MET069MOBOB0 METAR 7018 //000 000000 151259Z AUTO VRB04KT //// 28/26 A3031=","","","","","","","","","",""
"00701899999","2013-07-15T13:14:00","0.0","0.0","7018.0","WXPOD 7018","FM-15","4","30.31","79","82","","","","","89","","","","","","VRB","","3","","","","","","","","","","","","","","","","","","","","","","","","","","","","","","","","","","","","","","","","","","","","","","","","","","","","","","","","","","","","","","","","","","","","","","","","","","","","","","","","","","","","","","","","","","","MET069MOBOB0 METAR 7018 //000 000000 151314Z AUTO VRB03KT //// 28/26 A3031=","","","","","","","","","",""
"00701899999","2013-07-15T13:29:00","0.0","0.0","7018.0","WXPOD 7018","FM-15","4","30.31","79","82","","","","","89","","","","","","VRB","","5","","","","","","","","","","","","","","","","","","","","","","","","","","","","","","","","","","","","","","","","","","","","","","","","","","","","","","","","","","","","","","","","","","","","","","","","","","","","","","","","","","","","","","","","","","","MET069MOBOB0 METAR 7018 //000 000000 151329Z AUTO VRB04KT //// 28/26 A3031=","","","","","","","","","",""
"00701899999","2013-07-15T13:44:00","0.0","0.0","7018.0","WXPOD 7018","FM-15","4","30.30","81","84","","","","","89","","","","","","VRB","","5","","","","","","","","","","","","","","","","","","","","","","","","","","","","","","","","","","","","","","","","","","","","","","","","","","","","","","","","","","","","","","","","","","","","","","","","","","","","","","","","","","","","","","","","","","","MET069MOBOB0 METAR 7018 //000 000000 151344Z AUTO VRB04KT //// 29/27 A3030=","","","","","","","","","",""
"00701899999","2013-07-15T13:59:00","0.0","0.0","7018.0","WXPOD 7018","FM-15","4","30.30","81","84","","","","","89","","","","","","VRB","","5","","","","","","","","","","","","","","","","","","","","","","","","","","","","","","","","","","","","","","","","","","","","","","","","","","","","","","","","","","","","","","","","","","","","","","","","","","","","","","","","","","","","","","","","","","","MET069MOBOB0 METAR 7018 //000 000000 151359Z AUTO VRB04KT //// 29/27 A3030=","","","","","","","","","",""
"00701899999","2013-07-15T14:14:00","0.0","0.0","7018.0","WXPOD 7018","FM-15","4","30.30","79","82","","","","","89","","","","","","VRB","","5","","","","","","","","","","","","","","","","","","","","","","","","","","","","","","","","","","","","","","","","","","","","","","","","","","","","","","","","","","","","","","","","","","","","","","","","","","","","","","","","","","","","","","","","","","","MET069MOBOB0 METAR 7018 //000 000000 151414Z AUTO VRB04KT //// 28/26 A3030=","","","","","","","","","",""
"00701899999","2013-07-15T14:29:00","0.0","0.0","7018.0","WXPOD 7018","FM-15","4","30.30","79","84","","","","","84","","","","","","VRB","","3","","","","","","","","","","","","","","","","","","","","","","","","","","","","","","","","","","","","","","","","","","","","","","","","","","","","","","","","","","","","","","","","","","","","","","","","","","","","","","","","","","","","","","","","","","","MET069MOBOB0 METAR 7018 //000 000000 151429Z AUTO VRB03KT //// 29/26 A3030=","","","","","","","","","",""
"00701899999","2013-07-15T14:44:00","0.0","0.0","7018.0","WXPOD 7018","FM-15","4","30.31","79","84","","","","","84","","","","","","VRB","","2","","","","","","","","","","","","","","","","","","","","","","","","","","","","","","","","","","","","","","","","","","","","","","","","","","","","","","","","","","","","","","","","","","","","","","","","","","","","","","","","","","","","","","","","","","","MET069MOBOB0 METAR 7018 //000 000000 151444Z AUTO VRB02KT //// 29/26 A3031=","","","","","","","","","",""
"00701899999","2013-07-15T14:59:00","0.0","0.0","7018.0","WXPOD 7018","FM-15","4","30.31","79","84","","","","","84","","","","","","VRB","","2","","","","","","","","","","","","","","","","","","","","","","","","","","","","","","","","","","","","","","","","","","","","","","","","","","","","","","","","","","","","","","","","","","","","","","","","","","","","","","","","","","","","","","","","","","","MET069MOBOB0 METAR 7018 //000 000000 151459Z AUTO VRB02KT //// 29/26 A3031=","","","","","","","","","",""
"00701899999","2013-07-15T15:14:00","0.0","0.0","7018.0","WXPOD 7018","FM-15","4","30.31","79","84","","","","","84","","","","","","VRB","","3","","","","","","","","","","","","","","","","","","","","","","","","","","","","","","","","","","","","","","","","","","","","","","","","","","","","","","","","","","","","","","","","","","","","","","","","","","","","","","","","","","","","","","","","","","","MET069MOBOB0 METAR 7018 //000 000000 151514Z AUTO VRB03KT //// 29/26 A3031=","","","","","","","","","",""
"00701899999","2013-07-15T15:29:00","0.0","0.0","7018.0","WXPOD 7018","FM-15","4","30.30","81","86","","","","","84","","","","","","VRB","","3","","","","","","","","","","","","","","","","","","","","","","","","","","","","","","","","","","","","","","","","","","","","","","","","","","","","","","","","","","","","","","","","","","","","","","","","","","","","","","","","","","","","","","","","","","","MET069MOBOB0 METAR 7018 //000 000000 151529Z AUTO VRB03KT //// 30/27 A3030=","","","","","","","","","",""
"00701899999","2013-07-15T15:44:00","0.0","0.0","7018.0","WXPOD 7018","FM-15","4","30.30","79","86","","","","","79","","","","","","VRB","","2","","","","","","","","","","","","","","","","","","","","","","","","","","","","","","","","","","","","","","","","","","","","","","","","","","","","","","","","","","","","","","","","","","","","","","","","","","","","","","","","","","","","","","","","","","","MET069MOBOB0 METAR 7018 //000 000000 151544Z AUTO VRB02KT //// 30/26 A3030=","","","","","","","","","",""
"00701899999","2013-07-15T15:59:00","0.0","0.0","7018.0","WXPOD 7018","FM-15","4","30.30","79","86","","","","","79","","","","","","VRB","","3","","","","","","","","","","","","","","","","","","","","","","","","","","","","","","","","","","","","","","","","","","","","","","","","","","","","","","","","","","","","","","","","","","","","","","","","","","","","","","","","","","","","","","","","","","","MET069MOBOB0 METAR 7018 //000 000000 151559Z AUTO VRB03KT //// 30/26 A3030=","","","","","","","","","",""
"00701899999","2013-07-15T16:14:00","0.0","0.0","7018.0","WXPOD 7018","FM-15","4","30.30","79","86","","","","","79","","","","","","VRB","","3","","","","","","","","","","","","","","","","","","","","","","","","","","","","","","","","","","","","","","","","","","","","","","","","","","","","","","","","","","","","","","","","","","","","","","","","","","","","","","","","","","","","","","","","","","","MET069MOBOB0 METAR 7018 //000 000000 151614Z AUTO VRB03KT //// 30/26 A3030=","","","","","","","","","",""
"00701899999","2013-07-15T16:29:00","0.0","0.0","7018.0","WXPOD 7018","FM-15","4","30.30","79","88","","","","","75","","","","","","VRB","","2","","","","","","","","","","","","","","","","","","","","","","","","","","","","","","","","","","","","","","","","","","","","","","","","","","","","","","","","","","","","","","","","","","","","","","","","","","","","","","","","","","","","","","","","","","","MET069MOBOB0 METAR 7018 //000 000000 151629Z AUTO VRB02KT //// 31/26 A3030=","","","","","","","","","",""
"00701899999","2013-07-15T16:44:00","0.0","0.0","7018.0","WXPOD 7018","FM-15","4","30.30","79","84","","","","","84","","","","","","VRB","","3","","","","","","","","","","","","","","","","","","","","","","","","","","","","","","","","","","","","","","","","","","","","","","","","","","","","","","","","","","","","","","","","","","","","","","","","","","","","","","","","","","","","","","","","","","","MET069MOBOB0 METAR 7018 //000 000000 151644Z AUTO VRB03KT //// 29/26 A3030=","","","","","","","","","",""
"00701899999","2013-07-15T16:59:00","0.0","0.0","7018.0","WXPOD 7018","FM-15","4","30.29","77","86","","","","","75","","","","","","VRB","","2","","","","","","","","","","","","","","","","","","","","","","","","","","","","","","","","","","","","","","","","","","","","","","","","","","","","","","","","","","","","","","","","","","","","","","","","","","","","","","","","","","","","","","","","","","","MET069MOBOB0 METAR 7018 //000 000000 151659Z AUTO VRB02KT //// 30/25 A3029=","","","","","","","","","",""
"00701899999","2013-07-15T17:14:00","0.0","0.0","7018.0","WXPOD 7018","FM-15","4","30.29","77","88","","","","","70","","","","","","VRB","","2","","","","","","","","","","","","","","","","","","","","","","","","","","","","","","","","","","","","","","","","","","","","","","","","","","","","","","","","","","","","","","","","","","","","","","","","","","","","","","","","","","","","","","","","","","","MET069MOBOB0 METAR 7018 //000 000000 151714Z AUTO VRB02KT //// 31/25 A3029=","","","","","","","","","",""
"00701899999","2013-07-15T17:29:00","0.0","0.0","7018.0","WXPOD 7018","FM-15","4","30.28","77","88","","","","","70","","","","","","VRB","","3","","","","","","","","","","","","","","","","","","","","","","","","","","","","","","","","","","","","","","","","","","","","","","","","","","","","","","","","","","","","","","","","","","","","","","","","","","","","","","","","","","","","","","","","","","","MET069MOBOB0 METAR 7018 //000 000000 151729Z AUTO VRB03KT //// 31/25 A3028=","","","","","","","","","",""
"00701899999","2013-07-15T17:44:00","0.0","0.0","7018.0","WXPOD 7018","FM-15","4","30.28","79","90","","","","","71","","","","","","VRB","","3","","","","","","","","","","","","","","","","","","","","","","","","","","","","","","","","","","","","","","","","","","","","","","","","","","","","","","","","","","","","","","","","","","","","","","","","","","","","","","","","","","","","","","","","","","","MET069MOBOB0 METAR 7018 //000 000000 151744Z AUTO VRB03KT //// 32/26 A3028=","","","","","","","","","",""
"00701899999","2013-07-15T17:59:00","0.0","0.0","7018.0","WXPOD 7018","FM-15","4","30.28","81","90","","","","","75","","","","","","040","","6","","","","","","","","","","","","","","","","","","","","","","","","","","","","","","","","","","","","","","","","","","","","","","","","","","","","","","","","","","","","","","","","","","","","","","","","","","","","","","","","","","","","","","","","","","","MET069MOBOB0 METAR 7018 //000 000000 151759Z AUTO 04005KT //// 32/27 A3028=","","","","","","","","","",""
"00701899999","2013-07-15T18:14:00","0.0","0.0","7018.0","WXPOD 7018","FM-15","4","30.27","79","88","","","","","75","","","","","","VRB","","3","","","","","","","","","","","","","","","","","","","","","","","","","","","","","","","","","","","","","","","","","","","","","","","","","","","","","","","","","","","","","","","","","","","","","","","","","","","","","","","","","","","","","","","","","","","MET069MOBOB0 METAR 7018 //000 000000 151814Z AUTO VRB03KT //// 31/26 A3027=","","","","","","","","","",""
"00701899999","2013-07-15T18:29:00","0.0","0.0","7018.0","WXPOD 7018","FM-15","4","30.27","79","90","","","","","71","","","","","","VRB","","2","","","","","","","","","","","","","","","","","","","","","","","","","","","","","","","","","","","","","","","","","","","","","","","","","","","","","","","","","","","","","","","","","","","","","","","","","","","","","","","","","","","","","","","","","","","MET069MOBOB0 METAR 7018 //000 000000 151829Z AUTO VRB02KT //// 32/26 A3027=","","","","","","","","","",""
"00701899999","2013-07-15T18:44:00","0.0","0.0","7018.0","WXPOD 7018","FM-15","4","30.27","79","84","","","","","84","","","","","","VRB","","2","","","","","","","","","","","","","","","","","","","","","","","","","","","","","","","","","","","","","","","","","","","","","","","","","","","","","","","","","","","","","","","","","","","","","","","","","","","","","","","","","","","","","","","","","","","MET069MOBOB0 METAR 7018 //000 000000 151844Z AUTO VRB02KT //// 29/26 A3027=","","","","","","","","","",""
"00701899999","2013-07-15T18:59:00","0.0","0.0","7018.0","WXPOD 7018","FM-15","4","30.27","77","86","","","","","75","","","","","","030","","1","","","","","","","","","","","","","","","","","","","","","","","","","","","","","","","","","","","","","","","","","","","","","","","","","","","","","","","","","","","","","","","","","","","","","","","","","","","","","","","","","","","","","","","","","","","MET069MOBOB0 METAR 7018 //000 000000 151859Z AUTO 03001KT //// 30/25 A3027=","","","","","","","","","",""
"00701899999","2013-07-15T19:14:00","0.0","0.0","7018.0","WXPOD 7018","FM-15","4","30.26","77","90","","","","","66","","","","","","VRB","","1","","","","","","","","","","","","","","","","","","","","","","","","","","","","","","","","","","","","","","","","","","","","","","","","","","","","","","","","","","","","","","","","","","","","","","","","","","","","","","","","","","","","","","","","","","","MET069MOBOB0 METAR 7018 //000 000000 151914Z AUTO VRB01KT //// 32/25 A3026=","","","","","","","","","",""
"00701899999","2013-07-15T19:29:00","0.0","0.0","7018.0","WXPOD 7018","FM-15","4","30.26","75","86","","","","","70","","","","","","VRB","","2","","","","","","","","","","","","","","","","","","","","","","","","","","","","","","","","","","","","","","","","","","","","","","","","","","","","","","","","","","","","","","","","","","","","","","","","","","","","","","","","","","","","","","","","","","","MET069MOBOB0 METAR 7018 //000 000000 151929Z AUTO VRB02KT //// 30/24 A3026=","","","","","","","","","",""
"00701899999","2013-07-15T19:44:00","0.0","0.0","7018.0","WXPOD 7018","FM-15","4","30.26","75","86","","","","","70","","","","","","VRB","","1","","","","","","","","","","","","","","","","","","","","","","","","","","","","","","","","","","","","","","","","","","","","","","","","","","","","","","","","","","","","","","","","","","","","","","","","","","","","","","","","","","","","","","","","","","","MET069MOBOB0 METAR 7018 //000 000000 151944Z AUTO VRB01KT //// 30/24 A3026=","","","","","","","","","",""
"00701899999","2013-07-15T19:59:00","0.0","0.0","7018.0","WXPOD 7018","FM-15","4","30.26","75","86","","","","","70","","","","","","VRB","","2","","","","","","","","","","","","","","","","","","","","","","","","","","","","","","","","","","","","","","","","","","","","","","","","","","","","","","","","","","","","","","","","","","","","","","","","","","","","","","","","","","","","","","","","","","","MET069MOBOB0 METAR 7018 //000 000000 151959Z AUTO VRB02KT //// 30/24 A3026=","","","","","","","","","",""
"00701899999","2013-07-15T20:14:00","0.0","0.0","7018.0","WXPOD 7018","FM-15","4","30.25","77","86","","","","","75","","","","","","VRB","","2","","","","","","","","","","","","","","","","","","","","","","","","","","","","","","","","","","","","","","","","","","","","","","","","","","","","","","","","","","","","","","","","","","","","","","","","","","","","","","","","","","","","","","","","","","","MET069MOBOB0 METAR 7018 //000 000000 152014Z AUTO VRB02KT //// 30/25 A3025=","","","","","","","","","",""
"00701899999","2013-07-15T20:29:00","0.0","0.0","7018.0","WXPOD 7018","FM-15","4","30.25","75","82","","","","","79","","","","","","VRB","","3","","","","","","","","","","","","","","","","","","","","","","","","","","","","","","","","","","","","","","","","","","","","","","","","","","","","","","","","","","","","","","","","","","","","","","","","","","","","","","","","","","","","","","","","","","","MET069MOBOB0 METAR 7018 //000 000000 152029Z AUTO VRB03KT //// 28/24 A3025=","","","","","","","","","",""
"00701899999","2013-07-15T20:44:00","0.0","0.0","7018.0","WXPOD 7018","FM-15","4","30.25","77","84","","","","","79","","","","","","VRB","","3","","","","","","","","","","","","","","","","","","","","","","","","","","","","","","","","","","","","","","","","","","","","","","","","","","","","","","","","","","","","","","","","","","","","","","","","","","","","","","","","","","","","","","","","","","","MET069MOBOB0 METAR 7018 //000 000000 152044Z AUTO VRB03KT //// 29/25 A3025=","","","","","","","","","",""
"00701899999","2013-07-15T20:59:00","0.0","0.0","7018.0","WXPOD 7018","FM-15","4","30.24","77","84","","","","","79","","","","","","VRB","","5","","","","","","","","","","","","","","","","","","","","","","","","","","","","","","","","","","","","","","","","","","","","","","","","","","","","","","","","","","","","","","","","","","","","","","","","","","","","","","","","","","","","","","","","","","","MET069MOBOB0 METAR 7018 //000 000000 152059Z AUTO VRB04KT //// 29/25 A3024=","","","","","","","","","",""
"00701899999","2013-07-15T21:14:00","0.0","0.0","7018.0","WXPOD 7018","FM-15","4","30.24","77","84","","","","","79","","","","","","VRB","","3","","","","","","","","","","","","","","","","","","","","","","","","","","","","","","","","","","","","","","","","","","","","","","","","","","","","","","","","","","","","","","","","","","","","","","","","","","","","","","","","","","","","","","","","","","","MET069MOBOB0 METAR 7018 //000 000000 152114Z AUTO VRB03KT //// 29/25 A3024=","","","","","","","","","",""
"00701899999","2013-07-15T21:29:00","0.0","0.0","7018.0","WXPOD 7018","FM-15","4","30.24","77","84","","","","","79","","","","","","VRB","","3","","","","","","","","","","","","","","","","","","","","","","","","","","","","","","","","","","","","","","","","","","","","","","","","","","","","","","","","","","","","","","","","","","","","","","","","","","","","","","","","","","","","","","","","","","","MET069MOBOB0 METAR 7018 //000 000000 152129Z AUTO VRB03KT //// 29/25 A3024=","","","","","","","","","",""
"00701899999","2013-07-15T21:44:00","0.0","0.0","7018.0","WXPOD 7018","FM-15","4","30.23","73","84","","","","","70","","","","","","VRB","","2","","","","","","","","","","","","","","","","","","","","","","","","","","","","","","","","","","","","","","","","","","","","","","","","","","","","","","","","","","","","","","","","","","","","","","","","","","","","","","","","","","","","","","","","","","","MET069MOBOB0 METAR 7018 //000 000000 152144Z AUTO VRB02KT //// 29/23 A3023=","","","","","","","","","",""
"00701899999","2013-07-15T21:59:00","0.0","0.0","7018.0","WXPOD 7018","FM-15","4","30.23","75","84","","","","","74","","","","","","VRB","","2","","","","","","","","","","","","","","","","","","","","","","","","","","","","","","","","","","","","","","","","","","","","","","","","","","","","","","","","","","","","","","","","","","","","","","","","","","","","","","","","","","","","","","","","","","","MET069MOBOB0 METAR 7018 //000 000000 152159Z AUTO VRB02KT //// 29/24 A3023=","","","","","","","","","",""
"00701899999","2013-07-15T22:14:00","0.0","0.0","7018.0","WXPOD 7018","FM-15","4","30.22","77","86","","","","","75","","","","","","VRB","","5","","","","","","","","","","","","","","","","","","","","","","","","","","","","","","","","","","","","","","","","","","","","","","","","","","","","","","","","","","","","","","","","","","","","","","","","","","","","","","","","","","","","","","","","","","","MET069MOBOB0 METAR 7018 //000 000000 152214Z AUTO VRB04KT //// 30/25 A3022=","","","","","","","","","",""
"00701899999","2013-07-15T22:29:00","0.0","0.0","7018.0","WXPOD 7018","FM-15","4","30.22","77","84","","","","","79","","","","","","VRB","","3","","","","","","","","","","","","","","","","","","","","","","","","","","","","","","","","","","","","","","","","","","","","","","","","","","","","","","","","","","","","","","","","","","","","","","","","","","","","","","","","","","","","","","","","","","","MET069MOBOB0 METAR 7018 //000 000000 152229Z AUTO VRB03KT //// 29/25 A3022=","","","","","","","","","",""
"00701899999","2013-07-15T22:44:00","0.0","0.0","7018.0","WXPOD 7018","FM-15","4","30.21","75","84","","","","","74","","","","","","VRB","","5","","","","","","","","","","","","","","","","","","","","","","","","","","","","","","","","","","","","","","","","","","","","","","","","","","","","","","","","","","","","","","","","","","","","","","","","","","","","","","","","","","","","","","","","","","","MET069MOBOB0 METAR 7018 //000 000000 152244Z AUTO VRB04KT //// 29/24 A3021=","","","","","","","","","",""
"00701899999","2013-07-15T22:59:00","0.0","0.0","7018.0","WXPOD 7018","FM-15","4","30.21","75","84","","","","","74","","","","","","VRB","","3","","","","","","","","","","","","","","","","","","","","","","","","","","","","","","","","","","","","","","","","","","","","","","","","","","","","","","","","","","","","","","","","","","","","","","","","","","","","","","","","","","","","","","","","","","","MET069MOBOB0 METAR 7018 //000 000000 152259Z AUTO VRB03KT //// 29/24 A3021=","","","","","","","","","",""
"00701899999","2013-07-15T23:14:00","0.0","0.0","7018.0","WXPOD 7018","FM-15","4","30.21","73","84","","","","","70","","","","","","VRB","","2","","","","","","","","","","","","","","","","","","","","","","","","","","","","","","","","","","","","","","","","","","","","","","","","","","","","","","","","","","","","","","","","","","","","","","","","","","","","","","","","","","","","","","","","","","","MET069MOBOB0 METAR 7018 //000 000000 152314Z AUTO VRB02KT //// 29/23 A3021=","","","","","","","","","",""
"00701899999","2013-07-15T23:29:00","0.0","0.0","7018.0","WXPOD 7018","FM-15","4","30.21","73","82","","","","","74","","","","","","VRB","","2","","","","","","","","","","","","","","","","","","","","","","","","","","","","","","","","","","","","","","","","","","","","","","","","","","","","","","","","","","","","","","","","","","","","","","","","","","","","","","","","","","","","","","","","","","","MET069MOBOB0 METAR 7018 //000 000000 152329Z AUTO VRB02KT //// 28/23 A3021=","","","","","","","","","",""
"00701899999","2013-07-15T23:44:00","0.0","0.0","7018.0","WXPOD 7018","FM-15","4","30.22","73","84","","","","","70","","","","","","260","","1","","","","","","","","","","","","","","","","","","","","","","","","","","","","","","","","","","","","","","","","","","","","","","","","","","","","","","","","","","","","","","","","","","","","","","","","","","","","","","","","","","","","","","","","","","","MET069MOBOB0 METAR 7018 //000 000000 152344Z AUTO 26001KT //// 29/23 A3022=","","","","","","","","","",""
"00701899999","2013-07-15T23:59:00","0.0","0.0","7018.0","WXPOD 7018","FM-15","4","30.21","73","84","","","","","70","","","","","","VRB","","1","","","","","","","","","","","","","","","","","","","","","","","","","","","","","","","","","","","","","","","","","","","","","","","","","","","","","","","","","","","","","","","","","","","","","","","","","","","","","","","","","","","","","","","","","","","MET069MOBOB0 METAR 7018 //000 000000 152359Z AUTO VRB01KT //// 29/23 A3021=","","","","","","","","","",""
"00701899999","2013-07-16T00:14:00","0.0","0.0","7018.0","WXPOD 7018","FM-15","4","30.21","75","84","","","","","74","","","","","","VRB","","3","","","","","","","","","","","","","","","","","","","","","","","","","","","","","","","","","","","","","","","","","","","","","","","","","","","","","","","","","","","","","","","","","","","","","","","","","","","","","","","","","","","","","","","","","","","MET069MOBOB0 METAR 7018 //000 000000 160014Z AUTO VRB03KT //// 29/24 A3021=","","","","","","","","","",""
"00701899999","2013-07-16T00:29:00","0.0","0.0","7018.0","WXPOD 7018","FM-15","4","30.21","75","82","","","","","79","","","","","","VRB","","2","","","","","","","","","","","","","","","","","","","","","","","","","","","","","","","","","","","","","","","","","","","","","","","","","","","","","","","","","","","","","","","","","","","","","","","","","","","","","","","","","","","","","","","","","","","MET069MOBOB0 METAR 7018 //000 000000 160029Z AUTO VRB02KT //// 28/24 A3021=","","","","","","","","","",""
"00701899999","2013-07-16T00:44:00","0.0","0.0","7018.0","WXPOD 7018","FM-15","4","30.21","75","82","","","","","79","","","","","","VRB","","1","","","","","","","","","","","","","","","","","","","","","","","","","","","","","","","","","","","","","","","","","","","","","","","","","","","","","","","","","","","","","","","","","","","","","","","","","","","","","","","","","","","","","","","","","","","MET069MOBOB0 METAR 7018 //000 000000 160044Z AUTO VRB01KT //// 28/24 A3021=","","","","","","","","","",""
"00701899999","2013-07-16T00:59:00","0.0","0.0","7018.0","WXPOD 7018","FM-15","4","30.21","77","82","","","","","84","","","","","","VRB","","2","","","","","","","","","","","","","","","","","","","","","","","","","","","","","","","","","","","","","","","","","","","","","","","","","","","","","","","","","","","","","","","","","","","","","","","","","","","","","","","","","","","","","","","","","","","MET069MOBOB0 METAR 7018 //000 000000 160059Z AUTO VRB02KT //// 28/25 A3021=","","","","","","","","","",""
"00701899999","2013-07-16T01:14:00","0.0","0.0","7018.0","WXPOD 7018","FM-15","4","30.21","77","82","","","","","84","","","","","","VRB","","2","","","","","","","","","","","","","","","","","","","","","","","","","","","","","","","","","","","","","","","","","","","","","","","","","","","","","","","","","","","","","","","","","","","","","","","","","","","","","","","","","","","","","","","","","","","MET069MOBOB0 METAR 7018 //000 000000 160114Z AUTO VRB02KT //// 28/25 A3021=","","","","","","","","","",""
"00701899999","2013-07-16T01:29:00","0.0","0.0","7018.0","WXPOD 7018","FM-15","4","30.21","77","81","","","","","89","","","","","","VRB","","3","","","","","","","","","","","","","","","","","","","","","","","","","","","","","","","","","","","","","","","","","","","","","","","","","","","","","","","","","","","","","","","","","","","","","","","","","","","","","","","","","","","","","","","","","","","MET069MOBOB0 METAR 7018 //000 000000 160129Z AUTO VRB03KT //// 27/25 A3021=","","","","","","","","","",""
"00701899999","2013-07-16T01:44:00","0.0","0.0","7018.0","WXPOD 7018","FM-15","4","30.21","77","81","","","","","89","","","","","","VRB","","2","","","","","","","","","","","","","","","","","","","","","","","","","","","","","","","","","","","","","","","","","","","","","","","","","","","","","","","","","","","","","","","","","","","","","","","","","","","","","","","","","","","","","","","","","","","MET069MOBOB0 METAR 7018 //000 000000 160144Z AUTO VRB02KT //// 27/25 A3021=","","","","","","","","","",""
"00701899999","2013-07-16T01:59:00","0.0","0.0","7018.0","WXPOD 7018","FM-15","4","30.22","77","81","","","","","89","","","","","","VRB","","2","","","","","","","","","","","","","","","","","","","","","","","","","","","","","","","","","","","","","","","","","","","","","","","","","","","","","","","","","","","","","","","","","","","","","","","","","","","","","","","","","","","","","","","","","","","MET069MOBOB0 METAR 7018 //000 000000 160159Z AUTO VRB02KT //// 27/25 A3022=","","","","","","","","","",""
"00701899999","2013-07-16T02:14:00","0.0","0.0","7018.0","WXPOD 7018","FM-15","4","30.22","77","81","","","","","89","","","","","","VRB","","2","","","","","","","","","","","","","","","","","","","","","","","","","","","","","","","","","","","","","","","","","","","","","","","","","","","","","","","","","","","","","","","","","","","","","","","","","","","","","","","","","","","","","","","","","","","MET069MOBOB0 METAR 7018 //000 000000 160214Z AUTO VRB02KT //// 27/25 A3022=","","","","","","","","","",""
"00701899999","2013-07-16T02:29:00","0.0","0.0","7018.0","WXPOD 7018","FM-15","4","30.22","77","81","","","","","89","","","","","","VRB","","1","","","","","","","","","","","","","","","","","","","","","","","","","","","","","","","","","","","","","","","","","","","","","","","","","","","","","","","","","","","","","","","","","","","","","","","","","","","","","","","","","","","","","","","","","","","MET069MOBOB0 METAR 7018 //000 000000 160229Z AUTO VRB01KT //// 27/25 A3022=","","","","","","","","","",""
"00701899999","2013-07-16T02:44:00","0.0","0.0","7018.0","WXPOD 7018","FM-15","4","30.22","77","81","","","","","89","","","","","","VRB","","2","","","","","","","","","","","","","","","","","","","","","","","","","","","","","","","","","","","","","","","","","","","","","","","","","","","","","","","","","","","","","","","","","","","","","","","","","","","","","","","","","","","","","","","","","","","MET069MOBOB0 METAR 7018 //000 000000 160244Z AUTO VRB02KT //// 27/25 A3022=","","","","","","","","","",""
"00701899999","2013-07-16T02:59:00","0.0","0.0","7018.0","WXPOD 7018","FM-15","4","30.21","77","81","","","","","89","","","","","","VRB","","3","","","","","","","","","","","","","","","","","","","","","","","","","","","","","","","","","","","","","","","","","","","","","","","","","","","","","","","","","","","","","","","","","","","","","","","","","","","","","","","","","","","","","","","","","","","MET069MOBOB0 METAR 7018 //000 000000 160259Z AUTO VRB03KT //// 27/25 A3021=","","","","","","","","","",""
"00701899999","2013-07-16T03:14:00","0.0","0.0","7018.0","WXPOD 7018","FM-15","4","30.21","77","79","","","","","94","","","","","","VRB","","6","","","","","","","","","","","","","","","","","","","","","","","","","","","","","","","","","","","","","","","","","","","","","","","","","","","","","","","","","","","","","","","","","","","","","","","","","","","","","","","","","","","","","","","","","","","MET069MOBOB0 METAR 7018 //000 000000 160314Z AUTO VRB05KT //// 26/25 A3021=","","","","","","","","","",""
"00701899999","2013-07-16T03:29:00","0.0","0.0","7018.0","WXPOD 7018","FM-15","4","30.21","77","79","","","","","94","","","","","","VRB","","6","","","","","","","","","","","","","","","","","","","","","","","","","","","","","","","","","","","","","","","","","","","","","","","","","","","","","","","","","","","","","","","","","","","","","","","","","","","","","","","","","","","","","","","","","","","MET069MOBOB0 METAR 7018 //000 000000 160329Z AUTO VRB05KT //// 26/25 A3021=","","","","","","","","","",""
"00701899999","2013-07-16T03:44:00","0.0","0.0","7018.0","WXPOD 7018","FM-15","4","30.21","77","79","","","","","94","","","","","","VRB","","3","","","","","","","","","","","","","","","","","","","","","","","","","","","","","","","","","","","","","","","","","","","","","","","","","","","","","","","","","","","","","","","","","","","","","","","","","","","","","","","","","","","","","","","","","","","MET069MOBOB0 METAR 7018 //000 000000 160344Z AUTO VRB03KT //// 26/25 A3021=","","","","","","","","","",""
"00701899999","2013-07-16T03:59:00","0.0","0.0","7018.0","WXPOD 7018","FM-15","4","30.21","77","79","","","","","94","","","","","","VRB","","6","","","","","","","","","","","","","","","","","","","","","","","","","","","","","","","","","","","","","","","","","","","","","","","","","","","","","","","","","","","","","","","","","","","","","","","","","","","","","","","","","","","","","","","","","","","MET069MOBOB0 METAR 7018 //000 000000 160359Z AUTO VRB05KT //// 26/25 A3021=","","","","","","","","","",""
"00701899999","2013-07-16T04:14:00","0.0","0.0","7018.0","WXPOD 7018","FM-15","4","30.21","77","79","","","","","94","","","","","","VRB","","7","","","","","","","","","","","","","","","","","","","","","","","","","","","","","","","","","","","","","","","","","","","","","","","","","","","","","","","","","","","","","","","","","","","","","","","","","","","","","","","","","","","","","","","","","","","MET069MOBOB0 METAR 7018 //000 000000 160414Z AUTO VRB06KT //// 26/25 A3021=","","","","","","","","","",""
"00701899999","2013-07-16T04:29:00","0.0","0.0","7018.0","WXPOD 7018","FM-15","4","30.21","77","79","","","","","94","","","","","","VRB","","6","","","","","","","","","","","","","","","","","","","","","","","","","","","","","","","","","","","","","","","","","","","","","","","","","","","","","","","","","","","","","","","","","","","","","","","","","","","","","","","","","","","","","","","","","","","MET069MOBOB0 METAR 7018 //000 000000 160429Z AUTO VRB05KT //// 26/25 A3021=","","","","","","","","","",""
"00701899999","2013-07-16T04:44:00","0.0","0.0","7018.0","WXPOD 7018","FM-15","4","30.21","77","79","","","","","94","","","","","","VRB","","6","","","","","","","","","","","","","","","","","","","","","","","","","","","","","","","","","","","","","","","","","","","","","","","","","","","","","","","","","","","","","","","","","","","","","","","","","","","","","","","","","","","","","","","","","","","MET069MOBOB0 METAR 7018 //000 000000 160444Z AUTO VRB05KT //// 26/25 A3021=","","","","","","","","","",""
"00701899999","2013-07-16T04:59:00","0.0","0.0","7018.0","WXPOD 7018","FM-15","4","30.21","77","79","","","","","94","","","","","","VRB","","6","","","","","","","","","","","","","","","","","","","","","","","","","","","","","","","","","","","","","","","","","","","","","","","","","","","","","","","","","","","","","","","","","","","","","","","","","","","","","","","","","","","","","","","","","","","MET069MOBOB0 METAR 7018 //000 000000 160459Z AUTO VRB05KT //// 26/25 A3021=","","","","","","","","","",""
"00701899999","2013-07-16T05:14:00","0.0","0.0","7018.0","WXPOD 7018","FM-15","4","30.21","77","79","","","","","94","","","","","","290","","7","","","","","","","","","","","","","","","","","","","","","","","","","","","","","","","","","","","","","","","","","","","","","","","","","","","","","","","","","","","","","","","","","","","","","","","","","","","","","","","","","","","","","","","","","","","MET069MOBOB0 METAR 7018 //000 000000 160514Z AUTO 29006KT //// 26/25 A3021=","","","","","","","","","",""
"00701899999","2013-07-16T05:29:00","0.0","0.0","7018.0","WXPOD 7018","FM-15","4","30.21","77","79","","","","","94","","","","","","VRB","","6","","","","","","","","","","","","","","","","","","","","","","","","","","","","","","","","","","","","","","","","","","","","","","","","","","","","","","","","","","","","","","","","","","","","","","","","","","","","","","","","","","","","","","","","","","","MET069MOBOB0 METAR 7018 //000 000000 160529Z AUTO VRB05KT //// 26/25 A3021=","","","","","","","","","",""
"00701899999","2013-07-16T05:44:00","0.0","0.0","7018.0","WXPOD 7018","FM-15","4","30.21","77","79","","","","","94","","","","","","VRB","","5","","","","","","","","","","","","","","","","","","","","","","","","","","","","","","","","","","","","","","","","","","","","","","","","","","","","","","","","","","","","","","","","","","","","","","","","","","","","","","","","","","","","","","","","","","","MET069MOBOB0 METAR 7018 //000 000000 160544Z AUTO VRB04KT //// 26/25 A3021=","","","","","","","","","",""
"00701899999","2013-07-16T05:59:00","0.0","0.0","7018.0","WXPOD 7018","FM-15","4","30.20","77","79","","","","","94","","","","","","290","","7","","","","","","","","","","","","","","","","","","","","","","","","","","","","","","","","","","","","","","","","","","","","","","","","","","","","","","","","","","","","","","","","","","","","","","","","","","","","","","","","","","","","","","","","","","","MET069MOBOB0 METAR 7018 //000 000000 160559Z AUTO 29006KT //// 26/25 A3020=","","","","","","","","","",""
"00701899999","2013-07-16T06:14:00","0.0","0.0","7018.0","WXPOD 7018","FM-15","4","30.20","77","79","","","","","94","","","","","","VRB","","6","","","","","","","","","","","","","","","","","","","","","","","","","","","","","","","","","","","","","","","","","","","","","","","","","","","","","","","","","","","","","","","","","","","","","","","","","","","","","","","","","","","","","","","","","","","MET069MOBOB0 METAR 7018 //000 000000 160614Z AUTO VRB05KT //// 26/25 A3020=","","","","","","","","","",""
"00701899999","2013-07-16T06:29:00","0.0","0.0","7018.0","WXPOD 7018","FM-15","4","30.20","77","79","","","","","94","","","","","","290","","7","","","","","","","","","","","","","","","","","","","","","","","","","","","","","","","","","","","","","","","","","","","","","","","","","","","","","","","","","","","","","","","","","","","","","","","","","","","","","","","","","","","","","","","","","","","MET069MOBOB0 METAR 7018 //000 000000 160629Z AUTO 29006KT //// 26/25 A3020=","","","","","","","","","",""
"00701899999","2013-07-16T06:44:00","0.0","0.0","7018.0","WXPOD 7018","FM-15","4","30.20","77","79","","","","","94","","","","","","VRB","","6","","","","","","","","","","","","","","","","","","","","","","","","","","","","","","","","","","","","","","","","","","","","","","","","","","","","","","","","","","","","","","","","","","","","","","","","","","","","","","","","","","","","","","","","","","","MET069MOBOB0 METAR 7018 //000 000000 160644Z AUTO VRB05KT //// 26/25 A3020=","","","","","","","","","",""
"00701899999","2013-07-16T06:59:00","0.0","0.0","7018.0","WXPOD 7018","FM-15","4","30.19","77","79","","","","","94","","","","","","VRB","","6","","","","","","","","","","","","","","","","","","","","","","","","","","","","","","","","","","","","","","","","","","","","","","","","","","","","","","","","","","","","","","","","","","","","","","","","","","","","","","","","","","","","","","","","","","","MET069MOBOB0 METAR 7018 //000 000000 160659Z AUTO VRB05KT //// 26/25 A3019=","","","","","","","","","",""
"00701899999","2013-07-16T14:59:00","0.0","0.0","7018.0","WXPOD 7018","FM-15","4","30.19","75","99","","","","","47","","","","","","VRB","","1","","","","","","","","","","","","","","","","","","","","","","","","","","","","","","","","","","","","","","","","","","","","","","","","","","","","","","","","","","","","","","","","","","","","","","","","","","","","","","","","","","","","","","","","","","","MET069MOBOB0 METAR 7018 //000 000000 161459Z AUTO VRB01KT //// 37/24 A3019=","","","","","","","","","",""
"00701899999","2013-07-16T15:14:00","0.0","0.0","7018.0","WXPOD 7018","FM-15","4","30.19","75","99","","","","","47","","","","","","020","","2","","","","","","","","","","","","","","","","","","","","","","","","","","","","","","","","","","","","","","","","","","","","","","","","","","","","","","","","","","","","","","","","","","","","","","","","","","","","","","","","","","","","","","","","","","","MET069MOBOB0 METAR 7018 //000 000000 161514Z AUTO 02002KT //// 37/24 A3019=","","","","","","","","","",""
"00701899999","2013-07-16T15:29:00","0.0","0.0","7018.0","WXPOD 7018","FM-15","4","30.19","73","97","","","","","47","","","","","","VRB","","2","","","","","","","","","","","","","","","","","","","","","","","","","","","","","","","","","","","","","","","","","","","","","","","","","","","","","","","","","","","","","","","","","","","","","","","","","","","","","","","","","","","","","","","","","","","MET069MOBOB0 METAR 7018 //000 000000 161529Z AUTO VRB02KT //// 36/23 A3019=","","","","","","","","","",""
"00701899999","2013-07-16T15:44:00","0.0","0.0","7018.0","WXPOD 7018","FM-15","4","30.19","75","99","","","","","47","","","","","","VRB","","1","","","","","","","","","","","","","","","","","","","","","","","","","","","","","","","","","","","","","","","","","","","","","","","","","","","","","","","","","","","","","","","","","","","","","","","","","","","","","","","","","","","","","","","","","","","MET069MOBOB0 METAR 7018 //000 000000 161544Z AUTO VRB01KT //// 37/24 A3019=","","","","","","","","","",""
"00701899999","2013-07-16T15:59:00","0.0","0.0","7018.0","WXPOD 7018","FM-15","4","30.19","73","100","","","","","42","","","","","","VRB","","2","","","","","","","","","","","","","","","","","","","","","","","","","","","","","","","","","","","","","","","","","","","","","","","","","","","","","","","","","","","","","","","","","","","","","","","","","","","","","","","","","","","","","","","","","","","MET069MOBOB0 METAR 7018 //000 000000 161559Z AUTO VRB02KT //// 38/23 A3019=","","","","","","","","","",""
"00701899999","2013-07-16T16:14:00","0.0","0.0","7018.0","WXPOD 7018","FM-15","4","30.19","73","99","","","","","44","","","","","","VRB","","1","","","","","","","","","","","","","","","","","","","","","","","","","","","","","","","","","","","","","","","","","","","","","","","","","","","","","","","","","","","","","","","","","","","","","","","","","","","","","","","","","","","","","","","","","","","MET069MOBOB0 METAR 7018 //000 000000 161614Z AUTO VRB01KT //// 37/23 A3019=","","","","","","","","","",""
"00701899999","2013-07-16T16:29:00","0.0","0.0","7018.0","WXPOD 7018","FM-15","4","30.19","75","102","","","","","42","","","","","","VRB","","2","","","","","","","","","","","","","","","","","","","","","","","","","","","","","","","","","","","","","","","","","","","","","","","","","","","","","","","","","","","","","","","","","","","","","","","","","","","","","","","","","","","","","","","","","","","MET069MOBOB0 METAR 7018 //000 000000 161629Z AUTO VRB02KT //// 39/24 A3019=","","","","","","","","","",""
"00701899999","2013-07-16T16:44:00","0.0","0.0","7018.0","WXPOD 7018","FM-15","4","30.18","75","100","","","","","45","","","","","","VRB","","3","","","","","","","","","","","","","","","","","","","","","","","","","","","","","","","","","","","","","","","","","","","","","","","","","","","","","","","","","","","","","","","","","","","","","","","","","","","","","","","","","","","","","","","","","","","MET069MOBOB0 METAR 7018 //000 000000 161644Z AUTO VRB03KT //// 38/24 A3018=","","","","","","","","","",""
"00701899999","2013-07-16T16:59:00","0.0","0.0","7018.0","WXPOD 7018","FM-15","4","30.18","73","102","","","","","40","","","","","","340","","2","","","","","","","","","","","","","","","","","","","","","","","","","","","","","","","","","","","","","","","","","","","","","","","","","","","","","","","","","","","","","","","","","","","","","","","","","","","","","","","","","","","","","","","","","","","MET069MOBOB0 METAR 7018 //000 000000 161659Z AUTO 34002KT //// 39/23 A3018=","","","","","","","","","",""
"00701899999","2013-07-16T17:29:00","0.0","0.0","7018.0","WXPOD 7018","FM-15","4","30.17","72","100","","","","","40","","","","","","350","","1","","","","","","","","","","","","","","","","","","","","","","","","","","","","","","","","","","","","","","","","","","","","","","","","","","","","","","","","","","","","","","","","","","","","","","","","","","","","","","","","","","","","","","","","","","","MET069MOBOB0 METAR 7018 //000 000000 161729Z AUTO 35001KT //// 38/22 A3017=","","","","","","","","","",""
"00701899999","2013-07-16T17:59:00","0.0","0.0","7018.0","WXPOD 7018","FM-15","4","30.16","79","93","","","","","63","","","","","","030","","3","","","","","","","","","","","","","","","","","","","","","","","","","","","","","","","","","","","","","","","","","","","","","","","","","","","","","","","","","","","","","","","","","","","","","","","","","","","","","","","","","","","","","","","","","","","MET069MOBOB0 METAR 7018 //000 000000 161759Z AUTO 03003KT //// 34/26 A3016=","","","","","","","","","",""
"00701899999","2013-07-16T18:29:00","0.0","0.0","7018.0","WXPOD 7018","FM-15","4","30.16","77","93","","","","","59","","","","","","020","","2","","","","","","","","","","","","","","","","","","","","","","","","","","","","","","","","","","","","","","","","","","","","","","","","","","","","","","","","","","","","","","","","","","","","","","","","","","","","","","","","","","","","","","","","","","","MET069MOBOB0 METAR 7018 //000 000000 161829Z AUTO 02002KT //// 34/25 A3016=","","","","","","","","","",""
"00701899999","2013-07-16T18:59:00","0.0","0.0","7018.0","WXPOD 7018","FM-15","4","30.16","79","91","","","","","67","","","","","","020","","3","","","","","","","","","","","","","","","","","","","","","","","","","","","","","","","","","","","","","","","","","","","","","","","","","","","","","","","","","","","","","","","","","","","","","","","","","","","","","","","","","","","","","","","","","","","MET069MOBOB0 METAR 7018 //000 000000 161859Z AUTO 02003KT //// 33/26 A3016=","","","","","","","","","",""
"00701899999","2013-07-16T19:29:00","0.0","0.0","7018.0","WXPOD 7018","FM-15","4","30.15","79","93","","","","","63","","","","","","020","","5","","","","","","","","","","","","","","","","","","","","","","","","","","","","","","","","","","","","","","","","","","","","","","","","","","","","","","","","","","","","","","","","","","","","","","","","","","","","","","","","","","","","","","","","","","","MET069MOBOB0 METAR 7018 //000 000000 161929Z AUTO 02004KT //// 34/26 A3015=","","","","","","","","","",""
"00701899999","2013-07-16T19:59:00","0.0","0.0","7018.0","WXPOD 7018","FM-15","4","30.15","79","91","","","","","67","","","","","","020","","2","","","","","","","","","","","","","","","","","","","","","","","","","","","","","","","","","","","","","","","","","","","","","","","","","","","","","","","","","","","","","","","","","","","","","","","","","","","","","","","","","","","","","","","","","","","MET069MOBOB0 METAR 7018 //000 000000 161959Z AUTO 02002KT //// 33/26 A3015=","","","","","","","","","",""
"00701899999","2013-07-16T20:29:00","0.0","0.0","7018.0","WXPOD 7018","FM-15","4","30.14","81","91","","","","","71","","","","","","030","","3","","","","","","","","","","","","","","","","","","","","","","","","","","","","","","","","","","","","","","","","","","","","","","","","","","","","","","","","","","","","","","","","","","","","","","","","","","","","","","","","","","","","","","","","","","","MET069MOBOB0 METAR 7018 //000 000000 162029Z AUTO 03003KT //// 33/27 A3014=","","","","","","","","","",""
"00701899999","2013-07-16T20:59:00","0.0","0.0","7018.0","WXPOD 7018","FM-15","4","30.14","79","91","","","","","67","","","","","","020","","3","","","","","","","","","","","","","","","","","","","","","","","","","","","","","","","","","","","","","","","","","","","","","","","","","","","","","","","","","","","","","","","","","","","","","","","","","","","","","","","","","","","","","","","","","","","MET069MOBOB0 METAR 7018 //000 000000 162059Z AUTO 02003KT //// 33/26 A3014=","","","","","","","","","",""
"00701899999","2013-07-16T21:29:00","0.0","0.0","7018.0","WXPOD 7018","FM-15","4","30.13","77","93","","","","","59","","","","","","010","","3","","","","","","","","","","","","","","","","","","","","","","","","","","","","","","","","","","","","","","","","","","","","","","","","","","","","","","","","","","","","","","","","","","","","","","","","","","","","","","","","","","","","","","","","","","","MET069MOBOB0 METAR 7018 //000 000000 162129Z AUTO 01003KT //// 34/25 A3013=","","","","","","","","","",""
"00701899999","2013-07-16T21:59:00","0.0","0.0","7018.0","WXPOD 7018","FM-15","4","30.13","73","93","","","","","53","","","","","","030","","5","","","","","","","","","","","","","","","","","","","","","","","","","","","","","","","","","","","","","","","","","","","","","","","","","","","","","","","","","","","","","","","","","","","","","","","","","","","","","","","","","","","","","","","","","","","MET069MOBOB0 METAR 7018 //000 000000 162159Z AUTO 03004KT //// 34/23 A3013=","","","","","","","","","",""
"00701899999","2013-07-16T22:29:00","0.0","0.0","7018.0","WXPOD 7018","FM-15","4","30.13","72","95","","","","","47","","","","","","020","","3","","","","","","","","","","","","","","","","","","","","","","","","","","","","","","","","","","","","","","","","","","","","","","","","","","","","","","","","","","","","","","","","","","","","","","","","","","","","","","","","","","","","","","","","","","","MET069MOBOB0 METAR 7018 //000 000000 162229Z AUTO 02003KT //// 35/22 A3013=","","","","","","","","","",""
"00701899999","2013-07-16T22:59:00","0.0","0.0","7018.0","WXPOD 7018","FM-15","4","30.14","75","90","","","","","63","","","","","","010","","5","","","","","","","","","","","","","","","","","","","","","","","","","","","","","","","","","","","","","","","","","","","","","","","","","","","","","","","","","","","","","","","","","","","","","","","","","","","","","","","","","","","","","","","","","","","MET069MOBOB0 METAR 7018 //000 000000 162259Z AUTO 01004KT //// 32/24 A3014=","","","","","","","","","",""
"00701899999","2013-07-16T23:29:00","0.0","0.0","7018.0","WXPOD 7018","FM-15","4","30.15","79","82","","","","","89","","","","","","030","","7","","","","","","","","","","","","","","","","","","","","","","","","","","","","","","","","","","","","","","","","","","","","","","","","","","","","","","","","","","","","","","","","","","","","","","","","","","","","","","","","","","","","","","","","","","","MET069MOBOB0 METAR 7018 //000 000000 162329Z AUTO 03006KT //// 28/26 A3015=","","","","","","","","","",""
"00701899999","2013-07-16T23:59:00","0.0","0.0","7018.0","WXPOD 7018","FM-15","4","30.16","79","81","","","","","94","","","","","","360","","6","","","","","","","","","","","","","","","","","","","","","","","","","","","","","","","","","","","","","","","","","","","","","","","","","","","","","","","","","","","","","","","","","","","","","","","","","","","","","","","","","","","","","","","","","","","MET069MOBOB0 METAR 7018 //000 000000 162359Z AUTO 36005KT //// 27/26 A3016=","","","","","","","","","",""
"00701899999","2013-07-17T00:29:00","0.0","0.0","7018.0","WXPOD 7018","FM-15","4","30.16","79","81","","","","","94","","","","","","040","","3","","","","","","","","","","","","","","","","","","","","","","","","","","","","","","","","","","","","","","","","","","","","","","","","","","","","","","","","","","","","","","","","","","","","","","","","","","","","","","","","","","","","","","","","","","","MET069MOBOB0 METAR 7018 //000 000000 170029Z AUTO 04003KT //// 27/26 A3016=","","","","","","","","","",""
"00701899999","2013-07-17T00:59:00","0.0","0.0","7018.0","WXPOD 7018","FM-15","4","30.17","79","81","","","","","94","","","","","","020","","7","","","","","","","","","","","","","","","","","","","","","","","","","","","","","","","","","","","","","","","","","","","","","","","","","","","","","","","","","","","","","","","","","","","","","","","","","","","","","","","","","","","","","","","","","","","MET069MOBOB0 METAR 7018 //000 000000 170059Z AUTO 02006KT //// 27/26 A3017=","","","","","","","","","",""
"00701899999","2013-07-17T01:29:00","0.0","0.0","7018.0","WXPOD 7018","FM-15","4","30.17","79","81","","","","","94","","","","","","360","","7","","","","","","","","","","","","","","","","","","","","","","","","","","","","","","","","","","","","","","","","","","","","","","","","","","","","","","","","","","","","","","","","","","","","","","","","","","","","","","","","","","","","","","","","","","","MET069MOBOB0 METAR 7018 //000 000000 170129Z AUTO 36006KT //// 27/26 A3017=","","","","","","","","","",""
"00701899999","2013-07-17T01:59:00","0.0","0.0","7018.0","WXPOD 7018","FM-15","4","30.19","77","81","","","","","89","","","","","","360","","5","","","","","","","","","","","","","","","","","","","","","","","","","","","","","","","","","","","","","","","","","","","","","","","","","","","","","","","","","","","","","","","","","","","","","","","","","","","","","","","","","","","","","","","","","","","MET069MOBOB0 METAR 7018 //000 000000 170159Z AUTO 36004KT //// 27/25 A3019=","","","","","","","","","",""
"00701899999","2013-07-17T02:29:00","0.0","0.0","7018.0","WXPOD 7018","FM-15","4","30.19","77","81","","","","","89","","","","","","020","","3","","","","","","","","","","","","","","","","","","","","","","","","","","","","","","","","","","","","","","","","","","","","","","","","","","","","","","","","","","","","","","","","","","","","","","","","","","","","","","","","","","","","","","","","","","","MET069MOBOB0 METAR 7018 //000 000000 170229Z AUTO 02003KT //// 27/25 A3019=","","","","","","","","","",""
"00701899999","2013-07-17T02:59:00","0.0","0.0","7018.0","WXPOD 7018","FM-15","4","30.19","77","81","","","","","89","","","","","","320","","6","","","","","","","","","","","","","","","","","","","","","","","","","","","","","","","","","","","","","","","","","","","","","","","","","","","","","","","","","","","","","","","","","","","","","","","","","","","","","","","","","","","","","","","","","","","MET069MOBOB0 METAR 7018 //000 000000 170259Z AUTO 32005KT //// 27/25 A3019=","","","","","","","","","",""
"00701899999","2013-07-17T03:29:00","0.0","0.0","7018.0","WXPOD 7018","FM-15","4","30.18","77","81","","","","","89","","","","","","340","","3","","","","","","","","","","","","","","","","","","","","","","","","","","","","","","","","","","","","","","","","","","","","","","","","","","","","","","","","","","","","","","","","","","","","","","","","","","","","","","","","","","","","","","","","","","","MET069MOBOB0 METAR 7018 //000 000000 170329Z AUTO 34003KT //// 27/25 A3018=","","","","","","","","","",""
"00701899999","2013-07-17T03:59:00","0.0","0.0","7018.0","WXPOD 7018","FM-15","4","30.17","77","79","","","","","94","","","","","","330","","6","","","","","","","","","","","","","","","","","","","","","","","","","","","","","","","","","","","","","","","","","","","","","","","","","","","","","","","","","","","","","","","","","","","","","","","","","","","","","","","","","","","","","","","","","","","MET069MOBOB0 METAR 7018 //000 000000 170359Z AUTO 33005KT //// 26/25 A3017=","","","","","","","","","",""
"00701899999","2013-07-17T04:29:00","0.0","0.0","7018.0","WXPOD 7018","FM-15","4","30.16","77","79","","","","","94","","","","","","350","","5","","","","","","","","","","","","","","","","","","","","","","","","","","","","","","","","","","","","","","","","","","","","","","","","","","","","","","","","","","","","","","","","","","","","","","","","","","","","","","","","","","","","","","","","","","","MET069MOBOB0 METAR 7018 //000 000000 170429Z AUTO 35004KT //// 26/25 A3016=","","","","","","","","","",""
"00701899999","2013-07-17T04:59:00","0.0","0.0","7018.0","WXPOD 7018","FM-15","4","30.15","75","79","","","","","89","","","","","","350","","5","","","","","","","","","","","","","","","","","","","","","","","","","","","","","","","","","","","","","","","","","","","","","","","","","","","","","","","","","","","","","","","","","","","","","","","","","","","","","","","","","","","","","","","","","","","MET069MOBOB0 METAR 7018 //000 000000 170459Z AUTO 35004KT //// 26/24 A3015=","","","","","","","","","",""
"00701899999","2013-07-17T05:29:00","0.0","0.0","7018.0","WXPOD 7018","FM-15","4","30.15","77","79","","","","","94","","","","","","340","","3","","","","","","","","","","","","","","","","","","","","","","","","","","","","","","","","","","","","","","","","","","","","","","","","","","","","","","","","","","","","","","","","","","","","","","","","","","","","","","","","","","","","","","","","","","","MET069MOBOB0 METAR 7018 //000 000000 170529Z AUTO 34003KT //// 26/25 A3015=","","","","","","","","","",""
"00701899999","2013-07-17T05:59:00","0.0","0.0","7018.0","WXPOD 7018","FM-15","4","30.14","77","79","","","","","94","","","","","","280","","7","","","","","","","","","","","","","","","","","","","","","","","","","","","","","","","","","","","","","","","","","","","","","","","","","","","","","","","","","","","","","","","","","","","","","","","","","","","","","","","","","","","","","","","","","","","MET069MOBOB0 METAR 7018 //000 000000 170559Z AUTO 28006KT //// 26/25 A3014=","","","","","","","","","",""
"00701899999","2013-07-17T06:29:00","0.0","0.0","7018.0","WXPOD 7018","FM-15","4","30.15","75","79","","","","","89","","","","","","330","","6","","","","","","","","","","","","","","","","","","","","","","","","","","","","","","","","","","","","","","","","","","","","","","","","","","","","","","","","","","","","","","","","","","","","","","","","","","","","","","","","","","","","","","","","","","","MET069MOBOB0 METAR 7018 //000 000000 170629Z AUTO 33005KT //// 26/24 A3015=","","","","","","","","","",""
"00701899999","2013-07-17T06:59:00","0.0","0.0","7018.0","WXPOD 7018","FM-15","4","30.15","75","79","","","","","89","","","","","","320","","7","","","","","","","","","","","","","","","","","","","","","","","","","","","","","","","","","","","","","","","","","","","","","","","","","","","","","","","","","","","","","","","","","","","","","","","","","","","","","","","","","","","","","","","","","","","MET069MOBOB0 METAR 7018 //000 000000 170659Z AUTO 32006KT //// 26/24 A3015=","","","","","","","","","",""
"00701899999","2013-07-17T07:29:00","0.0","0.0","7018.0","WXPOD 7018","FM-15","4","30.14","75","79","","","","","89","","","","","","010","","5","","","","","","","","","","","","","","","","","","","","","","","","","","","","","","","","","","","","","","","","","","","","","","","","","","","","","","","","","","","","","","","","","","","","","","","","","","","","","","","","","","","","","","","","","","","MET069MOBOB0 METAR 7018 //000 000000 170729Z AUTO 01004KT //// 26/24 A3014=","","","","","","","","","",""
"00701899999","2013-07-17T07:59:00","0.0","0.0","7018.0","WXPOD 7018","FM-15","4","30.15","75","79","","","","","89","","","","","","300","","6","","","","","","","","","","","","","","","","","","","","","","","","","","","","","","","","","","","","","","","","","","","","","","","","","","","","","","","","","","","","","","","","","","","","","","","","","","","","","","","","","","","","","","","","","","","MET069MOBOB0 METAR 7018 //000 000000 170759Z AUTO 30005KT //// 26/24 A3015=","","","","","","","","","",""
"00701899999","2013-07-17T08:29:00","0.0","0.0","7018.0","WXPOD 7018","FM-15","4","30.16","75","79","","","","","89","","","","","","330","","7","","","","","","","","","","","","","","","","","","","","","","","","","","","","","","","","","","","","","","","","","","","","","","","","","","","","","","","","","","","","","","","","","","","","","","","","","","","","","","","","","","","","","","","","","","","MET069MOBOB0 METAR 7018 //000 000000 170829Z AUTO 33006KT //// 26/24 A3016=","","","","","","","","","",""
"00701899999","2013-07-17T08:59:00","0.0","0.0","7018.0","WXPOD 7018","FM-15","4","30.16","75","79","","","","","89","","","","","","330","","3","","","","","","","","","","","","","","","","","","","","","","","","","","","","","","","","","","","","","","","","","","","","","","","","","","","","","","","","","","","","","","","","","","","","","","","","","","","","","","","","","","","","","","","","","","","MET069MOBOB0 METAR 7018 //000 000000 170859Z AUTO 33003KT //// 26/24 A3016=","","","","","","","","","",""
"00701899999","2013-07-17T09:29:00","0.0","0.0","7018.0","WXPOD 7018","FM-15","4","30.15","75","77","","","","","94","","","","","","330","","5","","","","","","","","","","","","","","","","","","","","","","","","","","","","","","","","","","","","","","","","","","","","","","","","","","","","","","","","","","","","","","","","","","","","","","","","","","","","","","","","","","","","","","","","","","","MET069MOBOB0 METAR 7018 //000 000000 170929Z AUTO 33004KT //// 25/24 A3015=","","","","","","","","","",""
"00701899999","2013-07-17T09:59:00","0.0","0.0","7018.0","WXPOD 7018","FM-15","4","30.16","75","79","","","","","89","","","","","","350","","5","","","","","","","","","","","","","","","","","","","","","","","","","","","","","","","","","","","","","","","","","","","","","","","","","","","","","","","","","","","","","","","","","","","","","","","","","","","","","","","","","","","","","","","","","","","MET069MOBOB0 METAR 7018 //000 000000 170959Z AUTO 35004KT //// 26/24 A3016=","","","","","","","","","",""
"00701899999","2013-07-17T10:29:00","0.0","0.0","7018.0","WXPOD 7018","FM-15","4","30.16","77","79","","","","","94","","","","","","360","","6","","","","","","","","","","","","","","","","","","","","","","","","","","","","","","","","","","","","","","","","","","","","","","","","","","","","","","","","","","","","","","","","","","","","","","","","","","","","","","","","","","","","","","","","","","","MET069MOBOB0 METAR 7018 //000 000000 171029Z AUTO 36005KT //// 26/25 A3016=","","","","","","","","","",""
"00701899999","2013-07-17T10:59:00","0.0","0.0","7018.0","WXPOD 7018","FM-15","4","30.17","77","81","","","","","89","","","","","","320","","2","","","","","","","","","","","","","","","","","","","","","","","","","","","","","","","","","","","","","","","","","","","","","","","","","","","","","","","","","","","","","","","","","","","","","","","","","","","","","","","","","","","","","","","","","","","MET069MOBOB0 METAR 7018 //000 000000 171059Z AUTO 32002KT //// 27/25 A3017=","","","","","","","","","",""
"00701899999","2013-07-17T11:29:00","0.0","0.0","7018.0","WXPOD 7018","FM-15","4","30.17","79","82","","","","","89","","","","","","020","","1","","","","","","","","","","","","","","","","","","","","","","","","","","","","","","","","","","","","","","","","","","","","","","","","","","","","","","","","","","","","","","","","","","","","","","","","","","","","","","","","","","","","","","","","","","","MET069MOBOB0 METAR 7018 //000 000000 171129Z AUTO 02001KT //// 28/26 A3017=","","","","","","","","","",""
"00701899999","2013-07-17T11:59:00","0.0","0.0","7018.0","WXPOD 7018","FM-15","4","30.17","79","86","","","","","79","","","","","","030","","2","","","","","","","","","","","","","","","","","","","","","","","","","","","","","","","","","","","","","","","","","","","","","","","","","","","","","","","","","","","","","","","","","","","","","","","","","","","","","","","","","","","","","","","","","","","MET069MOBOB0 METAR 7018 //000 000000 171159Z AUTO 03002KT //// 30/26 A3017=","","","","","","","","","",""
"00701899999","2013-07-17T12:29:00","0.0","0.0","7018.0","WXPOD 7018","FM-15","4","30.18","77","91","","","","","63","","","","","","010","","3","","","","","","","","","","","","","","","","","","","","","","","","","","","","","","","","","","","","","","","","","","","","","","","","","","","","","","","","","","","","","","","","","","","","","","","","","","","","","","","","","","","","","","","","","","","MET069MOBOB0 METAR 7018 //000 000000 171229Z AUTO 01003KT //// 33/25 A3018=","","","","","","","","","",""
"00701899999","2013-07-17T12:59:00","0.0","0.0","7018.0","WXPOD 7018","FM-15","4","30.17","77","91","","","","","63","","","","","","360","","2","","","","","","","","","","","","","","","","","","","","","","","","","","","","","","","","","","","","","","","","","","","","","","","","","","","","","","","","","","","","","","","","","","","","","","","","","","","","","","","","","","","","","","","","","","","MET069MOBOB0 METAR 7018 //000 000000 171259Z AUTO 36002KT //// 33/25 A3017=","","","","","","","","","",""
"00701899999","2013-07-17T13:29:00","0.0","0.0","7018.0","WXPOD 7018","FM-15","4","30.17","81","91","","","","","71","","","","","","050","","5","","","","","","","","","","","","","","","","","","","","","","","","","","","","","","","","","","","","","","","","","","","","","","","","","","","","","","","","","","","","","","","","","","","","","","","","","","","","","","","","","","","","","","","","","","","MET069MOBOB0 METAR 7018 //000 000000 171329Z AUTO 05004KT //// 33/27 A3017=","","","","","","","","","",""
"00701899999","2013-07-17T13:59:00","0.0","0.0","7018.0","WXPOD 7018","FM-15","4","30.17","79","90","","","","","71","","","","","","030","","5","","","","","","","","","","","","","","","","","","","","","","","","","","","","","","","","","","","","","","","","","","","","","","","","","","","","","","","","","","","","","","","","","","","","","","","","","","","","","","","","","","","","","","","","","","","MET069MOBOB0 METAR 7018 //000 000000 171359Z AUTO 03004KT //// 32/26 A3017=","","","","","","","","","",""
"00701899999","2013-07-17T14:29:00","0.0","0.0","7018.0","WXPOD 7018","FM-15","4","30.18","79","88","","","","","75","","","","","","030","","5","","","","","","","","","","","","","","","","","","","","","","","","","","","","","","","","","","","","","","","","","","","","","","","","","","","","","","","","","","","","","","","","","","","","","","","","","","","","","","","","","","","","","","","","","","","MET069MOBOB0 METAR 7018 //000 000000 171429Z AUTO 03004KT //// 31/26 A3018=","","","","","","","","","",""
"00701899999","2013-07-17T14:59:00","0.0","0.0","7018.0","WXPOD 7018","FM-15","4","30.18","81","91","","","","","71","","","","","","060","","2","","","","","","","","","","","","","","","","","","","","","","","","","","","","","","","","","","","","","","","","","","","","","","","","","","","","","","","","","","","","","","","","","","","","","","","","","","","","","","","","","","","","","","","","","","","MET069MOBOB0 METAR 7018 //000 000000 171459Z AUTO 06002KT //// 33/27 A3018=","","","","","","","","","",""
"00701899999","2013-07-17T15:29:00","0.0","0.0","7018.0","WXPOD 7018","FM-15","4","30.18","77","93","","","","","59","","","","","","030","","3","","","","","","","","","","","","","","","","","","","","","","","","","","","","","","","","","","","","","","","","","","","","","","","","","","","","","","","","","","","","","","","","","","","","","","","","","","","","","","","","","","","","","","","","","","","MET069MOBOB0 METAR 7018 //000 000000 171529Z AUTO 03003KT //// 34/25 A3018=","","","","","","","","","",""
"00701899999","2013-07-17T15:59:00","0.0","0.0","7018.0","WXPOD 7018","FM-15","4","30.18","79","91","","","","","67","","","","","","040","","3","","","","","","","","","","","","","","","","","","","","","","","","","","","","","","","","","","","","","","","","","","","","","","","","","","","","","","","","","","","","","","","","","","","","","","","","","","","","","","","","","","","","","","","","","","","MET069MOBOB0 METAR 7018 //000 000000 171559Z AUTO 04003KT //// 33/26 A3018=","","","","","","","","","",""
"00701899999","2013-07-17T16:29:00","0.0","0.0","7018.0","WXPOD 7018","FM-15","4","30.17","79","90","","","","","71","","","","","","050","","5","","","","","","","","","","","","","","","","","","","","","","","","","","","","","","","","","","","","","","","","","","","","","","","","","","","","","","","","","","","","","","","","","","","","","","","","","","","","","","","","","","","","","","","","","","","MET069MOBOB0 METAR 7018 //000 000000 171629Z AUTO 05004KT //// 32/26 A3017=","","","","","","","","","",""
"00701899999","2013-07-17T17:29:00","0.0","0.0","7018.0","WXPOD 7018","FM-15","4","30.16","79","90","","","","","71","","","","","","040","","3","","","","","","","","","","","","","","","","","","","","","","","","","","","","","","","","","","","","","","","","","","","","","","","","","","","","","","","","","","","","","","","","","","","","","","","","","","","","","","","","","","","","","","","","","","","MET069MOBOB0 METAR 7018 //000 000000 171729Z AUTO 04003KT //// 32/26 A3016=","","","","","","","","","",""
"00701899999","2013-07-17T17:59:00","0.0","0.0","7018.0","WXPOD 7018","FM-15","4","30.16","81","91","","","","","71","","","","","","030","","5","","","","","","","","","","","","","","","","","","","","","","","","","","","","","","","","","","","","","","","","","","","","","","","","","","","","","","","","","","","","","","","","","","","","","","","","","","","","","","","","","","","","","","","","","","","MET069MOBOB0 METAR 7018 //000 000000 171759Z AUTO 03004KT //// 33/27 A3016=","","","","","","","","","",""
"00701899999","2013-07-17T18:29:00","0.0","0.0","7018.0","WXPOD 7018","FM-15","4","30.16","81","91","","","","","71","","","","","","050","","5","","","","","","","","","","","","","","","","","","","","","","","","","","","","","","","","","","","","","","","","","","","","","","","","","","","","","","","","","","","","","","","","","","","","","","","","","","","","","","","","","","","","","","","","","","","MET069MOBOB0 METAR 7018 //000 000000 171829Z AUTO 05004KT //// 33/27 A3016=","","","","","","","","","",""
"00701899999","2013-07-17T18:59:00","0.0","0.0","7018.0","WXPOD 7018","FM-15","4","30.15","79","90","","","","","71","","","","","","030","","3","","","","","","","","","","","","","","","","","","","","","","","","","","","","","","","","","","","","","","","","","","","","","","","","","","","","","","","","","","","","","","","","","","","","","","","","","","","","","","","","","","","","","","","","","","","MET069MOBOB0 METAR 7018 //000 000000 171859Z AUTO 03003KT //// 32/26 A3015=","","","","","","","","","",""
"00701899999","2013-07-17T20:59:00","0.0","0.0","7018.0","WXPOD 7018","FM-15","4","30.12","79","90","","","","","71","","","","","","140","","1","","","","","","","","","","","","","","","","","","","","","","","","","","","","","","","","","","","","","","","","","","","","","","","","","","","","","","","","","","","","","","","","","","","","","","","","","","","","","","","","","","","","","","","","","","","MET069MOBOB0 METAR 7018 //000 000000 172059Z AUTO 14001KT //// 32/26 A3012=","","","","","","","","","",""
"00701899999","2013-07-17T21:29:00","0.0","0.0","7018.0","WXPOD 7018","FM-15","4","30.11","79","88","","","","","75","","","","","","150","","1","","","","","","","","","","","","","","","","","","","","","","","","","","","","","","","","","","","","","","","","","","","","","","","","","","","","","","","","","","","","","","","","","","","","","","","","","","","","","","","","","","","","","","","","","","","MET069MOBOB0 METAR 7018 //000 000000 172129Z AUTO 15001KT //// 31/26 A3011=","","","","","","","","","",""
"00701899999","2013-07-18T00:59:00","0.0","0.0","7018.0","WXPOD 7018","FM-15","4","30.11","77","82","","","","","84","","","","","","320","","6","","","","","","","","","","","","","","","","","","","","","","","","","","","","","","","","","","","","","","","","","","","","","","","","","","","","","","","","","","","","","","","","","","","","","","","","","","","","","","","","","","","","","","","","","","","MET069MOBOB0 METAR 7018 //000 000000 180059Z AUTO 32005KT //// 28/25 A3011=","","","","","","","","","",""
"00701899999","2013-07-18T02:59:00","0.0","0.0","7018.0","WXPOD 7018","FM-15","4","30.13","75","81","","","","","84","","","","","","330","","2","","","","","","","","","","","","","","","","","","","","","","","","","","","","","","","","","","","","","","","","","","","","","","","","","","","","","","","","","","","","","","","","","","","","","","","","","","","","","","","","","","","","","","","","","","","MET069MOBOB0 METAR 7018 //000 000000 180259Z AUTO 33002KT //// 27/24 A3013=","","","","","","","","","",""
"00701899999","2013-07-18T04:29:00","0.0","0.0","7018.0","WXPOD 7018","FM-15","4","30.12","73","81","","","","","79","","","","","","310","","7","","","","","","","","","","","","","","","","","","","","","","","","","","","","","","","","","","","","","","","","","","","","","","","","","","","","","","","","","","","","","","","","","","","","","","","","","","","","","","","","","","","","","","","","","","","MET069MOBOB0 METAR 7018 //000 000000 180429Z AUTO 31006KT //// 27/23 A3012=","","","","","","","","","",""
"00701899999","2013-07-18T04:59:00","0.0","0.0","7018.0","WXPOD 7018","FM-15","4","30.12","75","79","","","","","89","","","","","","340","","5","","","","","","","","","","","","","","","","","","","","","","","","","","","","","","","","","","","","","","","","","","","","","","","","","","","","","","","","","","","","","","","","","","","","","","","","","","","","","","","","","","","","","","","","","","","MET069MOBOB0 METAR 7018 //000 000000 180459Z AUTO 34004KT //// 26/24 A3012=","","","","","","","","","",""
"00701899999","2013-07-18T05:29:00","0.0","0.0","7018.0","WXPOD 7018","FM-15","4","30.11","73","79","","","","","84","","","","","","320","","5","","","","","","","","","","","","","","","","","","","","","","","","","","","","","","","","","","","","","","","","","","","","","","","","","","","","","","","","","","","","","","","","","","","","","","","","","","","","","","","","","","","","","","","","","","","MET069MOBOB0 METAR 7018 //000 000000 180529Z AUTO 32004KT //// 26/23 A3011=","","","","","","","","","",""
"00701899999","2013-07-18T05:59:00","0.0","0.0","7018.0","WXPOD 7018","FM-15","4","30.11","73","79","","","","","84","","","","","","300","","5","","","","","","","","","","","","","","","","","","","","","","","","","","","","","","","","","","","","","","","","","","","","","","","","","","","","","","","","","","","","","","","","","","","","","","","","","","","","","","","","","","","","","","","","","","","MET069MOBOB0 METAR 7018 //000 000000 180559Z AUTO 30004KT //// 26/23 A3011=","","","","","","","","","",""
"00701899999","2013-07-18T06:29:00","0.0","0.0","7018.0","WXPOD 7018","FM-15","4","30.11","73","79","","","","","84","","","","","","320","","6","","","","","","","","","","","","","","","","","","","","","","","","","","","","","","","","","","","","","","","","","","","","","","","","","","","","","","","","","","","","","","","","","","","","","","","","","","","","","","","","","","","","","","","","","","","MET069MOBOB0 METAR 7018 //000 000000 180629Z AUTO 32005KT //// 26/23 A3011=","","","","","","","","","",""
"00701899999","2013-07-18T06:59:00","0.0","0.0","7018.0","WXPOD 7018","FM-15","4","30.10","73","79","","","","","84","","","","","","310","","7","","","","","","","","","","","","","","","","","","","","","","","","","","","","","","","","","","","","","","","","","","","","","","","","","","","","","","","","","","","","","","","","","","","","","","","","","","","","","","","","","","","","","","","","","","","MET069MOBOB0 METAR 7018 //000 000000 180659Z AUTO 31006KT //// 26/23 A3010=","","","","","","","","","",""
"00701899999","2013-07-18T07:29:00","0.0","0.0","7018.0","WXPOD 7018","FM-15","4","30.10","72","79","","","","","79","","","","","","330","","3","","","","","","","","","","","","","","","","","","","","","","","","","","","","","","","","","","","","","","","","","","","","","","","","","","","","","","","","","","","","","","","","","","","","","","","","","","","","","","","","","","","","","","","","","","","MET069MOBOB0 METAR 7018 //000 000000 180729Z AUTO 33003KT //// 26/22 A3010=","","","","","","","","","",""
"00701899999","2013-07-18T09:29:00","0.0","0.0","7018.0","WXPOD 7018","FM-15","4","30.09","73","77","","","","","89","","","","","","360","","6","","","","","","","","","","","","","","","","","","","","","","","","","","","","","","","","","","","","","","","","","","","","","","","","","","","","","","","","","","","","","","","","","","","","","","","","","","","","","","","","","","","","","","","","","","","MET069MOBOB0 METAR 7018 //000 000000 180929Z AUTO 36005KT //// 25/23 A3009=","","","","","","","","","",""
"00701899999","2013-07-18T10:29:00","0.0","0.0","7018.0","WXPOD 7018","FM-15","4","30.10","72","77","","","","","83","","","","","","330","","5","","","","","","","","","","","","","","","","","","","","","","","","","","","","","","","","","","","","","","","","","","","","","","","","","","","","","","","","","","","","","","","","","","","","","","","","","","","","","","","","","","","","","","","","","","","MET069MOBOB0 METAR 7018 //000 000000 181029Z AUTO 33004KT //// 25/22 A3010=","","","","","","","","","",""
"00701899999","2013-07-18T10:59:00","0.0","0.0","7018.0","WXPOD 7018","FM-15","4","30.10","73","79","","","","","84","","","","","","330","","6","","","","","","","","","","","","","","","","","","","","","","","","","","","","","","","","","","","","","","","","","","","","","","","","","","","","","","","","","","","","","","","","","","","","","","","","","","","","","","","","","","","","","","","","","","","MET069MOBOB0 METAR 7018 //000 000000 181059Z AUTO 33005KT //// 26/23 A3010=","","","","","","","","","",""
"00701899999","2013-07-18T11:59:00","0.0","0.0","7018.0","WXPOD 7018","FM-15","4","30.11","73","84","","","","","70","","","","","","350","","3","","","","","","","","","","","","","","","","","","","","","","","","","","","","","","","","","","","","","","","","","","","","","","","","","","","","","","","","","","","","","","","","","","","","","","","","","","","","","","","","","","","","","","","","","","","MET069MOBOB0 METAR 7018 //000 000000 181159Z AUTO 35003KT //// 29/23 A3011=","","","","","","","","","",""
"00701899999","2013-07-18T12:29:00","0.0","0.0","7018.0","WXPOD 7018","FM-15","4","30.11","75","86","","","","","70","","","","","","320","","6","","","","","","","","","","","","","","","","","","","","","","","","","","","","","","","","","","","","","","","","","","","","","","","","","","","","","","","","","","","","","","","","","","","","","","","","","","","","","","","","","","","","","","","","","","","MET069MOBOB0 METAR 7018 //000 000000 181229Z AUTO 32005KT //// 30/24 A3011=","","","","","","","","","",""
"00701899999","2013-07-18T14:59:00","0.0","0.0","7018.0","WXPOD 7018","FM-15","4","30.11","75","95","","","","","53","","","","","","230","","1","","","","","","","","","","","","","","","","","","","","","","","","","","","","","","","","","","","","","","","","","","","","","","","","","","","","","","","","","","","","","","","","","","","","","","","","","","","","","","","","","","","","","","","","","","","MET069MOBOB0 METAR 7018 //000 000000 181459Z AUTO 23001KT //// 35/24 A3011=","","","","","","","","","",""
"00701899999","2013-07-18T16:59:00","0.0","0.0","7018.0","WXPOD 7018","FM-15","4","30.11","79","90","","","","","71","","","","","","160","","3","","","","","","","","","","","","","","","","","","","","","","","","","","","","","","","","","","","","","","","","","","","","","","","","","","","","","","","","","","","","","","","","","","","","","","","","","","","","","","","","","","","","","","","","","","","MET069MOBOB0 METAR 7018 //000 000000 181659Z AUTO 16003KT //// 32/26 A3011=","","","","","","","","","",""
"00701899999","2013-07-18T17:29:00","0.0","0.0","7018.0","WXPOD 7018","FM-15","4","30.10","81","90","","","","","75","","","","","","180","","5","","","","","","","","","","","","","","","","","","","","","","","","","","","","","","","","","","","","","","","","","","","","","","","","","","","","","","","","","","","","","","","","","","","","","","","","","","","","","","","","","","","","","","","","","","","MET069MOBOB0 METAR 7018 //000 000000 181729Z AUTO 18004KT //// 32/27 A3010=","","","","","","","","","",""
"00701899999","2013-07-18T17:59:00","0.0","0.0","7018.0","WXPOD 7018","FM-15","4","30.09","81","90","","","","","75","","","","","","210","","8","","","","","","","","","","","","","","","","","","","","","","","","","","","","","","","","","","","","","","","","","","","","","","","","","","","","","","","","","","","","","","","","","","","","","","","","","","","","","","","","","","","","","","","","","","","MET069MOBOB0 METAR 7018 //000 000000 181759Z AUTO 21007KT //// 32/27 A3009=","","","","","","","","","",""
"00701899999","2013-07-18T18:29:00","0.0","0.0","7018.0","WXPOD 7018","FM-15","4","30.09","81","88","","","","","79","","","","","","VRB","","6","","","","","","","","","","","","","","","","","","","","","","","","","","","","","","","","","","","","","","","","","","","","","","","","","","","","","","","","","","","","","","","","","","","","","","","","","","","","","","","","","","","","","","","","","","","MET069MOBOB0 METAR 7018 //000 000000 181829Z AUTO VRB05KT //// 31/27 A3009=","","","","","","","","","",""
"00701899999","2013-07-18T18:59:00","0.0","0.0","7018.0","WXPOD 7018","FM-15","4","30.08","79","88","","","","","75","","","","","","VRB","","5","","","","","","","","","","","","","","","","","","","","","","","","","","","","","","","","","","","","","","","","","","","","","","","","","","","","","","","","","","","","","","","","","","","","","","","","","","","","","","","","","","","","","","","","","","","MET069MOBOB0 METAR 7018 //000 000000 181859Z AUTO VRB04KT //// 31/26 A3008=","","","","","","","","","",""
"00701899999","2013-07-18T19:29:00","0.0","0.0","7018.0","WXPOD 7018","FM-15","4","30.07","79","88","","","","","75","","","","","","VRB","","3","","","","","","","","","","","","","","","","","","","","","","","","","","","","","","","","","","","","","","","","","","","","","","","","","","","","","","","","","","","","","","","","","","","","","","","","","","","","","","","","","","","","","","","","","","","MET069MOBOB0 METAR 7018 //000 000000 181929Z AUTO VRB03KT //// 31/26 A3007=","","","","","","","","","",""
"00701899999","2013-07-18T19:59:00","0.0","0.0","7018.0","WXPOD 7018","FM-15","4","30.06","79","88","","","","","75","","","","","","VRB","","6","","","","","","","","","","","","","","","","","","","","","","","","","","","","","","","","","","","","","","","","","","","","","","","","","","","","","","","","","","","","","","","","","","","","","","","","","","","","","","","","","","","","","","","","","","","MET069MOBOB0 METAR 7018 //000 000000 181959Z AUTO VRB05KT //// 31/26 A3006=","","","","","","","","","",""
"00701899999","2013-07-18T20:29:00","0.0","0.0","7018.0","WXPOD 7018","FM-15","4","30.06","79","88","","","","","75","","","","","","VRB","","5","","","","","","","","","","","","","","","","","","","","","","","","","","","","","","","","","","","","","","","","","","","","","","","","","","","","","","","","","","","","","","","","","","","","","","","","","","","","","","","","","","","","","","","","","","","MET069MOBOB0 METAR 7018 //000 000000 182029Z AUTO VRB04KT //// 31/26 A3006=","","","","","","","","","",""
"00701899999","2013-07-18T20:59:00","0.0","0.0","7018.0","WXPOD 7018","FM-15","4","30.06","79","88","","","","","75","","","","","","VRB","","3","","","","","","","","","","","","","","","","","","","","","","","","","","","","","","","","","","","","","","","","","","","","","","","","","","","","","","","","","","","","","","","","","","","","","","","","","","","","","","","","","","","","","","","","","","","MET069MOBOB0 METAR 7018 //000 000000 182059Z AUTO VRB03KT //// 31/26 A3006=","","","","","","","","","",""
"00701899999","2013-07-18T21:29:00","0.0","0.0","7018.0","WXPOD 7018","FM-15","4","30.04","77","86","","","","","75","","","","","","VRB","","3","","","","","","","","","","","","","","","","","","","","","","","","","","","","","","","","","","","","","","","","","","","","","","","","","","","","","","","","","","","","","","","","","","","","","","","","","","","","","","","","","","","","","","","","","","","MET069MOBOB0 METAR 7018 //000 000000 182129Z AUTO VRB03KT //// 30/25 A3004=","","","","","","","","","",""
"00701899999","2013-07-18T21:59:00","0.0","0.0","7018.0","WXPOD 7018","FM-15","4","30.04","77","86","","","","","75","","","","","","VRB","","5","","","","","","","","","","","","","","","","","","","","","","","","","","","","","","","","","","","","","","","","","","","","","","","","","","","","","","","","","","","","","","","","","","","","","","","","","","","","","","","","","","","","","","","","","","","MET069MOBOB0 METAR 7018 //000 000000 182159Z AUTO VRB04KT //// 30/25 A3004=","","","","","","","","","",""
"00701899999","2013-07-18T22:29:00","0.0","0.0","7018.0","WXPOD 7018","FM-15","4","30.04","77","84","","","","","79","","","","","","VRB","","3","","","","","","","","","","","","","","","","","","","","","","","","","","","","","","","","","","","","","","","","","","","","","","","","","","","","","","","","","","","","","","","","","","","","","","","","","","","","","","","","","","","","","","","","","","","MET069MOBOB0 METAR 7018 //000 000000 182229Z AUTO VRB03KT //// 29/25 A3004=","","","","","","","","","",""
"00701899999","2013-07-18T22:59:00","0.0","0.0","7018.0","WXPOD 7018","FM-15","4","30.04","77","84","","","","","79","","","","","","VRB","","7","","","","","","","","","","","","","","","","","","","","","","","","","","","","","","","","","","","","","","","","","","","","","","","","","","","","","","","","","","","","","","","","","","","","","","","","","","","","","","","","","","","","","","","","","","","MET069MOBOB0 METAR 7018 //000 000000 182259Z AUTO VRB06KT //// 29/25 A3004=","","","","","","","","","",""
"00701899999","2013-07-18T23:29:00","0.0","0.0","7018.0","WXPOD 7018","FM-15","4","30.05","77","82","","","","","84","","","","","","VRB","","5","","","","","","","","","","","","","","","","","","","","","","","","","","","","","","","","","","","","","","","","","","","","","","","","","","","","","","","","","","","","","","","","","","","","","","","","","","","","","","","","","","","","","","","","","","","MET069MOBOB0 METAR 7018 //000 000000 182329Z AUTO VRB04KT //// 28/25 A3005=","","","","","","","","","",""
"00701899999","2013-07-18T23:59:00","0.0","0.0","7018.0","WXPOD 7018","FM-15","4","30.04","75","84","","","","","74","","","","","","VRB","","2","","","","","","","","","","","","","","","","","","","","","","","","","","","","","","","","","","","","","","","","","","","","","","","","","","","","","","","","","","","","","","","","","","","","","","","","","","","","","","","","","","","","","","","","","","","MET069MOBOB0 METAR 7018 //000 000000 182359Z AUTO VRB02KT //// 29/24 A3004=","","","","","","","","","",""
"00701899999","2013-07-19T00:29:00","0.0","0.0","7018.0","WXPOD 7018","FM-15","4","30.05","75","82","","","","","79","","","","","","VRB","","2","","","","","","","","","","","","","","","","","","","","","","","","","","","","","","","","","","","","","","","","","","","","","","","","","","","","","","","","","","","","","","","","","","","","","","","","","","","","","","","","","","","","","","","","","","","MET069MOBOB0 METAR 7018 //000 000000 190029Z AUTO VRB02KT //// 28/24 A3005=","","","","","","","","","",""
"00701899999","2013-07-19T00:59:00","0.0","0.0","7018.0","WXPOD 7018","FM-15","4","30.06","73","82","","","","","74","","","","","","VRB","","1","","","","","","","","","","","","","","","","","","","","","","","","","","","","","","","","","","","","","","","","","","","","","","","","","","","","","","","","","","","","","","","","","","","","","","","","","","","","","","","","","","","","","","","","","","","MET069MOBOB0 METAR 7018 //000 000000 190059Z AUTO VRB01KT //// 28/23 A3006=","","","","","","","","","",""
"00701899999","2013-07-19T01:29:00","0.0","0.0","7018.0","WXPOD 7018","FM-15","4","30.07","73","82","","","","","74","","","","","","000","","0","","","","","","","","","","","","","","","","","","","","","","","","","","","","","","","","","","","","","","","","","","","","","","","","","","","","","","","","","","","","","","","","","","","","","","","","","","","","","","","","","","","","","","","","","","","MET069MOBOB0 METAR 7018 //000 000000 190129Z AUTO 00000KT //// 28/23 A3007=","","","","","","","","","",""
"00701899999","2013-07-19T01:59:00","0.0","0.0","7018.0","WXPOD 7018","FM-15","4","30.08","75","82","","","","","79","","","","","","VRB","","2","","","","","","","","","","","","","","","","","","","","","","","","","","","","","","","","","","","","","","","","","","","","","","","","","","","","","","","","","","","","","","","","","","","","","","","","","","","","","","","","","","","","","","","","","","","MET069MOBOB0 METAR 7018 //000 000000 190159Z AUTO VRB02KT //// 28/24 A3008=","","","","","","","","","",""
"00701899999","2013-07-19T02:29:00","0.0","0.0","7018.0","WXPOD 7018","FM-15","4","30.08","75","82","","","","","79","","","","","","VRB","","3","","","","","","","","","","","","","","","","","","","","","","","","","","","","","","","","","","","","","","","","","","","","","","","","","","","","","","","","","","","","","","","","","","","","","","","","","","","","","","","","","","","","","","","","","","","MET069MOBOB0 METAR 7018 //000 000000 190229Z AUTO VRB03KT //// 28/24 A3008=","","","","","","","","","",""
"00701899999","2013-07-19T02:59:00","0.0","0.0","7018.0","WXPOD 7018","FM-15","4","30.07","75","82","","","","","79","","","","","","VRB","","3","","","","","","","","","","","","","","","","","","","","","","","","","","","","","","","","","","","","","","","","","","","","","","","","","","","","","","","","","","","","","","","","","","","","","","","","","","","","","","","","","","","","","","","","","","","MET069MOBOB0 METAR 7018 //000 000000 190259Z AUTO VRB03KT //// 28/24 A3007=","","","","","","","","","",""
"00701899999","2013-07-19T03:29:00","0.0","0.0","7018.0","WXPOD 7018","FM-15","4","30.07","77","82","","","","","84","","","","","","VRB","","3","","","","","","","","","","","","","","","","","","","","","","","","","","","","","","","","","","","","","","","","","","","","","","","","","","","","","","","","","","","","","","","","","","","","","","","","","","","","","","","","","","","","","","","","","","","MET069MOBOB0 METAR 7018 //000 000000 190329Z AUTO VRB03KT //// 28/25 A3007=","","","","","","","","","",""
"00701899999","2013-07-19T03:59:00","0.0","0.0","7018.0","WXPOD 7018","FM-15","4","30.07","75","81","","","","","84","","","","","","VRB","","2","","","","","","","","","","","","","","","","","","","","","","","","","","","","","","","","","","","","","","","","","","","","","","","","","","","","","","","","","","","","","","","","","","","","","","","","","","","","","","","","","","","","","","","","","","","MET069MOBOB0 METAR 7018 //000 000000 190359Z AUTO VRB02KT //// 27/24 A3007=","","","","","","","","","",""
"00701899999","2013-07-19T04:29:00","0.0","0.0","7018.0","WXPOD 7018","FM-15","4","30.06","77","81","","","","","89","","","","","","VRB","","2","","","","","","","","","","","","","","","","","","","","","","","","","","","","","","","","","","","","","","","","","","","","","","","","","","","","","","","","","","","","","","","","","","","","","","","","","","","","","","","","","","","","","","","","","","","MET069MOBOB0 METAR 7018 //000 000000 190429Z AUTO VRB02KT //// 27/25 A3006=","","","","","","","","","",""
"00701899999","2013-07-19T04:59:00","0.0","0.0","7018.0","WXPOD 7018","FM-15","4","30.06","77","81","","","","","89","","","","","","VRB","","2","","","","","","","","","","","","","","","","","","","","","","","","","","","","","","","","","","","","","","","","","","","","","","","","","","","","","","","","","","","","","","","","","","","","","","","","","","","","","","","","","","","","","","","","","","","MET069MOBOB0 METAR 7018 //000 000000 190459Z AUTO VRB02KT //// 27/25 A3006=","","","","","","","","","",""
"00701899999","2013-07-19T05:29:00","0.0","0.0","7018.0","WXPOD 7018","FM-15","4","30.05","77","81","","","","","89","","","","","","VRB","","1","","","","","","","","","","","","","","","","","","","","","","","","","","","","","","","","","","","","","","","","","","","","","","","","","","","","","","","","","","","","","","","","","","","","","","","","","","","","","","","","","","","","","","","","","","","MET069MOBOB0 METAR 7018 //000 000000 190529Z AUTO VRB01KT //// 27/25 A3005=","","","","","","","","","",""
"00701899999","2013-07-19T06:00:00","0.0","0.0","7018.0","WXPOD 7018","FM-15","4","30.05","77","81","","","","","89","","","","","","VRB","","5","","","","","","","","","","","","","","","","","","","","","","","","","","","","","","","","","","","","","","","","","","","","","","","","","","","","","","","","","","","","","","","","","","","","","","","","","","","","","","","","","","","","","","","","","","","MET069MOBOB0 METAR 7018 //000 000000 190600Z AUTO VRB04KT //// 27/25 A3005=","","","","","","","","","",""
"00701899999","2013-07-19T06:29:00","0.0","0.0","7018.0","WXPOD 7018","FM-15","4","30.04","75","81","","","","","84","","","","","","290","","7","","","","","","","","","","","","","","","","","","","","","","","","","","","","","","","","","","","","","","","","","","","","","","","","","","","","","","","","","","","","","","","","","","","","","","","","","","","","","","","","","","","","","","","","","","","MET069MOBOB0 METAR 7018 //000 000000 190629Z AUTO 29006KT //// 27/24 A3004=","","","","","","","","","",""
"00701899999","2013-07-19T06:59:00","0.0","0.0","7018.0","WXPOD 7018","FM-15","4","30.04","75","79","","","","","89","","","","","","VRB","","7","","","","","","","","","","","","","","","","","","","","","","","","","","","","","","","","","","","","","","","","","","","","","","","","","","","","","","","","","","","","","","","","","","","","","","","","","","","","","","","","","","","","","","","","","","","MET069MOBOB0 METAR 7018 //000 000000 190659Z AUTO VRB06KT //// 26/24 A3004=","","","","","","","","","",""
"00701899999","2013-07-19T07:29:00","0.0","0.0","7018.0","WXPOD 7018","FM-15","4","30.03","75","79","","","","","89","","","","","","VRB","","7","","","","","","","","","","","","","","","","","","","","","","","","","","","","","","","","","","","","","","","","","","","","","","","","","","","","","","","","","","","","","","","","","","","","","","","","","","","","","","","","","","","","","","","","","","","MET069MOBOB0 METAR 7018 //000 000000 190729Z AUTO VRB06KT //// 26/24 A3003=","","","","","","","","","",""
"00701899999","2013-07-19T07:59:00","0.0","0.0","7018.0","WXPOD 7018","FM-15","4","30.03","75","79","","","","","89","","","","","","VRB","","7","","","","","","","","","","","","","","","","","","","","","","","","","","","","","","","","","","","","","","","","","","","","","","","","","","","","","","","","","","","","","","","","","","","","","","","","","","","","","","","","","","","","","","","","","","","MET069MOBOB0 METAR 7018 //000 000000 190759Z AUTO VRB06KT //// 26/24 A3003=","","","","","","","","","",""
"00701899999","2013-07-19T08:29:00","0.0","0.0","7018.0","WXPOD 7018","FM-15","4","30.03","75","79","","","","","89","","","","","","VRB","","5","","","","","","","","","","","","","","","","","","","","","","","","","","","","","","","","","","","","","","","","","","","","","","","","","","","","","","","","","","","","","","","","","","","","","","","","","","","","","","","","","","","","","","","","","","","MET069MOBOB0 METAR 7018 //000 000000 190829Z AUTO VRB04KT //// 26/24 A3003=","","","","","","","","","",""
"00701899999","2013-07-19T08:59:00","0.0","0.0","7018.0","WXPOD 7018","FM-15","4","30.03","75","79","","","","","89","","","","","","300","","6","","","","","","","","","","","","","","","","","","","","","","","","","","","","","","","","","","","","","","","","","","","","","","","","","","","","","","","","","","","","","","","","","","","","","","","","","","","","","","","","","","","","","","","","","","","MET069MOBOB0 METAR 7018 //000 000000 190859Z AUTO 30005KT //// 26/24 A3003=","","","","","","","","","",""
"00701899999","2013-07-19T09:29:00","0.0","0.0","7018.0","WXPOD 7018","FM-15","4","30.03","77","79","","","","","94","","","","","","300","","6","","","","","","","","","","","","","","","","","","","","","","","","","","","","","","","","","","","","","","","","","","","","","","","","","","","","","","","","","","","","","","","","","","","","","","","","","","","","","","","","","","","","","","","","","","","MET069MOBOB0 METAR 7018 //000 000000 190929Z AUTO 30005KT //// 26/25 A3003=","","","","","","","","","",""
"00701899999","2013-07-19T09:59:00","0.0","0.0","7018.0","WXPOD 7018","FM-15","4","30.04","75","77","","","","","94","","","","","","VRB","","7","","","","","","","","","","","","","","","","","","","","","","","","","","","","","","","","","","","","","","","","","","","","","","","","","","","","","","","","","","","","","","","","","","","","","","","","","","","","","","","","","","","","","","","","","","","MET069MOBOB0 METAR 7018 //000 000000 190959Z AUTO VRB06KT //// 25/24 A3004=","","","","","","","","","",""
"00701899999","2013-07-19T10:29:00","0.0","0.0","7018.0","WXPOD 7018","FM-15","4","30.04","75","77","","","","","94","","","","","","VRB","","6","","","","","","","","","","","","","","","","","","","","","","","","","","","","","","","","","","","","","","","","","","","","","","","","","","","","","","","","","","","","","","","","","","","","","","","","","","","","","","","","","","","","","","","","","","","MET069MOBOB0 METAR 7018 //000 000000 191029Z AUTO VRB05KT //// 25/24 A3004=","","","","","","","","","",""
"00701899999","2013-07-19T10:59:00","0.0","0.0","7018.0","WXPOD 7018","FM-15","4","30.04","75","79","","","","","89","","","","","","300","","8","","","","","","","","","","","","","","","","","","","","","","","","","","","","","","","","","","","","","","","","","","","","","","","","","","","","","","","","","","","","","","","","","","","","","","","","","","","","","","","","","","","","","","","","","","","MET069MOBOB0 METAR 7018 //000 000000 191059Z AUTO 30007KT //// 26/24 A3004=","","","","","","","","","",""
"00701899999","2013-07-19T11:29:00","0.0","0.0","7018.0","WXPOD 7018","FM-15","4","30.05","77","81","","","","","89","","","","","","VRB","","6","","","","","","","","","","","","","","","","","","","","","","","","","","","","","","","","","","","","","","","","","","","","","","","","","","","","","","","","","","","","","","","","","","","","","","","","","","","","","","","","","","","","","","","","","","","MET069MOBOB0 METAR 7018 //000 000000 191129Z AUTO VRB05KT //// 27/25 A3005=","","","","","","","","","",""
"00701899999","2013-07-19T11:59:00","0.0","0.0","7018.0","WXPOD 7018","FM-15","4","30.06","77","82","","","","","84","","","","","","VRB","","5","","","","","","","","","","","","","","","","","","","","","","","","","","","","","","","","","","","","","","","","","","","","","","","","","","","","","","","","","","","","","","","","","","","","","","","","","","","","","","","","","","","","","","","","","","","MET069MOBOB0 METAR 7018 //000 000000 191159Z AUTO VRB04KT //// 28/25 A3006=","","","","","","","","","",""
"00701899999","2013-07-19T12:29:00","0.0","0.0","7018.0","WXPOD 7018","FM-15","4","30.06","77","84","","","","","79","","","","","","VRB","","5","","","","","","","","","","","","","","","","","","","","","","","","","","","","","","","","","","","","","","","","","","","","","","","","","","","","","","","","","","","","","","","","","","","","","","","","","","","","","","","","","","","","","","","","","","","MET069MOBOB0 METAR 7018 //000 000000 191229Z AUTO VRB04KT //// 29/25 A3006=","","","","","","","","","",""
"00701899999","2013-07-19T12:59:00","0.0","0.0","7018.0","WXPOD 7018","FM-15","4","30.06","77","86","","","","","75","","","","","","VRB","","5","","","","","","","","","","","","","","","","","","","","","","","","","","","","","","","","","","","","","","","","","","","","","","","","","","","","","","","","","","","","","","","","","","","","","","","","","","","","","","","","","","","","","","","","","","","MET069MOBOB0 METAR 7018 //000 000000 191259Z AUTO VRB04KT //// 30/25 A3006=","","","","","","","","","",""
"00701899999","2013-07-19T13:29:00","0.0","0.0","7018.0","WXPOD 7018","FM-15","4","30.06","77","88","","","","","70","","","","","","VRB","","6","","","","","","","","","","","","","","","","","","","","","","","","","","","","","","","","","","","","","","","","","","","","","","","","","","","","","","","","","","","","","","","","","","","","","","","","","","","","","","","","","","","","","","","","","","","MET069MOBOB0 METAR 7018 //000 000000 191329Z AUTO VRB05KT //// 31/25 A3006=","","","","","","","","","",""
"00701899999","2013-07-19T13:59:00","0.0","0.0","7018.0","WXPOD 7018","FM-15","4","30.06","77","90","","","","","66","","","","","","VRB","","5","","","","","","","","","","","","","","","","","","","","","","","","","","","","","","","","","","","","","","","","","","","","","","","","","","","","","","","","","","","","","","","","","","","","","","","","","","","","","","","","","","","","","","","","","","","MET069MOBOB0 METAR 7018 //000 000000 191359Z AUTO VRB04KT //// 32/25 A3006=","","","","","","","","","",""
"00701899999","2013-07-19T14:29:00","0.0","0.0","7018.0","WXPOD 7018","FM-15","4","30.05","79","91","","","","","67","","","","","","VRB","","5","","","","","","","","","","","","","","","","","","","","","","","","","","","","","","","","","","","","","","","","","","","","","","","","","","","","","","","","","","","","","","","","","","","","","","","","","","","","","","","","","","","","","","","","","","","MET069MOBOB0 METAR 7018 //000 000000 191429Z AUTO VRB04KT //// 33/26 A3005=","","","","","","","","","",""
"00701899999","2013-07-29T15:29:00","0.0","0.0","7018.0","WXPOD 7018","FM-15","4","30.07","75","79","","","","","89","","","","","","VRB","","3","","","","","","","","","","","","","","","","","","","","","","","","","","","","","","","","","","","","","","","","","","","","","","","","","","","","","","","","","","","","","","","","","","","","","","","","","","","","","","","","","","","","","","","","","","","MET069MOBOB0 METAR 7018 //000 000000 291529Z AUTO VRB03KT //// 26/24 A3007=","","","","","","","","","",""
"00701899999","2013-07-29T15:44:00","0.0","0.0","7018.0","WXPOD 7018","FM-15","4","30.07","75","79","","","","","89","","","","","","VRB","","2","","","","","","","","","","","","","","","","","","","","","","","","","","","","","","","","","","","","","","","","","","","","","","","","","","","","","","","","","","","","","","","","","","","","","","","","","","","","","","","","","","","","","","","","","","","MET069MOBOB0 METAR 7018 //000 000000 291544Z AUTO VRB02KT //// 26/24 A3007=","","","","","","","","","",""
"00701899999","2013-07-29T15:59:00","0.0","0.0","7018.0","WXPOD 7018","FM-15","4","30.07","77","79","","","","","94","","","","","","VRB","","5","","","","","","","","","","","","","","","","","","","","","","","","","","","","","","","","","","","","","","","","","","","","","","","","","","","","","","","","","","","","","","","","","","","","","","","","","","","","","","","","","","","","","","","","","","","MET069MOBOB0 METAR 7018 //000 000000 291559Z AUTO VRB04KT //// 26/25 A3007=","","","","","","","","","",""
"00701899999","2013-07-29T16:14:00","0.0","0.0","7018.0","WXPOD 7018","FM-15","4","30.07","77","79","","","","","94","","","","","","VRB","","3","","","","","","","","","","","","","","","","","","","","","","","","","","","","","","","","","","","","","","","","","","","","","","","","","","","","","","","","","","","","","","","","","","","","","","","","","","","","","","","","","","","","","","","","","","","MET069MOBOB0 METAR 7018 //000 000000 291614Z AUTO VRB03KT //// 26/25 A3007=","","","","","","","","","",""
"00701899999","2013-07-29T16:30:00","0.0","0.0","7018.0","WXPOD 7018","FM-15","4","30.07","73","81","","","","","79","","","","","","VRB","","3","","","","","","","","","","","","","","","","","","","","","","","","","","","","","","","","","","","","","","","","","","","","","","","","","","","","","","","","","","","","","","","","","","","","","","","","","","","","","","","","","","","","","","","","","","","MET069MOBOB0 METAR 7018 //000 000000 291630Z AUTO VRB03KT //// 27/23 A3007=","","","","","","","","","",""
"00701899999","2013-07-29T17:29:00","0.0","0.0","7018.0","WXPOD 7018","FM-15","4","30.07","73","82","","","","","74","","","","","","VRB","","5","","","","","","","","","","","","","","","","","","","","","","","","","","","","","","","","","","","","","","","","","","","","","","","","","","","","","","","","","","","","","","","","","","","","","","","","","","","","","","","","","","","","","","","","","","","MET069MOBOB0 METAR 7018 //000 000000 291729Z AUTO VRB04KT //// 28/23 A3007=","","","","","","","","","",""
"00701899999","2013-07-29T17:44:00","0.0","0.0","7018.0","WXPOD 7018","FM-15","4","30.08","73","81","","","","","79","","","","","","VRB","","6","","","","","","","","","","","","","","","","","","","","","","","","","","","","","","","","","","","","","","","","","","","","","","","","","","","","","","","","","","","","","","","","","","","","","","","","","","","","","","","","","","","","","","","","","","","MET069MOBOB0 METAR 7018 //000 000000 291744Z AUTO VRB05KT //// 27/23 A3008=","","","","","","","","","",""
"00701899999","2013-07-29T18:29:00","0.0","0.0","7018.0","WXPOD 7018","FM-15","4","30.07","73","82","","","","","74","","","","","","VRB","","6","","","","","","","","","","","","","","","","","","","","","","","","","","","","","","","","","","","","","","","","","","","","","","","","","","","","","","","","","","","","","","","","","","","","","","","","","","","","","","","","","","","","","","","","","","","MET069MOBOB0 METAR 7018 //000 000000 291829Z AUTO VRB05KT //// 28/23 A3007=","","","","","","","","","",""
"00701899999","2013-07-29T18:59:00","0.0","0.0","7018.0","WXPOD 7018","FM-15","4","30.07","73","82","","","","","74","","","","","","VRB","","6","","","","","","","","","","","","","","","","","","","","","","","","","","","","","","","","","","","","","","","","","","","","","","","","","","","","","","","","","","","","","","","","","","","","","","","","","","","","","","","","","","","","","","","","","","","MET069MOBOB0 METAR 7018 //000 000000 291859Z AUTO VRB05KT //// 28/23 A3007=","","","","","","","","","",""
"00701899999","2013-07-29T19:59:00","0.0","0.0","7018.0","WXPOD 7018","FM-15","4","30.06","70","82","","","","","66","","","","","","VRB","","6","","","","","","","","","","","","","","","","","","","","","","","","","","","","","","","","","","","","","","","","","","","","","","","","","","","","","","","","","","","","","","","","","","","","","","","","","","","","","","","","","","","","","","","","","","","MET069MOBOB0 METAR 7018 //000 000000 291959Z AUTO VRB05KT //// 28/21 A3006=","","","","","","","","","",""
"00701899999","2013-07-29T20:14:00","0.0","0.0","7018.0","WXPOD 7018","FM-15","4","30.07","70","84","","","","","62","","","","","","VRB","","3","","","","","","","","","","","","","","","","","","","","","","","","","","","","","","","","","","","","","","","","","","","","","","","","","","","","","","","","","","","","","","","","","","","","","","","","","","","","","","","","","","","","","","","","","","","MET069MOBOB0 METAR 7018 //000 000000 292014Z AUTO VRB03KT //// 29/21 A3007=","","","","","","","","","",""
"00701899999","2013-07-29T20:29:00","0.0","0.0","7018.0","WXPOD 7018","FM-15","4","30.08","68","84","","","","","58","","","","","","VRB","","3","","","","","","","","","","","","","","","","","","","","","","","","","","","","","","","","","","","","","","","","","","","","","","","","","","","","","","","","","","","","","","","","","","","","","","","","","","","","","","","","","","","","","","","","","","","MET069MOBOB0 METAR 7018 //000 000000 292029Z AUTO VRB03KT //// 29/20 A3008=","","","","","","","","","",""
"00701899999","2013-07-29T21:14:00","0.0","0.0","7018.0","WXPOD 7018","FM-15","4","30.07","66","82","","","","","58","","","","","","VRB","","1","","","","","","","","","","","","","","","","","","","","","","","","","","","","","","","","","","","","","","","","","","","","","","","","","","","","","","","","","","","","","","","","","","","","","","","","","","","","","","","","","","","","","","","","","","","MET069MOBOB0 METAR 7018 //000 000000 292114Z AUTO VRB01KT //// 28/19 A3007=","","","","","","","","","",""
"00701899999","2013-07-29T21:29:00","0.0","0.0","7018.0","WXPOD 7018","FM-15","4","30.08","68","81","","","","","66","","","","","","VRB","","2","","","","","","","","","","","","","","","","","","","","","","","","","","","","","","","","","","","","","","","","","","","","","","","","","","","","","","","","","","","","","","","","","","","","","","","","","","","","","","","","","","","","","","","","","","","MET069MOBOB0 METAR 7018 //000 000000 292129Z AUTO VRB02KT //// 27/20 A3008=","","","","","","","","","",""
"00701899999","2013-07-29T21:59:00","0.0","0.0","7018.0","WXPOD 7018","FM-15","4","30.08","68","81","","","","","66","","","","","","VRB","","2","","","","","","","","","","","","","","","","","","","","","","","","","","","","","","","","","","","","","","","","","","","","","","","","","","","","","","","","","","","","","","","","","","","","","","","","","","","","","","","","","","","","","","","","","","","MET069MOBOB0 METAR 7018 //000 000000 292159Z AUTO VRB02KT //// 27/20 A3008=","","","","","","","","","",""
"00701899999","2013-07-29T22:29:00","0.0","0.0","7018.0","WXPOD 7018","FM-15","4","30.08","70","81","","","","","70","","","","","","VRB","","1","","","","","","","","","","","","","","","","","","","","","","","","","","","","","","","","","","","","","","","","","","","","","","","","","","","","","","","","","","","","","","","","","","","","","","","","","","","","","","","","","","","","","","","","","","","MET069MOBOB0 METAR 7018 //000 000000 292229Z AUTO VRB01KT //// 27/21 A3008=","","","","","","","","","",""
"00701899999","2013-07-29T23:14:00","0.0","0.0","7018.0","WXPOD 7018","FM-15","4","30.07","72","82","","","","","70","","","","","","VRB","","3","","","","","","","","","","","","","","","","","","","","","","","","","","","","","","","","","","","","","","","","","","","","","","","","","","","","","","","","","","","","","","","","","","","","","","","","","","","","","","","","","","","","","","","","","","","MET069MOBOB0 METAR 7018 //000 000000 292314Z AUTO VRB03KT //// 28/22 A3007=","","","","","","","","","",""
"00701899999","2013-07-29T23:29:00","0.0","0.0","7018.0","WXPOD 7018","FM-15","4","30.07","70","81","","","","","70","","","","","","VRB","","2","","","","","","","","","","","","","","","","","","","","","","","","","","","","","","","","","","","","","","","","","","","","","","","","","","","","","","","","","","","","","","","","","","","","","","","","","","","","","","","","","","","","","","","","","","","MET069MOBOB0 METAR 7018 //000 000000 292329Z AUTO VRB02KT //// 27/21 A3007=","","","","","","","","","",""
"00701899999","2013-07-30T00:14:00","0.0","0.0","7018.0","WXPOD 7018","FM-15","4","30.09","72","77","","","","","83","","","","","","VRB","","3","","","","","","","","","","","","","","","","","","","","","","","","","","","","","","","","","","","","","","","","","","","","","","","","","","","","","","","","","","","","","","","","","","","","","","","","","","","","","","","","","","","","","","","","","","","MET069MOBOB0 METAR 7018 //000 000000 300014Z AUTO VRB03KT //// 25/22 A3009=","","","","","","","","","",""
"00701899999","2013-07-30T00:29:00","0.0","0.0","7018.0","WXPOD 7018","FM-15","4","30.09","70","77","","","","","79","","","","","","VRB","","3","","","","","","","","","","","","","","","","","","","","","","","","","","","","","","","","","","","","","","","","","","","","","","","","","","","","","","","","","","","","","","","","","","","","","","","","","","","","","","","","","","","","","","","","","","","MET069MOBOB0 METAR 7018 //000 000000 300029Z AUTO VRB03KT //// 25/21 A3009=","","","","","","","","","",""
"00701899999","2013-07-30T00:59:00","0.0","0.0","7018.0","WXPOD 7018","FM-15","4","30.11","72","77","","","","","83","","","","","","VRB","","3","","","","","","","","","","","","","","","","","","","","","","","","","","","","","","","","","","","","","","","","","","","","","","","","","","","","","","","","","","","","","","","","","","","","","","","","","","","","","","","","","","","","","","","","","","","MET069MOBOB0 METAR 7018 //000 000000 300059Z AUTO VRB03KT //// 25/22 A3011=","","","","","","","","","",""
"00701899999","2013-07-30T01:14:00","0.0","0.0","7018.0","WXPOD 7018","FM-15","4","30.12","70","77","","","","","79","","","","","","VRB","","2","","","","","","","","","","","","","","","","","","","","","","","","","","","","","","","","","","","","","","","","","","","","","","","","","","","","","","","","","","","","","","","","","","","","","","","","","","","","","","","","","","","","","","","","","","","MET069MOBOB0 METAR 7018 //000 000000 300114Z AUTO VRB02KT //// 25/21 A3012=","","","","","","","","","",""
"00701899999","2013-07-30T01:29:00","0.0","0.0","7018.0","WXPOD 7018","FM-15","4","30.13","70","77","","","","","79","","","","","","VRB","","2","","","","","","","","","","","","","","","","","","","","","","","","","","","","","","","","","","","","","","","","","","","","","","","","","","","","","","","","","","","","","","","","","","","","","","","","","","","","","","","","","","","","","","","","","","","MET069MOBOB0 METAR 7018 //000 000000 300129Z AUTO VRB02KT //// 25/21 A3013=","","","","","","","","","",""
"00701899999","2013-07-30T01:44:00","0.0","0.0","7018.0","WXPOD 7018","FM-15","4","30.13","70","75","","","","","83","","","","","","VRB","","1","","","","","","","","","","","","","","","","","","","","","","","","","","","","","","","","","","","","","","","","","","","","","","","","","","","","","","","","","","","","","","","","","","","","","","","","","","","","","","","","","","","","","","","","","","","MET069MOBOB0 METAR 7018 //000 000000 300144Z AUTO VRB01KT //// 24/21 A3013=","","","","","","","","","",""
"00701899999","2013-07-30T01:59:00","0.0","0.0","7018.0","WXPOD 7018","FM-15","4","30.14","68","75","","","","","78","","","","","","VRB","","2","","","","","","","","","","","","","","","","","","","","","","","","","","","","","","","","","","","","","","","","","","","","","","","","","","","","","","","","","","","","","","","","","","","","","","","","","","","","","","","","","","","","","","","","","","","MET069MOBOB0 METAR 7018 //000 000000 300159Z AUTO VRB02KT //// 24/20 A3014=","","","","","","","","","",""
"00701899999","2013-07-30T02:14:00","0.0","0.0","7018.0","WXPOD 7018","FM-15","4","30.14","70","75","","","","","83","","","","","","VRB","","2","","","","","","","","","","","","","","","","","","","","","","","","","","","","","","","","","","","","","","","","","","","","","","","","","","","","","","","","","","","","","","","","","","","","","","","","","","","","","","","","","","","","","","","","","","","MET069MOBOB0 METAR 7018 //000 000000 300214Z AUTO VRB02KT //// 24/21 A3014=","","","","","","","","","",""
"00701899999","2013-07-30T02:29:00","0.0","0.0","7018.0","WXPOD 7018","FM-15","4","30.14","70","73","","","","","89","","","","","","VRB","","2","","","","","","","","","","","","","","","","","","","","","","","","","","","","","","","","","","","","","","","","","","","","","","","","","","","","","","","","","","","","","","","","","","","","","","","","","","","","","","","","","","","","","","","","","","","MET069MOBOB0 METAR 7018 //000 000000 300229Z AUTO VRB02KT //// 23/21 A3014=","","","","","","","","","",""
"00701899999","2013-07-30T02:59:00","0.0","0.0","7018.0","WXPOD 7018","FM-15","4","30.14","70","73","","","","","89","","","","","","VRB","","1","","","","","","","","","","","","","","","","","","","","","","","","","","","","","","","","","","","","","","","","","","","","","","","","","","","","","","","","","","","","","","","","","","","","","","","","","","","","","","","","","","","","","","","","","","","MET069MOBOB0 METAR 7018 //000 000000 300259Z AUTO VRB01KT //// 23/21 A3014=","","","","","","","","","",""
"00701899999","2013-07-30T03:44:00","0.0","0.0","7018.0","WXPOD 7018","FM-15","4","30.14","70","72","","","","","94","","","","","","VRB","","2","","","","","","","","","","","","","","","","","","","","","","","","","","","","","","","","","","","","","","","","","","","","","","","","","","","","","","","","","","","","","","","","","","","","","","","","","","","","","","","","","","","","","","","","","","","MET069MOBOB0 METAR 7018 //000 000000 300344Z AUTO VRB02KT //// 22/21 A3014=","","","","","","","","","",""
"00701899999","2013-07-30T03:59:00","0.0","0.0","7018.0","WXPOD 7018","FM-15","4","30.15","68","73","","","","","83","","","","","","VRB","","2","","","","","","","","","","","","","","","","","","","","","","","","","","","","","","","","","","","","","","","","","","","","","","","","","","","","","","","","","","","","","","","","","","","","","","","","","","","","","","","","","","","","","","","","","","","MET069MOBOB0 METAR 7018 //000 000000 300359Z AUTO VRB02KT //// 23/20 A3015=","","","","","","","","","",""
"00701899999","2013-07-30T04:14:00","0.0","0.0","7018.0","WXPOD 7018","FM-15","4","30.15","68","73","","","","","83","","","","","","VRB","","3","","","","","","","","","","","","","","","","","","","","","","","","","","","","","","","","","","","","","","","","","","","","","","","","","","","","","","","","","","","","","","","","","","","","","","","","","","","","","","","","","","","","","","","","","","","MET069MOBOB0 METAR 7018 //000 000000 300414Z AUTO VRB03KT //// 23/20 A3015=","","","","","","","","","",""
"00701899999","2013-07-30T04:44:00","0.0","0.0","7018.0","WXPOD 7018","FM-15","4","30.16","68","75","","","","","78","","","","","","VRB","","3","","","","","","","","","","","","","","","","","","","","","","","","","","","","","","","","","","","","","","","","","","","","","","","","","","","","","","","","","","","","","","","","","","","","","","","","","","","","","","","","","","","","","","","","","","","MET069MOBOB0 METAR 7018 //000 000000 300444Z AUTO VRB03KT //// 24/20 A3016=","","","","","","","","","",""
"00701899999","2013-07-30T05:14:00","0.0","0.0","7018.0","WXPOD 7018","FM-15","4","30.15","66","75","","","","","74","","","","","","VRB","","5","","","","","","","","","","","","","","","","","","","","","","","","","","","","","","","","","","","","","","","","","","","","","","","","","","","","","","","","","","","","","","","","","","","","","","","","","","","","","","","","","","","","","","","","","","","MET069MOBOB0 METAR 7018 //000 000000 300514Z AUTO VRB04KT //// 24/19 A3015=","","","","","","","","","",""
"00701899999","2013-07-30T05:29:00","0.0","0.0","7018.0","WXPOD 7018","FM-15","4","30.14","68","75","","","","","78","","","","","","VRB","","5","","","","","","","","","","","","","","","","","","","","","","","","","","","","","","","","","","","","","","","","","","","","","","","","","","","","","","","","","","","","","","","","","","","","","","","","","","","","","","","","","","","","","","","","","","","MET069MOBOB0 METAR 7018 //000 000000 300529Z AUTO VRB04KT //// 24/20 A3014=","","","","","","","","","",""
"00701899999","2013-07-30T06:59:00","0.0","0.0","7018.0","WXPOD 7018","FM-15","4","30.14","68","72","","","","","88","","","","","","VRB","","2","","","","","","","","","","","","","","","","","","","","","","","","","","","","","","","","","","","","","","","","","","","","","","","","","","","","","","","","","","","","","","","","","","","","","","","","","","","","","","","","","","","","","","","","","","","MET069MOBOB0 METAR 7018 //000 000000 300659Z AUTO VRB02KT //// 22/20 A3014=","","","","","","","","","",""
"00701899999","2013-07-30T08:29:00","0.0","0.0","7018.0","WXPOD 7018","FM-15","4","30.14","68","70","","","","","94","","","","","","VRB","","2","","","","","","","","","","","","","","","","","","","","","","","","","","","","","","","","","","","","","","","","","","","","","","","","","","","","","","","","","","","","","","","","","","","","","","","","","","","","","","","","","","","","","","","","","","","MET069MOBOB0 METAR 7018 //000 000000 300829Z AUTO VRB02KT //// 21/20 A3014=","","","","","","","","","",""
"00701899999","2013-07-30T08:59:00","0.0","0.0","7018.0","WXPOD 7018","FM-15","4","30.14","68","70","","","","","94","","","","","","VRB","","2","","","","","","","","","","","","","","","","","","","","","","","","","","","","","","","","","","","","","","","","","","","","","","","","","","","","","","","","","","","","","","","","","","","","","","","","","","","","","","","","","","","","","","","","","","","MET069MOBOB0 METAR 7018 //000 000000 300859Z AUTO VRB02KT //// 21/20 A3014=","","","","","","","","","",""
"00701899999","2013-07-30T09:29:00","0.0","0.0","7018.0","WXPOD 7018","FM-15","4","30.15","68","70","","","","","94","","","","","","VRB","","3","","","","","","","","","","","","","","","","","","","","","","","","","","","","","","","","","","","","","","","","","","","","","","","","","","","","","","","","","","","","","","","","","","","","","","","","","","","","","","","","","","","","","","","","","","","MET069MOBOB0 METAR 7018 //000 000000 300929Z AUTO VRB03KT //// 21/20 A3015=","","","","","","","","","",""
"00701899999","2013-07-30T09:44:00","0.0","0.0","7018.0","WXPOD 7018","FM-15","4","30.16","70","70","","","","","100","","","","","","VRB","","3","","","","","","","","","","","","","","","","","","","","","","","","","","","","","","","","","","","","","","","","","","","","","","","","","","","","","","","","","","","","","","","","","","","","","","","","","","","","","","","","","","","","","","","","","","","MET069MOBOB0 METAR 7018 //000 000000 300944Z AUTO VRB03KT //// 21/21 A3016=","","","","","","","","","",""
"00701899999","2013-07-30T09:59:00","0.0","0.0","7018.0","WXPOD 7018","FM-15","4","30.16","68","70","","","","","94","","","","","","VRB","","2","","","","","","","","","","","","","","","","","","","","","","","","","","","","","","","","","","","","","","","","","","","","","","","","","","","","","","","","","","","","","","","","","","","","","","","","","","","","","","","","","","","","","","","","","","","MET069MOBOB0 METAR 7018 //000 000000 300959Z AUTO VRB02KT //// 21/20 A3016=","","","","","","","","","",""
"00701899999","2013-07-30T10:44:00","0.0","0.0","7018.0","WXPOD 7018","FM-15","4","30.16","68","70","","","","","94","","","","","","VRB","","2","","","","","","","","","","","","","","","","","","","","","","","","","","","","","","","","","","","","","","","","","","","","","","","","","","","","","","","","","","","","","","","","","","","","","","","","","","","","","","","","","","","","","","","","","","","MET069MOBOB0 METAR 7018 //000 000000 301044Z AUTO VRB02KT //// 21/20 A3016=","","","","","","","","","",""
"00701899999","2013-07-30T11:29:00","0.0","0.0","7018.0","WXPOD 7018","FM-15","4","30.17","68","77","","","","","74","","","","","","VRB","","2","","","","","","","","","","","","","","","","","","","","","","","","","","","","","","","","","","","","","","","","","","","","","","","","","","","","","","","","","","","","","","","","","","","","","","","","","","","","","","","","","","","","","","","","","","","MET069MOBOB0 METAR 7018 //000 000000 301129Z AUTO VRB02KT //// 25/20 A3017=","","","","","","","","","",""
"00701899999","2013-07-30T11:59:00","0.0","0.0","7018.0","WXPOD 7018","FM-15","4","30.19","66","79","","","","","65","","","","","","VRB","","3","","","","","","","","","","","","","","","","","","","","","","","","","","","","","","","","","","","","","","","","","","","","","","","","","","","","","","","","","","","","","","","","","","","","","","","","","","","","","","","","","","","","","","","","","","","MET069MOBOB0 METAR 7018 //000 000000 301159Z AUTO VRB03KT //// 26/19 A3019=","","","","","","","","","",""
"00701899999","2013-07-30T12:14:00","0.0","0.0","7018.0","WXPOD 7018","FM-15","4","30.19","66","81","","","","","62","","","","","","VRB","","2","","","","","","","","","","","","","","","","","","","","","","","","","","","","","","","","","","","","","","","","","","","","","","","","","","","","","","","","","","","","","","","","","","","","","","","","","","","","","","","","","","","","","","","","","","","MET069MOBOB0 METAR 7018 //000 000000 301214Z AUTO VRB02KT //// 27/19 A3019=","","","","","","","","","",""
"00701899999","2013-07-30T13:29:00","0.0","0.0","7018.0","WXPOD 7018","FM-15","4","30.21","64","84","","","","","51","","","","","","000","","0","","","","","","","","","","","","","","","","","","","","","","","","","","","","","","","","","","","","","","","","","","","","","","","","","","","","","","","","","","","","","","","","","","","","","","","","","","","","","","","","","","","","","","","","","","","MET069MOBOB0 METAR 7018 //000 000000 301329Z AUTO 00000KT //// 29/18 A3021=","","","","","","","","","",""
"00701899999","2013-07-30T14:29:00","0.0","0.0","7018.0","WXPOD 7018","FM-15","4","30.21","63","84","","","","","48","","","","","","VRB","","2","","","","","","","","","","","","","","","","","","","","","","","","","","","","","","","","","","","","","","","","","","","","","","","","","","","","","","","","","","","","","","","","","","","","","","","","","","","","","","","","","","","","","","","","","","","MET069MOBOB0 METAR 7018 //000 000000 301429Z AUTO VRB02KT //// 29/17 A3021=","","","","","","","","","",""
