"STATION","DATE","LATITUDE","LONGITUDE","ELEVATION","NAME","REPORT_TYPE","SOURCE","HourlyAltimeterSetting","HourlyDewPointTemperature","HourlyDryBulbTemperature","HourlyPrecipitation","HourlyPresentWeatherType","HourlyPressureChange","HourlyPressureTendency","HourlyRelativeHumidity","HourlySkyConditions","HourlySeaLevelPressure","HourlyStationPressure","HourlyVisibility","HourlyWetBulbTemperature","HourlyWindDirection","HourlyWindGustSpeed","HourlyWindSpeed","Sunrise","Sunset","DailyAverageDewPointTemperature","DailyAverageDryBulbTemperature","DailyAverageRelativeHumidity","DailyAverageSeaLevelPressure","DailyAverageStationPressure","DailyAverageWetBulbTemperature","DailyAverageWindSpeed","DailyCoolingDegreeDays","DailyDepartureFromNormalAverageTemperature","DailyHeatingDegreeDays","DailyMaximumDryBulbTemperature","DailyMinimumDryBulbTemperature","DailyPeakWindDirection","DailyPeakWindSpeed","DailyPrecipitation","DailySnowDepth","DailySnowfall","DailySustainedWindDirection","DailySustainedWindSpeed","DailyWeather","MonthlyAverageRH","MonthlyDaysWithGT001Precip","MonthlyDaysWithGT010Precip","MonthlyDaysWithGT32Temp","MonthlyDaysWithGT90Temp","MonthlyDaysWithLT0Temp","MonthlyDaysWithLT32Temp","MonthlyDepartureFromNormalAverageTemperature","MonthlyDepartureFromNormalCoolingDegreeDays","MonthlyDepartureFromNormalHeatingDegreeDays","MonthlyDepartureFromNormalMaximumTemperature","MonthlyDepartureFromNormalMinimumTemperature","MonthlyDepartureFromNormalPrecipitation","MonthlyDewpointTemperature","MonthlyGreatestPrecip","MonthlyGreatestPrecipDate","MonthlyGreatestSnowDepth","MonthlyGreatestSnowDepthDate","MonthlyGreatestSnowfall","MonthlyGreatestSnowfallDate","MonthlyMaxSeaLevelPressureValue","MonthlyMaxSeaLevelPressureValueDate","MonthlyMaxSeaLevelPressureValueTime","MonthlyMaximumTemperature","MonthlyMeanTemperature","MonthlyMinSeaLevelPressureValue","MonthlyMinSeaLevelPressureValueDate","MonthlyMinSeaLevelPressureValueTime","MonthlyMinimumTemperature","MonthlySeaLevelPressure","MonthlyStationPressure","MonthlyTotalLiquidPrecipitation","MonthlyTotalSnowfall","MonthlyWetBulb","AWND","CDSD","CLDD","DSNW","HDSD","HTDD","DYTS","DYHF","NormalsCoolingDegreeDay","NormalsHeatingDegreeDay","ShortDurationEndDate005","ShortDurationEndDate010","ShortDurationEndDate015","ShortDurationEndDate020","ShortDurationEndDate030","ShortDurationEndDate045","ShortDurationEndDate060","ShortDurationEndDate080","ShortDurationEndDate100","ShortDurationEndDate120","ShortDurationEndDate150","ShortDurationEndDate180","ShortDurationPrecipitationValue005","ShortDurationPrecipitationValue010","ShortDurationPrecipitationValue015","ShortDurationPrecipitationValue020","ShortDurationPrecipitationValue030","ShortDurationPrecipitationValue045","ShortDurationPrecipitationValue060","ShortDurationPrecipitationValue080","ShortDurationPrecipitationValue100","ShortDurationPrecipitationValue120","ShortDurationPrecipitationValue150","ShortDurationPrecipitationValue180","REM","BackupDirection","BackupDistance","BackupDistanceUnit","BackupElements","BackupElevation","BackupEquipment","BackupLatitude","BackupLongitude","BackupName","WindEquipmentChangeDate"
"00826899999","2010-05-20T01:44:00","32.95","65.5666666","1156.72","WXPOD8278, AF","FM-15","4","27.93","34","86","","","","","15","","","","","","160","","13","","","","","","","","","","","","","","","","","","","","","","","","","","","","","","","","","","","","","","","","","","","","","","","","","","","","","","","","","","","","","","","","","","","","","","","","","","","","","","","","","","","","","","","","","","","MET085MOBOB0 METAR 8268 //000 000000 192114Z 16011KT //// CLR 30/01 A2793 RMK CDP03528 CLR;","","","","","","","","","",""
"00826899999","2010-05-20T02:14:00","32.95","65.5666666","1156.72","WXPOD8278, AF","FM-15","4","27.91","34","88","","","","","15","","","","","","120","","7","","","","","","","","","","","","","","","","","","","","","","","","","","","","","","","","","","","","","","","","","","","","","","","","","","","","","","","","","","","","","","","","","","","","","","","","","","","","","","","","","","","","","","","","","","","MET085MOBOB0 METAR 8268 //000 000000 192144Z 12006KT //// CLR 31/01 A2791 RMK CDP03528 CLR;","","","","","","","","","",""
"00826899999","2010-05-20T22:44:00","32.95","65.5666666","1156.72","WXPOD8278, AF","FM-15","4","29.82","39","90","","","","","17","","","","","","070","","2","","","","","","","","","","","","","","","","","","","","","","","","","","","","","","","","","","","","","","","","","","","","","","","","","","","","","","","","","","","","","","","","","","","","","","","","","","","","","","","","","","","","","","","","","","","MET085MOBOB0 METAR 8268 //057 000000 201814Z 07002KT //// CLR 32/04 A2982 RMK CDP03528 CLR;","","","","","","","","","",""
"00826899999","2010-05-20T23:30:00","32.95","65.5666666","1156.72","WXPOD8278, AF","FM-15","4","29.81","39","91","","","","","16","","","","","","160","","2","","","","","","","","","","","","","","","","","","","","","","","","","","","","","","","","","","","","","","","","","","","","","","","","","","","","","","","","","","","","","","","","","","","","","","","","","","","","","","","","","","","","","","","","","","","MET085MOBOB0 METAR 8268 //057 000000 201859Z 16002KT //// CLR 33/04 A2981 RMK CDP03528 CLR;","","","","","","","","","",""
"00826899999","2010-05-20T23:59:00","32.95","65.5666666","1156.72","WXPOD8278, AF","FM-15","4","29.79","37","91","","","","","15","","","","","","160","","5","","","","","","","","","","","","","","","","","","","","","","","","","","","","","","","","","","","","","","","","","","","","","","","","","","","","","","","","","","","","","","","","","","","","","","","","","","","","","","","","","","","","","","","","","","","MET085MOBOB0 METAR 8268 //057 000000 201929Z 16004KT //// CLR 33/03 A2979 RMK CDP03528 CLR;","","","","","","","","","",""
"00826899999","2010-05-21T00:30:00","32.95","65.5666666","1156.72","WXPOD8278, AF","FM-15","4","29.78","37","93","","","","","14","","","","","","180","","11","","","","","","","","","","","","","","","","","","","","","","","","","","","","","","","","","","","","","","","","","","","","","","","","","","","","","","","","","","","","","","","","","","","","","","","","","","","","","","","","","","","","","","","","","","","MET085MOBOB0 METAR 8268 //057 000000 201959Z 18010KT //// CLR 34/03 A2978 RMK CDP03528 CLR;","","","","","","","","","",""
"00826899999","2010-05-21T00:44:00","32.95","65.5666666","1156.72","WXPOD8278, AF","FM-15","4","29.77","39","90","","","","","17","","","","","","190","","8","","","","","","","","","","","","","","","","","","","","","","","","","","","","","","","","","","","","","","","","","","","","","","","","","","","","","","","","","","","","","","","","","","","","","","","","","","","","","","","","","","","","","","","","","","","MET085MOBOB0 METAR 8268 //057 000000 202014Z 19007KT //// CLR 32/04 A2977 RMK CDP03528 CLR;","","","","","","","","","",""
"00826899999","2010-05-21T01:59:00","32.95","65.5666666","1156.72","WXPOD8278, AF","FM-15","4","29.72","36","91","","","","","14","","","","","","130","","5","","","","","","","","","","","","","","","","","","","","","","","","","","","","","","","","","","","","","","","","","","","","","","","","","","","","","","","","","","","","","","","","","","","","","","","","","","","","","","","","","","","","","","","","","","","MET085MOBOB0 METAR 8268 //057 000000 202129Z 13004KT //// CLR 33/02 A2972 RMK CDP03528 CLR;","","","","","","","","","",""
"00826899999","2010-05-21T02:14:00","32.95","65.5666666","1156.72","WXPOD8278, AF","FM-15","4","29.72","36","93","","","","","13","","","","","","090","","7","","","","","","","","","","","","","","","","","","","","","","","","","","","","","","","","","","","","","","","","","","","","","","","","","","","","","","","","","","","","","","","","","","","","","","","","","","","","","","","","","","","","","","","","","","","MET085MOBOB0 METAR 8268 //057 000000 202144Z 09006KT //// CLR 34/02 A2972 RMK CDP03528 CLR;","","","","","","","","","",""
"00826899999","2010-05-21T02:30:00","32.95","65.5666666","1156.72","WXPOD8278, AF","FM-15","4","29.71","36","93","","","","","13","","","","","","230","","3","","","","","","","","","","","","","","","","","","","","","","","","","","","","","","","","","","","","","","","","","","","","","","","","","","","","","","","","","","","","","","","","","","","","","","","","","","","","","","","","","","","","","","","","","","","MET085MOBOB0 METAR 8268 //057 000000 202159Z 23003KT //// CLR 34/02 A2971 RMK CDP03528 CLR;","","","","","","","","","",""
"00826899999","2010-05-21T02:59:00","32.95","65.5666666","1156.72","WXPOD8278, AF","FM-15","4","29.69","36","93","","","","","13","","","","","","110","","6","","","","","","","","","","","","","","","","","","","","","","","","","","","","","","","","","","","","","","","","","","","","","","","","","","","","","","","","","","","","","","","","","","","","","","","","","","","","","","","","","","","","","","","","","","","MET085MOBOB0 METAR 8268 //057 000000 202229Z 11005KT //// CLR 34/02 A2969 RMK CDP03528 CLR;","","","","","","","","","",""
"00826899999","2010-07-21T21:59:00","32.95","65.5666666","1156.72","WXPOD8278, AF","FM-16","4","29.93","41","86","","","","","20","","","","","","340","","2","","","","","","","","","","","","","","","","","","","","","","","","","","","","","","","","","","","","","","","","","","","","","","","","","","","","","","","","","","","","","","","","","","","","","","","","","","","","","","","","","","","","","","","","","","","MET090MOBOB0 METAR 8268 //122 000000 211729Z AUTO 34002KT //// CLR 30/05 A2993 RMK CDP03528 CLR;","","","","","","","","","",""
"00826899999","2010-07-21T22:14:00","32.95","65.5666666","1156.72","WXPOD8278, AF","FM-16","4","29.93","39","86","","","","","19","","","","","","140","","2","","","","","","","","","","","","","","","","","","","","","","","","","","","","","","","","","","","","","","","","","","","","","","","","","","","","","","","","","","","","","","","","","","","","","","","","","","","","","","","","","","","","","","","","","","","MET090MOBOB0 METAR 8268 //122 000000 211744Z AUTO 14002KT //// CLR 30/04 A2993 RMK CDP03528 CLR;","","","","","","","","","",""
"00826899999","2010-07-21T22:30:00","32.95","65.5666666","1156.72","WXPOD8278, AF","FM-15","4","29.93","41","86","","","","","20","","","","","","170","","1","","","","","","","","","","","","","","","","","","","","","","","","","","","","","","","","","","","","","","","","","","","","","","","","","","","","","","","","","","","","","","","","","","","","","","","","","","","","","","","","","","","","","","","","","","","MET090MOBOB0 METAR 8268 //122 000000 211759Z AUTO 17001KT //// CLR 30/05 A2993 RMK CDP03528 CLR;","","","","","","","","","",""
"00826899999","2010-07-21T22:44:00","32.95","65.5666666","1156.72","WXPOD8278, AF","FM-16","4","29.92","41","88","","","","","19","","","","","","270","","2","","","","","","","","","","","","","","","","","","","","","","","","","","","","","","","","","","","","","","","","","","","","","","","","","","","","","","","","","","","","","","","","","","","","","","","","","","","","","","","","","","","","","","","","","","","MET090MOBOB0 METAR 8268 //122 000000 211814Z AUTO 27002KT //// CLR 31/05 A2992 RMK CDP03528 CLR;","","","","","","","","","",""
"00826899999","2010-07-21T22:59:00","32.95","65.5666666","1156.72","WXPOD8278, AF","FM-16","4","29.92","39","86","","","","","19","","","","","","250","","5","","","","","","","","","","","","","","","","","","","","","","","","","","","","","","","","","","","","","","","","","","","","","","","","","","","","","","","","","","","","","","","","","","","","","","","","","","","","","","","","","","","","","","","","","","","MET090MOBOB0 METAR 8268 //122 000000 211829Z AUTO 25004KT //// CLR 30/04 A2992 RMK CDP03528 CLR;","","","","","","","","","",""
"00826899999","2010-07-21T23:14:00","32.95","65.5666666","1156.72","WXPOD8278, AF","FM-16","4","29.92","41","86","","","","","20","","","","","","290","","6","","","","","","","","","","","","","","","","","","","","","","","","","","","","","","","","","","","","","","","","","","","","","","","","","","","","","","","","","","","","","","","","","","","","","","","","","","","","","","","","","","","","","","","","","","","MET090MOBOB0 METAR 8268 //122 000000 211844Z AUTO 29005KT //// CLR 30/05 A2992 RMK CDP03528 CLR;","","","","","","","","","",""
"00826899999","2010-07-21T23:30:00","32.95","65.5666666","1156.72","WXPOD8278, AF","FM-15","4","29.91","41","88","","","","","19","","","","","","280","","6","","","","","","","","","","","","","","","","","","","","","","","","","","","","","","","","","","","","","","","","","","","","","","","","","","","","","","","","","","","","","","","","","","","","","","","","","","","","","","","","","","","","","","","","","","","MET090MOBOB0 METAR 8268 //122 000000 211859Z AUTO 28005KT //// CLR 31/05 A2991 RMK CDP03528 CLR;","","","","","","","","","",""
"00826899999","2010-07-21T23:44:00","32.95","65.5666666","1156.72","WXPOD8278, AF","FM-16","4","29.91","39","88","","","","","18","","","","","","270","","6","","","","","","","","","","","","","","","","","","","","","","","","","","","","","","","","","","","","","","","","","","","","","","","","","","","","","","","","","","","","","","","","","","","","","","","","","","","","","","","","","","","","","","","","","","","MET090MOBOB0 METAR 8268 //122 000000 211914Z AUTO 27005KT //// CLR 31/04 A2991 RMK CDP03528 CLR;","","","","","","","","","",""
"00826899999","2010-07-21T23:59:00","32.95","65.5666666","1156.72","WXPOD8278, AF","FM-16","4","29.91","41","90","","","","","18","","","","","","300","","6","","","","","","","","","","","","","","","","","","","","","","","","","","","","","","","","","","","","","","","","","","","","","","","","","","","","","","","","","","","","","","","","","","","","","","","","","","","","","","","","","","","","","","","","","","","MET090MOBOB0 METAR 8268 //122 000000 211929Z AUTO 30005KT //// CLR 32/05 A2991 RMK CDP03528 CLR;","","","","","","","","","",""
"00826899999","2010-07-22T00:14:00","32.95","65.5666666","1156.72","WXPOD8278, AF","FM-16","4","29.90","41","88","","","","","19","","","","","","300","","7","","","","","","","","","","","","","","","","","","","","","","","","","","","","","","","","","","","","","","","","","","","","","","","","","","","","","","","","","","","","","","","","","","","","","","","","","","","","","","","","","","","","","","","","","","","MET090MOBOB0 METAR 8268 //122 000000 211944Z AUTO 30006KT //// CLR 31/05 A2990 RMK CDP03528 CLR;","","","","","","","","","",""
"00826899999","2010-07-22T00:30:00","32.95","65.5666666","1156.72","WXPOD8278, AF","FM-15","4","29.90","41","90","","","","","18","","","","","","300","","9","","","","","","","","","","","","","","","","","","","","","","","","","","","","","","","","","","","","","","","","","","","","","","","","","","","","","","","","","","","","","","","","","","","","","","","","","","","","","","","","","","","","","","","","","","","MET090MOBOB0 METAR 8268 //122 000000 211959Z AUTO 30008KT //// CLR 32/05 A2990 RMK CDP03528 CLR;","","","","","","","","","",""
"00826899999","2010-07-22T00:44:00","32.95","65.5666666","1156.72","WXPOD8278, AF","FM-16","4","29.90","41","88","","","","","19","","","","","","260","","10","","","","","","","","","","","","","","","","","","","","","","","","","","","","","","","","","","","","","","","","","","","","","","","","","","","","","","","","","","","","","","","","","","","","","","","","","","","","","","","","","","","","","","","","","","","MET090MOBOB0 METAR 8268 //122 000000 212014Z AUTO 26009KT //// CLR 31/05 A2990 RMK CDP03528 CLR;","","","","","","","","","",""
"00826899999","2010-07-22T00:59:00","32.95","65.5666666","1156.72","WXPOD8278, AF","FM-16","4","29.90","39","90","","","","","17","","","","","","300","","8","","","","","","","","","","","","","","","","","","","","","","","","","","","","","","","","","","","","","","","","","","","","","","","","","","","","","","","","","","","","","","","","","","","","","","","","","","","","","","","","","","","","","","","","","","","MET090MOBOB0 METAR 8268 //122 000000 212029Z AUTO 30007KT //// CLR 32/04 A2990 RMK CDP03528 CLR;","","","","","","","","","",""
"00826899999","2010-07-22T01:14:00","32.95","65.5666666","1156.72","WXPOD8278, AF","FM-16","4","29.90","39","91","","","","","16","","","","","","240","","6","","","","","","","","","","","","","","","","","","","","","","","","","","","","","","","","","","","","","","","","","","","","","","","","","","","","","","","","","","","","","","","","","","","","","","","","","","","","","","","","","","","","","","","","","","","MET090MOBOB0 METAR 8268 //122 000000 212044Z AUTO 24005KT //// CLR 33/04 A2990 RMK CDP03528 CLR;","","","","","","","","","",""
"00826899999","2010-07-22T01:30:00","32.95","65.5666666","1156.72","WXPOD8278, AF","FM-15","4","29.89","39","91","","","","","16","","","","","","240","","6","","","","","","","","","","","","","","","","","","","","","","","","","","","","","","","","","","","","","","","","","","","","","","","","","","","","","","","","","","","","","","","","","","","","","","","","","","","","","","","","","","","","","","","","","","","MET090MOBOB0 METAR 8268 //122 000000 212059Z AUTO 24005KT //// CLR 33/04 A2989 RMK CDP03528 CLR;","","","","","","","","","",""
"00826899999","2010-07-22T01:44:00","32.95","65.5666666","1156.72","WXPOD8278, AF","FM-16","4","29.89","39","91","","","","","16","","","","","","320","","8","","","","","","","","","","","","","","","","","","","","","","","","","","","","","","","","","","","","","","","","","","","","","","","","","","","","","","","","","","","","","","","","","","","","","","","","","","","","","","","","","","","","","","","","","","","MET090MOBOB0 METAR 8268 //122 000000 212114Z AUTO 32007KT //// CLR 33/04 A2989 RMK CDP03528 CLR;","","","","","","","","","",""
"00826899999","2010-07-22T01:59:00","32.95","65.5666666","1156.72","WXPOD8278, AF","FM-16","4","29.89","39","90","","","","","17","","","","","","290","","5","","","","","","","","","","","","","","","","","","","","","","","","","","","","","","","","","","","","","","","","","","","","","","","","","","","","","","","","","","","","","","","","","","","","","","","","","","","","","","","","","","","","","","","","","","","MET090MOBOB0 METAR 8268 //122 000000 212129Z AUTO 29004KT //// CLR 32/04 A2989 RMK CDP03528 CLR;","","","","","","","","","",""
"00826899999","2010-07-22T02:14:00","32.95","65.5666666","1156.72","WXPOD8278, AF","FM-16","4","29.88","41","93","","","","","16","","","","","","290","","9","","","","","","","","","","","","","","","","","","","","","","","","","","","","","","","","","","","","","","","","","","","","","","","","","","","","","","","","","","","","","","","","","","","","","","","","","","","","","","","","","","","","","","","","","","","MET090MOBOB0 METAR 8268 //122 000000 212144Z AUTO 29008KT //// CLR 34/05 A2988 RMK CDP03528 CLR;","","","","","","","","","",""
"00826899999","2010-07-22T02:44:00","32.95","65.5666666","1156.72","WXPOD8278, AF","FM-16","4","29.88","37","93","","","","","14","","","","","","290","","9","","","","","","","","","","","","","","","","","","","","","","","","","","","","","","","","","","","","","","","","","","","","","","","","","","","","","","","","","","","","","","","","","","","","","","","","","","","","","","","","","","","","","","","","","","","MET090MOBOB0 METAR 8268 //122 000000 212214Z AUTO 29008KT //// CLR 34/03 A2988 RMK CDP03528 CLR;","","","","","","","","","",""
"00826899999","2010-07-22T02:59:00","32.95","65.5666666","1156.72","WXPOD8278, AF","FM-16","4","29.88","37","93","","","","","14","","","","","","260","","10","","","","","","","","","","","","","","","","","","","","","","","","","","","","","","","","","","","","","","","","","","","","","","","","","","","","","","","","","","","","","","","","","","","","","","","","","","","","","","","","","","","","","","","","","","","MET090MOBOB0 METAR 8268 //122 000000 212229Z AUTO 26009KT //// CLR 34/03 A2988 RMK CDP03528 CLR;","","","","","","","","","",""
"00826899999","2010-07-22T03:14:00","32.95","65.5666666","1156.72","WXPOD8278, AF","FM-16","4","29.88","37","93","","","","","14","","","","","","240","","10","","","","","","","","","","","","","","","","","","","","","","","","","","","","","","","","","","","","","","","","","","","","","","","","","","","","","","","","","","","","","","","","","","","","","","","","","","","","","","","","","","","","","","","","","","","MET090MOBOB0 METAR 8268 //122 000000 212244Z AUTO 24009KT //// CLR 34/03 A2988 RMK CDP03528 CLR;","","","","","","","","","",""
"00826899999","2010-07-22T03:30:00","32.95","65.5666666","1156.72","WXPOD8278, AF","FM-15","4","29.88","36","93","","","","","13","","","","","","260","","10","","","","","","","","","","","","","","","","","","","","","","","","","","","","","","","","","","","","","","","","","","","","","","","","","","","","","","","","","","","","","","","","","","","","","","","","","","","","","","","","","","","","","","","","","","","MET090MOBOB0 METAR 8268 //122 000000 212259Z AUTO 26009KT //// CLR 34/02 A2988 RMK CDP03528 CLR;","","","","","","","","","",""
"00826899999","2010-07-22T03:44:00","32.95","65.5666666","1156.72","WXPOD8278, AF","FM-16","4","29.88","37","91","","","","","15","","","","","","250","","9","","","","","","","","","","","","","","","","","","","","","","","","","","","","","","","","","","","","","","","","","","","","","","","","","","","","","","","","","","","","","","","","","","","","","","","","","","","","","","","","","","","","","","","","","","","MET090MOBOB0 METAR 8268 //122 000000 212314Z AUTO 25008KT //// CLR 33/03 A2988 RMK CDP03528 CLR;","","","","","","","","","",""
"00826899999","2010-07-22T03:59:00","32.95","65.5666666","1156.72","WXPOD8278, AF","FM-16","4","29.88","37","93","","","","","14","","","","","","260","","10","","","","","","","","","","","","","","","","","","","","","","","","","","","","","","","","","","","","","","","","","","","","","","","","","","","","","","","","","","","","","","","","","","","","","","","","","","","","","","","","","","","","","","","","","","","MET090MOBOB0 METAR 8268 //122 000000 212329Z AUTO 26009KT //// CLR 34/03 A2988 RMK CDP03528 CLR;","","","","","","","","","",""
"00826899999","2010-07-22T04:14:00","32.95","65.5666666","1156.72","WXPOD8278, AF","FM-16","4","29.88","37","93","","","","","14","","","","","","250","","9","","","","","","","","","","","","","","","","","","","","","","","","","","","","","","","","","","","","","","","","","","","","","","","","","","","","","","","","","","","","","","","","","","","","","","","","","","","","","","","","","","","","","","","","","","","MET090MOBOB0 METAR 8268 //122 000000 212344Z AUTO 25008KT //// CLR 34/03 A2988 RMK CDP03528 CLR;","","","","","","","","","",""
"00826899999","2010-07-22T04:30:00","32.95","65.5666666","1156.72","WXPOD8278, AF","FM-15","4","29.89","39","93","","","","","15","","","","","","270","","6","","","","","","","","","","","","","","","","","","","","","","","","","","","","","","","","","","","","","","","","","","","","","","","","","","","","","","","","","","","","","","","","","","","","","","","","","","","","","","","","","","","","","","","","","","","MET090MOBOB0 METAR 8268 //122 000000 212359Z AUTO 27005KT //// CLR 34/04 A2989 RMK CDP03528 CLR;","","","","","","","","","",""
"00826899999","2010-07-22T04:44:00","32.95","65.5666666","1156.72","WXPOD8278, AF","FM-16","4","29.89","39","93","","","","","15","","","","","","270","","10","","","","","","","","","","","","","","","","","","","","","","","","","","","","","","","","","","","","","","","","","","","","","","","","","","","","","","","","","","","","","","","","","","","","","","","","","","","","","","","","","","","","","","","","","","","MET090MOBOB0 METAR 8268 //122 000000 220014Z AUTO 27009KT //// CLR 34/04 A2989 RMK CDP03528 CLR;","","","","","","","","","",""
"00826899999","2010-07-22T04:59:00","32.95","65.5666666","1156.72","WXPOD8278, AF","FM-16","4","29.89","37","91","","","","","15","","","","","","240","","7","","","","","","","","","","","","","","","","","","","","","","","","","","","","","","","","","","","","","","","","","","","","","","","","","","","","","","","","","","","","","","","","","","","","","","","","","","","","","","","","","","","","","","","","","","","MET090MOBOB0 METAR 8268 //122 000000 220029Z AUTO 24006KT //// CLR 33/03 A2989 RMK CDP03528 CLR;","","","","","","","","","",""
"00826899999","2010-07-22T05:14:00","32.95","65.5666666","1156.72","WXPOD8278, AF","FM-16","4","29.89","37","91","","","","","15","","","","","","280","","9","","","","","","","","","","","","","","","","","","","","","","","","","","","","","","","","","","","","","","","","","","","","","","","","","","","","","","","","","","","","","","","","","","","","","","","","","","","","","","","","","","","","","","","","","","","MET090MOBOB0 METAR 8268 //122 000000 220044Z AUTO 28008KT //// CLR 33/03 A2989 RMK CDP03528 CLR;","","","","","","","","","",""
"00826899999","2010-07-22T05:30:00","32.95","65.5666666","1156.72","WXPOD8278, AF","FM-15","4","29.88","37","91","","","","","15","","","","","","240","","11","","","","","","","","","","","","","","","","","","","","","","","","","","","","","","","","","","","","","","","","","","","","","","","","","","","","","","","","","","","","","","","","","","","","","","","","","","","","","","","","","","","","","","","","","","","MET090MOBOB0 METAR 8268 //122 000000 220059Z AUTO 24010KT //// CLR 33/03 A2988 RMK CDP03528 CLR;","","","","","","","","","",""
"00826899999","2010-07-22T05:44:00","32.95","65.5666666","1156.72","WXPOD8278, AF","FM-16","4","29.89","39","91","","","","","16","","","","","","240","","9","","","","","","","","","","","","","","","","","","","","","","","","","","","","","","","","","","","","","","","","","","","","","","","","","","","","","","","","","","","","","","","","","","","","","","","","","","","","","","","","","","","","","","","","","","","MET090MOBOB0 METAR 8268 //122 000000 220114Z AUTO 24008KT //// CLR 33/04 A2989 RMK CDP03528 CLR;","","","","","","","","","",""
"00826899999","2010-07-22T05:59:00","32.95","65.5666666","1156.72","WXPOD8278, AF","FM-16","4","29.89","39","91","","","","","16","","","","","","240","","10","","","","","","","","","","","","","","","","","","","","","","","","","","","","","","","","","","","","","","","","","","","","","","","","","","","","","","","","","","","","","","","","","","","","","","","","","","","","","","","","","","","","","","","","","","","MET090MOBOB0 METAR 8268 //122 000000 220129Z AUTO 24009KT //// CLR 33/04 A2989 RMK CDP03528 CLR;","","","","","","","","","",""
"00826899999","2010-07-22T06:14:00","32.95","65.5666666","1156.72","WXPOD8278, AF","FM-16","4","29.89","37","90","","","","","16","","","","","","240","","9","","","","","","","","","","","","","","","","","","","","","","","","","","","","","","","","","","","","","","","","","","","","","","","","","","","","","","","","","","","","","","","","","","","","","","","","","","","","","","","","","","","","","","","","","","","MET090MOBOB0 METAR 8268 //122 000000 220144Z AUTO 24008KT //// CLR 32/03 A2989 RMK CDP03528 CLR;","","","","","","","","","",""
"00826899999","2010-07-22T06:30:00","32.95","65.5666666","1156.72","WXPOD8278, AF","FM-15","4","29.89","37","88","","","","","17","","","","","","260","","8","","","","","","","","","","","","","","","","","","","","","","","","","","","","","","","","","","","","","","","","","","","","","","","","","","","","","","","","","","","","","","","","","","","","","","","","","","","","","","","","","","","","","","","","","","","MET090MOBOB0 METAR 8268 //122 000000 220159Z AUTO 26007KT //// CLR 31/03 A2989 RMK CDP03528 CLR;","","","","","","","","","",""
"00826899999","2010-07-22T06:44:00","32.95","65.5666666","1156.72","WXPOD8278, AF","FM-16","4","29.90","36","88","","","","","16","","","","","","240","","10","","","","","","","","","","","","","","","","","","","","","","","","","","","","","","","","","","","","","","","","","","","","","","","","","","","","","","","","","","","","","","","","","","","","","","","","","","","","","","","","","","","","","","","","","","","MET090MOBOB0 METAR 8268 //122 000000 220214Z AUTO 24009KT //// CLR 31/02 A2990 RMK CDP03528 CLR;","","","","","","","","","",""
"00826899999","2010-07-22T06:59:00","32.95","65.5666666","1156.72","WXPOD8278, AF","FM-16","4","29.90","39","86","","","","","19","","","","","","240","","8","","","","","","","","","","","","","","","","","","","","","","","","","","","","","","","","","","","","","","","","","","","","","","","","","","","","","","","","","","","","","","","","","","","","","","","","","","","","","","","","","","","","","","","","","","","MET090MOBOB0 METAR 8268 //122 000000 220229Z AUTO 24007KT //// CLR 30/04 A2990 RMK CDP03528 CLR;","","","","","","","","","",""
"00826899999","2010-07-22T07:14:00","32.95","65.5666666","1156.72","WXPOD8278, AF","FM-16","4","29.90","39","84","","","","","20","","","","","","240","","10","","","","","","","","","","","","","","","","","","","","","","","","","","","","","","","","","","","","","","","","","","","","","","","","","","","","","","","","","","","","","","","","","","","","","","","","","","","","","","","","","","","","","","","","","","","MET090MOBOB0 METAR 8268 //122 000000 220244Z AUTO 24009KT //// CLR 29/04 A2990 RMK CDP03528 CLR;","","","","","","","","","",""
"00826899999","2010-07-22T07:30:00","32.95","65.5666666","1156.72","WXPOD8278, AF","FM-15","4","29.90","39","84","","","","","20","","","","","","250","","10","","","","","","","","","","","","","","","","","","","","","","","","","","","","","","","","","","","","","","","","","","","","","","","","","","","","","","","","","","","","","","","","","","","","","","","","","","","","","","","","","","","","","","","","","","","MET090MOBOB0 METAR 8268 //122 000000 220259Z AUTO 25009KT //// CLR 29/04 A2990 RMK CDP03528 CLR;","","","","","","","","","",""
"00826899999","2010-07-22T07:44:00","32.95","65.5666666","1156.72","WXPOD8278, AF","FM-16","4","29.91","39","82","","","","","21","","","","","","250","","8","","","","","","","","","","","","","","","","","","","","","","","","","","","","","","","","","","","","","","","","","","","","","","","","","","","","","","","","","","","","","","","","","","","","","","","","","","","","","","","","","","","","","","","","","","","MET090MOBOB0 METAR 8268 //122 000000 220314Z AUTO 25007KT //// CLR 28/04 A2991 RMK CDP03528 CLR;","","","","","","","","","",""
"00826899999","2010-07-22T07:59:00","32.95","65.5666666","1156.72","WXPOD8278, AF","FM-16","4","29.91","39","81","","","","","23","","","","","","260","","6","","","","","","","","","","","","","","","","","","","","","","","","","","","","","","","","","","","","","","","","","","","","","","","","","","","","","","","","","","","","","","","","","","","","","","","","","","","","","","","","","","","","","","","","","","","MET090MOBOB0 METAR 8268 //122 000000 220329Z AUTO 26005KT //// CLR 27/04 A2991 RMK CDP03528 CLR;","","","","","","","","","",""
"00826899999","2010-07-22T08:14:00","32.95","65.5666666","1156.72","WXPOD8278, AF","FM-16","4","29.92","41","79","","","","","26","","","","","","250","","7","","","","","","","","","","","","","","","","","","","","","","","","","","","","","","","","","","","","","","","","","","","","","","","","","","","","","","","","","","","","","","","","","","","","","","","","","","","","","","","","","","","","","","","","","","","MET090MOBOB0 METAR 8268 //122 000000 220344Z AUTO 25006KT //// CLR 26/05 A2992 RMK CDP03528 CLR;","","","","","","","","","",""
"00826899999","2010-07-22T08:30:00","32.95","65.5666666","1156.72","WXPOD8278, AF","FM-15","4","29.93","43","79","","","","","28","","","","","","260","","7","","","","","","","","","","","","","","","","","","","","","","","","","","","","","","","","","","","","","","","","","","","","","","","","","","","","","","","","","","","","","","","","","","","","","","","","","","","","","","","","","","","","","","","","","","","MET090MOBOB0 METAR 8268 //122 000000 220359Z AUTO 26006KT //// CLR 26/06 A2993 RMK CDP03528 CLR;","","","","","","","","","",""
"00826899999","2010-10-19T17:59:00","32.95","65.5666666","1156.72","WXPOD8278, AF","FM-16","4","29.99","64","64","","","","","100","","","","","","150","","2","","","","","","","","","","","","","","","","","","","","","","","","","","","","","","","","","","","","","","","","","","","","","","","","","","","","","","","","","","","","","","","","","","","","","","","","","","","","","","","","","","","","","","","","","","","MET090MOBOB0 METAR 8268 //003 000000 191329Z AUTO 15002KT //// CLR 18/18 A2999 RMK CDP03528 CLR;","","","","","","","","","",""
"00826899999","2010-10-19T18:14:00","32.95","65.5666666","1156.72","WXPOD8278, AF","FM-16","4","29.99","66","66","","","","","100","","","","","","180","","2","","","","","","","","","","","","","","","","","","","","","","","","","","","","","","","","","","","","","","","","","","","","","","","","","","","","","","","","","","","","","","","","","","","","","","","","","","","","","","","","","","","","","","","","","","","MET090MOBOB0 METAR 8268 //003 000000 191344Z AUTO 18002KT //// CLR 19/19 A2999 RMK CDP03528 CLR;","","","","","","","","","",""
"00826899999","2010-10-19T18:30:00","32.95","65.5666666","1156.72","WXPOD8278, AF","FM-15","4","29.99","64","68","","","","","88","","","","","","140","","2","","","","","","","","","","","","","","","","","","","","","","","","","","","","","","","","","","","","","","","","","","","","","","","","","","","","","","","","","","","","","","","","","","","","","","","","","","","","","","","","","","","","","","","","","","","MET090MOBOB0 METAR 8268 //003 000000 191359Z AUTO 14002KT //// CLR 20/18 A2999 RMK CDP03528 CLR;","","","","","","","","","",""
"00826899999","2010-10-19T18:44:00","32.95","65.5666666","1156.72","WXPOD8278, AF","FM-16","4","30.00","64","66","","","","","94","","","","","","130","","1","","","","","","","","","","","","","","","","","","","","","","","","","","","","","","","","","","","","","","","","","","","","","","","","","","","","","","","","","","","","","","","","","","","","","","","","","","","","","","","","","","","","","","","","","","","MET090MOBOB0 METAR 8268 //003 000000 191414Z AUTO 13001KT //// CLR 19/18 A3000 RMK CDP03528 CLR;","","","","","","","","","",""
"00826899999","2010-10-19T18:59:00","32.95","65.5666666","1156.72","WXPOD8278, AF","FM-16","4","30.00","66","68","","","","","94","","","","","","150","","2","","","","","","","","","","","","","","","","","","","","","","","","","","","","","","","","","","","","","","","","","","","","","","","","","","","","","","","","","","","","","","","","","","","","","","","","","","","","","","","","","","","","","","","","","","","MET090MOBOB0 METAR 8268 //003 000000 191429Z AUTO 15002KT //// CLR 20/19 A3000 RMK CDP03528 CLR;","","","","","","","","","",""
"00826899999","2010-10-19T19:30:00","32.95","65.5666666","1156.72","WXPOD8278, AF","FM-15","4","30.01","66","70","","","","","88","FEW:02 47","","","","","090","","1","","","","","","","","","","","","","","","","","","","","","","","","","","","","","","","","","","","","","","","","","","","","","","","","","","","","","","","","","","","","","","","","","","","","","","","","","","","","","","","","","","","","","","","","","","","MET108MOBOB0 METAR 8268 //003 000000 191459Z AUTO 09001KT //// FEW048 21/19 A3001 RMK CDP03528 FEW048 CLD AVG 048;","","","","","","","","","",""
"00826899999","2010-10-19T19:44:00","32.95","65.5666666","1156.72","WXPOD8278, AF","FM-16","4","30.01","68","75","","","","","78","","","","","","200","","2","","","","","","","","","","","","","","","","","","","","","","","","","","","","","","","","","","","","","","","","","","","","","","","","","","","","","","","","","","","","","","","","","","","","","","","","","","","","","","","","","","","","","","","","","","","MET090MOBOB0 METAR 8268 //003 000000 191514Z AUTO 20002KT //// CLR 24/20 A3001 RMK CDP03528 CLR;","","","","","","","","","",""
"00826899999","2010-10-19T19:59:00","32.95","65.5666666","1156.72","WXPOD8278, AF","FM-16","4","30.00","66","77","","","","","69","","","","","","150","","1","","","","","","","","","","","","","","","","","","","","","","","","","","","","","","","","","","","","","","","","","","","","","","","","","","","","","","","","","","","","","","","","","","","","","","","","","","","","","","","","","","","","","","","","","","","MET090MOBOB0 METAR 8268 //003 000000 191529Z AUTO 15001KT //// CLR 25/19 A3000 RMK CDP03528 CLR;","","","","","","","","","",""
"00826899999","2010-10-19T20:14:00","32.95","65.5666666","1156.72","WXPOD8278, AF","FM-16","4","30.00","68","81","","","","","66","","","","","","290","","1","","","","","","","","","","","","","","","","","","","","","","","","","","","","","","","","","","","","","","","","","","","","","","","","","","","","","","","","","","","","","","","","","","","","","","","","","","","","","","","","","","","","","","","","","","","MET090MOBOB0 METAR 8268 //003 000000 191544Z AUTO 29001KT //// CLR 27/20 A3000 RMK CDP03528 CLR;","","","","","","","","","",""
"00826899999","2010-10-19T20:30:00","32.95","65.5666666","1156.72","WXPOD8278, AF","FM-15","4","30.00","68","82","","","","","62","","","","","","280","","1","","","","","","","","","","","","","","","","","","","","","","","","","","","","","","","","","","","","","","","","","","","","","","","","","","","","","","","","","","","","","","","","","","","","","","","","","","","","","","","","","","","","","","","","","","","MET090MOBOB0 METAR 8268 //003 000000 191559Z AUTO 28001KT //// CLR 28/20 A3000 RMK CDP03528 CLR;","","","","","","","","","",""
"00826899999","2010-10-19T20:44:00","32.95","65.5666666","1156.72","WXPOD8278, AF","FM-16","4","30.00","66","84","","","","","55","","","","","","240","","1","","","","","","","","","","","","","","","","","","","","","","","","","","","","","","","","","","","","","","","","","","","","","","","","","","","","","","","","","","","","","","","","","","","","","","","","","","","","","","","","","","","","","","","","","","","MET090MOBOB0 METAR 8268 //003 000000 191614Z AUTO 24001KT //// CLR 29/19 A3000 RMK CDP03528 CLR;","","","","","","","","","",""
"00826899999","2010-10-19T20:59:00","32.95","65.5666666","1156.72","WXPOD8278, AF","FM-16","4","30.00","66","81","","","","","62","","","","","","270","","6","","","","","","","","","","","","","","","","","","","","","","","","","","","","","","","","","","","","","","","","","","","","","","","","","","","","","","","","","","","","","","","","","","","","","","","","","","","","","","","","","","","","","","","","","","","MET090MOBOB0 METAR 8268 //003 000000 191629Z AUTO 27005KT //// CLR 27/19 A3000 RMK CDP03528 CLR;","","","","","","","","","",""
"00826899999","2010-10-19T21:14:00","32.95","65.5666666","1156.72","WXPOD8278, AF","FM-16","4","29.99","64","81","","","","","58","FEW:02 64","","","","","260","","6","","","","","","","","","","","","","","","","","","","","","","","","","","","","","","","","","","","","","","","","","","","","","","","","","","","","","","","","","","","","","","","","","","","","","","","","","","","","","","","","","","","","","","","","","","","MET108MOBOB0 METAR 8268 //003 000000 191644Z AUTO 26005KT //// FEW065 27/18 A2999 RMK CDP03528 FEW065 CLD AVG 065;","","","","","","","","","",""
"00826899999","2010-10-19T21:30:00","32.95","65.5666666","1156.72","WXPOD8278, AF","FM-15","4","29.99","64","79","","","","","61","","","","","","240","","8","","","","","","","","","","","","","","","","","","","","","","","","","","","","","","","","","","","","","","","","","","","","","","","","","","","","","","","","","","","","","","","","","","","","","","","","","","","","","","","","","","","","","","","","","","","MET090MOBOB0 METAR 8268 //003 000000 191659Z AUTO 24007KT //// CLR 26/18 A2999 RMK CDP03528 CLR;","","","","","","","","","",""
"00826899999","2010-10-19T21:44:00","32.95","65.5666666","1156.72","WXPOD8278, AF","FM-16","4","29.98","64","82","","","","","55","","","","","","240","","5","","","","","","","","","","","","","","","","","","","","","","","","","","","","","","","","","","","","","","","","","","","","","","","","","","","","","","","","","","","","","","","","","","","","","","","","","","","","","","","","","","","","","","","","","","","MET090MOBOB0 METAR 8268 //003 000000 191714Z AUTO 24004KT //// CLR 28/18 A2998 RMK CDP03528 CLR;","","","","","","","","","",""
"00826899999","2010-10-19T21:59:00","32.95","65.5666666","1156.72","WXPOD8278, AF","FM-16","4","29.97","64","82","","","","","55","","","","","","240","","5","","","","","","","","","","","","","","","","","","","","","","","","","","","","","","","","","","","","","","","","","","","","","","","","","","","","","","","","","","","","","","","","","","","","","","","","","","","","","","","","","","","","","","","","","","","MET090MOBOB0 METAR 8268 //003 000000 191729Z AUTO 24004KT //// CLR 28/18 A2997 RMK CDP03528 CLR;","","","","","","","","","",""
"00826899999","2010-10-19T22:14:00","32.95","65.5666666","1156.72","WXPOD8278, AF","FM-16","4","29.97","64","84","","","","","51","","","","","","220","","6","","","","","","","","","","","","","","","","","","","","","","","","","","","","","","","","","","","","","","","","","","","","","","","","","","","","","","","","","","","","","","","","","","","","","","","","","","","","","","","","","","","","","","","","","","","MET090MOBOB0 METAR 8268 //003 000000 191744Z AUTO 22005KT //// CLR 29/18 A2997 RMK CDP03528 CLR;","","","","","","","","","",""
"00826899999","2010-10-19T22:30:00","32.95","65.5666666","1156.72","WXPOD8278, AF","FM-15","4","29.96","63","84","","","","","48","","","","","","260","","1","","","","","","","","","","","","","","","","","","","","","","","","","","","","","","","","","","","","","","","","","","","","","","","","","","","","","","","","","","","","","","","","","","","","","","","","","","","","","","","","","","","","","","","","","","","MET090MOBOB0 METAR 8268 //003 000000 191759Z AUTO 26001KT //// CLR 29/17 A2996 RMK CDP03528 CLR;","","","","","","","","","",""
"00826899999","2010-10-19T22:44:00","32.95","65.5666666","1156.72","WXPOD8278, AF","FM-16","4","29.95","64","88","","","","","46","","","","","","260","","3","","","","","","","","","","","","","","","","","","","","","","","","","","","","","","","","","","","","","","","","","","","","","","","","","","","","","","","","","","","","","","","","","","","","","","","","","","","","","","","","","","","","","","","","","","","MET090MOBOB0 METAR 8268 //003 000000 191814Z AUTO 26003KT //// CLR 31/18 A2995 RMK CDP03528 CLR;","","","","","","","","","",""
"00826899999","2010-10-19T22:59:00","32.95","65.5666666","1156.72","WXPOD8278, AF","FM-16","4","29.95","77s","84","","","","","79","FEW:02 49","","","","","360","","7","","","","","","","","","","","","","","","","","","","","","","","","","","","","","","","","","","","","","","","","","","","","","","","","","","","","","","","","","","","","","","","","","","","","","","","","","","","","","","","","","","","","","","","","","","","MET108MOBOB0 METAR 8268 //003 000000 191829Z AUTO 36006KT //// FEW050 29/25 A2995 RMK CDP03528 FEW050 CLD AVG 050;","","","","","","","","","",""
"00826899999","2010-10-19T23:14:00","32.95","65.5666666","1156.72","WXPOD8278, AF","FM-16","4","29.94","68","68","","","","","100","","","","","","030","","15","","","","","","","","","","","","","","","","","","","","","","","","","","","","","","","","","","","","","","","","","","","","","","","","","","","","","","","","","","","","","","","","","","","","","","","","","","","","","","","","","","","","","","","","","","","MET090MOBOB0 METAR 8268 //003 000000 191844Z AUTO 03013KT //// CLR 20/20 A2994 RMK CDP03528 CLR;","","","","","","","","","",""
"00826899999","2010-10-19T23:30:00","32.95","65.5666666","1156.72","WXPOD8278, AF","FM-15","4","29.93","68","68","","","","","100","","","","","","030","","6","","","","","","","","","","","","","","","","","","","","","","","","","","","","","","","","","","","","","","","","","","","","","","","","","","","","","","","","","","","","","","","","","","","","","","","","","","","","","","","","","","","","","","","","","","","MET090MOBOB0 METAR 8268 //003 000000 191859Z AUTO 03005KT //// CLR 20/20 A2993 RMK CDP03528 CLR;","","","","","","","","","",""
"00826899999","2010-10-19T23:44:00","32.95","65.5666666","1156.72","WXPOD8278, AF","FM-16","4","29.94","66","66","","","","","100","","","","","","330","","8","","","","","","","","","","","","","","","","","","","","","","","","","","","","","","","","","","","","","","","","","","","","","","","","","","","","","","","","","","","","","","","","","","","","","","","","","","","","","","","","","","","","","","","","","","","MET090MOBOB0 METAR 8268 //003 000000 191914Z AUTO 33007KT //// CLR 19/19 A2994 RMK CDP03528 CLR;","","","","","","","","","",""
"00826899999","2010-10-19T23:59:00","32.95","65.5666666","1156.72","WXPOD8278, AF","FM-16","4","29.93","64","64","","","","","100","","","","","","060","","3","","","","","","","","","","","","","","","","","","","","","","","","","","","","","","","","","","","","","","","","","","","","","","","","","","","","","","","","","","","","","","","","","","","","","","","","","","","","","","","","","","","","","","","","","","","MET090MOBOB0 METAR 8268 //003 000000 191929Z AUTO 06003KT //// CLR 18/18 A2993 RMK CDP03528 CLR;","","","","","","","","","",""
"00826899999","2010-10-20T00:14:00","32.95","65.5666666","1156.72","WXPOD8278, AF","FM-16","4","29.92","68","68","","","","","100","","","","","","080","","2","","","","","","","","","","","","","","","","","","","","","","","","","","","","","","","","","","","","","","","","","","","","","","","","","","","","","","","","","","","","","","","","","","","","","","","","","","","","","","","","","","","","","","","","","","","MET090MOBOB0 METAR 8268 //003 000000 191944Z AUTO 08002KT //// CLR 20/20 A2992 RMK CDP03528 CLR;","","","","","","","","","",""
"00826899999","2010-10-20T00:30:00","32.95","65.5666666","1156.72","WXPOD8278, AF","FM-15","4","29.90","68","68","","","","","100","","","","","","120","","3","","","","","","","","","","","","","","","","","","","","","","","","","","","","","","","","","","","","","","","","","","","","","","","","","","","","","","","","","","","","","","","","","","","","","","","","","","","","","","","","","","","","","","","","","","","MET090MOBOB0 METAR 8268 //003 000000 191959Z AUTO 12003KT //// CLR 20/20 A2990 RMK CDP03528 CLR;","","","","","","","","","",""
"00826899999","2010-10-20T00:44:00","32.95","65.5666666","1156.72","WXPOD8278, AF","FM-16","4","29.90","68","68","","","","","100","","","","","","110","","2","","","","","","","","","","","","","","","","","","","","","","","","","","","","","","","","","","","","","","","","","","","","","","","","","","","","","","","","","","","","","","","","","","","","","","","","","","","","","","","","","","","","","","","","","","","MET090MOBOB0 METAR 8268 //003 000000 192014Z AUTO 11002KT //// CLR 20/20 A2990 RMK CDP03528 CLR;","","","","","","","","","",""
"00826899999","2010-10-20T00:59:00","32.95","65.5666666","1156.72","WXPOD8278, AF","FM-16","4","29.90","70","70","","","","","100","","","","","","120","","2","","","","","","","","","","","","","","","","","","","","","","","","","","","","","","","","","","","","","","","","","","","","","","","","","","","","","","","","","","","","","","","","","","","","","","","","","","","","","","","","","","","","","","","","","","","MET090MOBOB0 METAR 8268 //003 000000 192029Z AUTO 12002KT //// CLR 21/21 A2990 RMK CDP03528 CLR;","","","","","","","","","",""
"00826899999","2010-10-20T01:14:00","32.95","65.5666666","1156.72","WXPOD8278, AF","FM-16","4","29.91","72","72","","","","","100","","","","","","170","","3","","","","","","","","","","","","","","","","","","","","","","","","","","","","","","","","","","","","","","","","","","","","","","","","","","","","","","","","","","","","","","","","","","","","","","","","","","","","","","","","","","","","","","","","","","","MET090MOBOB0 METAR 8268 //003 000000 192044Z AUTO 17003KT //// CLR 22/22 A2991 RMK CDP03528 CLR;","","","","","","","","","",""
"00826899999","2010-10-20T01:30:00","32.95","65.5666666","1156.72","WXPOD8278, AF","FM-15","4","29.91","72","72","","","","","100","","","","","","160","","2","","","","","","","","","","","","","","","","","","","","","","","","","","","","","","","","","","","","","","","","","","","","","","","","","","","","","","","","","","","","","","","","","","","","","","","","","","","","","","","","","","","","","","","","","","","MET090MOBOB0 METAR 8268 //003 000000 192059Z AUTO 16002KT //// CLR 22/22 A2991 RMK CDP03528 CLR;","","","","","","","","","",""
"00826899999","2010-10-20T01:44:00","32.95","65.5666666","1156.72","WXPOD8278, AF","FM-16","4","29.90","72","72","","","","","100","","","","","","120","","1","","","","","","","","","","","","","","","","","","","","","","","","","","","","","","","","","","","","","","","","","","","","","","","","","","","","","","","","","","","","","","","","","","","","","","","","","","","","","","","","","","","","","","","","","","","MET090MOBOB0 METAR 8268 //003 000000 192114Z AUTO 12001KT //// CLR 22/22 A2990 RMK CDP03528 CLR;","","","","","","","","","",""
"00826899999","2010-10-20T01:59:00","32.95","65.5666666","1156.72","WXPOD8278, AF","FM-16","4","29.91","72","72","","","","","100","","","","","","050","","3","","","","","","","","","","","","","","","","","","","","","","","","","","","","","","","","","","","","","","","","","","","","","","","","","","","","","","","","","","","","","","","","","","","","","","","","","","","","","","","","","","","","","","","","","","","MET090MOBOB0 METAR 8268 //003 000000 192129Z AUTO 05003KT //// CLR 22/22 A2991 RMK CDP03528 CLR;","","","","","","","","","",""
"00826899999","2010-10-20T02:14:00","32.95","65.5666666","1156.72","WXPOD8278, AF","FM-16","4","29.90","73","73","","","","","100","","","","","","090","","3","","","","","","","","","","","","","","","","","","","","","","","","","","","","","","","","","","","","","","","","","","","","","","","","","","","","","","","","","","","","","","","","","","","","","","","","","","","","","","","","","","","","","","","","","","","MET090MOBOB0 METAR 8268 //003 000000 192144Z AUTO 09003KT //// CLR 23/23 A2990 RMK CDP03528 CLR;","","","","","","","","","",""
"00826899999","2010-10-20T02:30:00","32.95","65.5666666","1156.72","WXPOD8278, AF","FM-15","4","29.93","73","73","","","","","100","","","","","","350","","13","","","","","","","","","","","","","","","","","","","","","","","","","","","","","","","","","","","","","","","","","","","","","","","","","","","","","","","","","","","","","","","","","","","","","","","","","","","","","","","","","","","","","","","","","","","MET090MOBOB0 METAR 8268 //003 000000 192159Z AUTO 35011KT //// CLR 23/23 A2993 RMK CDP03528 CLR;","","","","","","","","","",""
"00826899999","2010-10-20T02:44:00","32.95","65.5666666","1156.72","WXPOD8278, AF","FM-16","4","29.92","64","64","","","","","100","","","","","","030","","10","","","","","","","","","","","","","","","","","","","","","","","","","","","","","","","","","","","","","","","","","","","","","","","","","","","","","","","","","","","","","","","","","","","","","","","","","","","","","","","","","","","","","","","","","","","MET090MOBOB0 METAR 8268 //003 000000 192214Z AUTO 03009KT //// CLR 18/18 A2992 RMK CDP03528 CLR;","","","","","","","","","",""
"00826899999","2010-10-20T02:59:00","32.95","65.5666666","1156.72","WXPOD8278, AF","FM-16","4","29.93","64","64","","","","","100","","","","","","220","","3","","","","","","","","","","","","","","","","","","","","","","","","","","","","","","","","","","","","","","","","","","","","","","","","","","","","","","","","","","","","","","","","","","","","","","","","","","","","","","","","","","","","","","","","","","","MET090MOBOB0 METAR 8268 //003 000000 192229Z AUTO 22003KT //// CLR 18/18 A2993 RMK CDP03528 CLR;","","","","","","","","","",""
"00826899999","2010-10-20T03:14:00","32.95","65.5666666","1156.72","WXPOD8278, AF","FM-16","4","29.92","64","64","","","","","100","","","","","","080","","5","","","","","","","","","","","","","","","","","","","","","","","","","","","","","","","","","","","","","","","","","","","","","","","","","","","","","","","","","","","","","","","","","","","","","","","","","","","","","","","","","","","","","","","","","","","MET090MOBOB0 METAR 8268 //003 000000 192244Z AUTO 08004KT //// CLR 18/18 A2992 RMK CDP03528 CLR;","","","","","","","","","",""
"00826899999","2010-10-20T03:30:00","32.95","65.5666666","1156.72","WXPOD8278, AF","FM-15","4","29.92","64","64","","","","","100","","","","","","060","","3","","","","","","","","","","","","","","","","","","","","","","","","","","","","","","","","","","","","","","","","","","","","","","","","","","","","","","","","","","","","","","","","","","","","","","","","","","","","","","","","","","","","","","","","","","","MET090MOBOB0 METAR 8268 //003 000000 192259Z AUTO 06003KT //// CLR 18/18 A2992 RMK CDP03528 CLR;","","","","","","","","","",""
"00826899999","2010-10-20T03:44:00","32.95","65.5666666","1156.72","WXPOD8278, AF","FM-16","4","29.93","64","64","","","","","100","","","","","","050","","6","","","","","","","","","","","","","","","","","","","","","","","","","","","","","","","","","","","","","","","","","","","","","","","","","","","","","","","","","","","","","","","","","","","","","","","","","","","","","","","","","","","","","","","","","","","MET090MOBOB0 METAR 8268 //003 000000 192314Z AUTO 05005KT //// CLR 18/18 A2993 RMK CDP03528 CLR;","","","","","","","","","",""
"00826899999","2010-10-20T03:59:00","32.95","65.5666666","1156.72","WXPOD8278, AF","FM-16","4","29.92","64","64","","","","","100","","","","","","060","","2","","","","","","","","","","","","","","","","","","","","","","","","","","","","","","","","","","","","","","","","","","","","","","","","","","","","","","","","","","","","","","","","","","","","","","","","","","","","","","","","","","","","","","","","","","","MET090MOBOB0 METAR 8268 //003 000000 192329Z AUTO 06002KT //// CLR 18/18 A2992 RMK CDP03528 CLR;","","","","","","","","","",""
"00826899999","2010-10-20T04:14:00","32.95","65.5666666","1156.72","WXPOD8278, AF","FM-16","4","29.92","64","64","","","","","100","","","","","","350","","1","","","","","","","","","","","","","","","","","","","","","","","","","","","","","","","","","","","","","","","","","","","","","","","","","","","","","","","","","","","","","","","","","","","","","","","","","","","","","","","","","","","","","","","","","","","MET090MOBOB0 METAR 8268 //003 000000 192344Z AUTO 35001KT //// CLR 18/18 A2992 RMK CDP03528 CLR;","","","","","","","","","",""
"00826899999","2010-10-20T04:30:00","32.95","65.5666666","1156.72","WXPOD8278, AF","FM-15","4","29.93","64","64","","","","","100","","","","","","200","","2","","","","","","","","","","","","","","","","","","","","","","","","","","","","","","","","","","","","","","","","","","","","","","","","","","","","","","","","","","","","","","","","","","","","","","","","","","","","","","","","","","","","","","","","","","","MET090MOBOB0 METAR 8268 //003 000000 192359Z AUTO 20002KT //// CLR 18/18 A2993 RMK CDP03528 CLR;","","","","","","","","","",""
"00826899999","2010-10-20T04:44:00","32.95","65.5666666","1156.72","WXPOD8278, AF","FM-16","4","29.94","64","64","","","","","100","","","","","","130","","1","","","","","","","","","","","","","","","","","","","","","","","","","","","","","","","","","","","","","","","","","","","","","","","","","","","","","","","","","","","","","","","","","","","","","","","","","","","","","","","","","","","","","","","","","","","MET090MOBOB0 METAR 8268 //003 000000 200014Z AUTO 13001KT //// CLR 18/18 A2994 RMK CDP03528 CLR;","","","","","","","","","",""
"00826899999","2010-10-20T04:59:00","32.95","65.5666666","1156.72","WXPOD8278, AF","FM-16","4","29.94","64","64","","","","","100","","","","","","070","","1","","","","","","","","","","","","","","","","","","","","","","","","","","","","","","","","","","","","","","","","","","","","","","","","","","","","","","","","","","","","","","","","","","","","","","","","","","","","","","","","","","","","","","","","","","","MET090MOBOB0 METAR 8268 //003 000000 200029Z AUTO 07001KT //// CLR 18/18 A2994 RMK CDP03528 CLR;","","","","","","","","","",""
"00826899999","2010-10-20T05:14:00","32.95","65.5666666","1156.72","WXPOD8278, AF","FM-16","4","29.95","64","64","","","","","100","","","","","","040","","1","","","","","","","","","","","","","","","","","","","","","","","","","","","","","","","","","","","","","","","","","","","","","","","","","","","","","","","","","","","","","","","","","","","","","","","","","","","","","","","","","","","","","","","","","","","MET090MOBOB0 METAR 8268 //003 000000 200044Z AUTO 04001KT //// CLR 18/18 A2995 RMK CDP03528 CLR;","","","","","","","","","",""
"00826899999","2010-10-20T05:30:00","32.95","65.5666666","1156.72","WXPOD8278, AF","FM-15","4","29.95","64","64","","","","","100","","","","","","030","","1","","","","","","","","","","","","","","","","","","","","","","","","","","","","","","","","","","","","","","","","","","","","","","","","","","","","","","","","","","","","","","","","","","","","","","","","","","","","","","","","","","","","","","","","","","","MET090MOBOB0 METAR 8268 //003 000000 200059Z AUTO 03001KT //// CLR 18/18 A2995 RMK CDP03528 CLR;","","","","","","","","","",""
"00826899999","2010-10-20T05:44:00","32.95","65.5666666","1156.72","WXPOD8278, AF","FM-16","4","29.97","66","66","","","","","100","","","","","","030","","3","","","","","","","","","","","","","","","","","","","","","","","","","","","","","","","","","","","","","","","","","","","","","","","","","","","","","","","","","","","","","","","","","","","","","","","","","","","","","","","","","","","","","","","","","","","MET090MOBOB0 METAR 8268 //003 000000 200114Z AUTO 03003KT //// CLR 19/19 A2997 RMK CDP03528 CLR;","","","","","","","","","",""
"00826899999","2010-10-20T05:59:00","32.95","65.5666666","1156.72","WXPOD8278, AF","FM-16","4","29.97","66","66","","","","","100","","","","","","060","","3","","","","","","","","","","","","","","","","","","","","","","","","","","","","","","","","","","","","","","","","","","","","","","","","","","","","","","","","","","","","","","","","","","","","","","","","","","","","","","","","","","","","","","","","","","","MET090MOBOB0 METAR 8268 //003 000000 200129Z AUTO 06003KT //// CLR 19/19 A2997 RMK CDP03528 CLR;","","","","","","","","","",""
"00826899999","2010-10-20T06:14:00","32.95","65.5666666","1156.72","WXPOD8278, AF","FM-16","4","29.96","66","66","","","","","100","","","","","","060","","3","","","","","","","","","","","","","","","","","","","","","","","","","","","","","","","","","","","","","","","","","","","","","","","","","","","","","","","","","","","","","","","","","","","","","","","","","","","","","","","","","","","","","","","","","","","MET090MOBOB0 METAR 8268 //003 000000 200144Z AUTO 06003KT //// CLR 19/19 A2996 RMK CDP03528 CLR;","","","","","","","","","",""
"00826899999","2010-10-20T06:30:00","32.95","65.5666666","1156.72","WXPOD8278, AF","FM-15","4","29.96","66","66","","","","","100","","","","","","090","","3","","","","","","","","","","","","","","","","","","","","","","","","","","","","","","","","","","","","","","","","","","","","","","","","","","","","","","","","","","","","","","","","","","","","","","","","","","","","","","","","","","","","","","","","","","","MET090MOBOB0 METAR 8268 //003 000000 200159Z AUTO 09003KT //// CLR 19/19 A2996 RMK CDP03528 CLR;","","","","","","","","","",""
"00826899999","2010-10-20T06:44:00","32.95","65.5666666","1156.72","WXPOD8278, AF","FM-16","4","29.97","66","66","","","","","100","","","","","","090","","3","","","","","","","","","","","","","","","","","","","","","","","","","","","","","","","","","","","","","","","","","","","","","","","","","","","","","","","","","","","","","","","","","","","","","","","","","","","","","","","","","","","","","","","","","","","MET090MOBOB0 METAR 8268 //003 000000 200214Z AUTO 09003KT //// CLR 19/19 A2997 RMK CDP03528 CLR;","","","","","","","","","",""
"00826899999","2010-10-20T06:59:00","32.95","65.5666666","1156.72","WXPOD8278, AF","FM-16","4","29.98","66","66","","","","","100","","","","","","120","","3","","","","","","","","","","","","","","","","","","","","","","","","","","","","","","","","","","","","","","","","","","","","","","","","","","","","","","","","","","","","","","","","","","","","","","","","","","","","","","","","","","","","","","","","","","","MET090MOBOB0 METAR 8268 //003 000000 200229Z AUTO 12003KT //// CLR 19/19 A2998 RMK CDP03528 CLR;","","","","","","","","","",""
"00826899999","2010-10-20T07:14:00","32.95","65.5666666","1156.72","WXPOD8278, AF","FM-16","4","29.98","66","66","","","","","100","","","","","","110","","2","","","","","","","","","","","","","","","","","","","","","","","","","","","","","","","","","","","","","","","","","","","","","","","","","","","","","","","","","","","","","","","","","","","","","","","","","","","","","","","","","","","","","","","","","","","MET090MOBOB0 METAR 8268 //003 000000 200244Z AUTO 11002KT //// CLR 19/19 A2998 RMK CDP03528 CLR;","","","","","","","","","",""
"00826899999","2010-10-20T07:30:00","32.95","65.5666666","1156.72","WXPOD8278, AF","FM-15","4","29.97","66","66","","","","","100","","","","","","110","","2","","","","","","","","","","","","","","","","","","","","","","","","","","","","","","","","","","","","","","","","","","","","","","","","","","","","","","","","","","","","","","","","","","","","","","","","","","","","","","","","","","","","","","","","","","","MET090MOBOB0 METAR 8268 //003 000000 200259Z AUTO 11002KT //// CLR 19/19 A2997 RMK CDP03528 CLR;","","","","","","","","","",""
"00826899999","2010-10-20T07:44:00","32.95","65.5666666","1156.72","WXPOD8278, AF","FM-16","4","29.97","66","66","","","","","100","","","","","","120","","2","","","","","","","","","","","","","","","","","","","","","","","","","","","","","","","","","","","","","","","","","","","","","","","","","","","","","","","","","","","","","","","","","","","","","","","","","","","","","","","","","","","","","","","","","","","MET090MOBOB0 METAR 8268 //003 000000 200314Z AUTO 12002KT //// CLR 19/19 A2997 RMK CDP03528 CLR;","","","","","","","","","",""
"00826899999","2010-10-20T07:59:00","32.95","65.5666666","1156.72","WXPOD8278, AF","FM-16","4","29.98","66","66","","","","","100","","","","","","120","","2","","","","","","","","","","","","","","","","","","","","","","","","","","","","","","","","","","","","","","","","","","","","","","","","","","","","","","","","","","","","","","","","","","","","","","","","","","","","","","","","","","","","","","","","","","","MET090MOBOB0 METAR 8268 //003 000000 200329Z AUTO 12002KT //// CLR 19/19 A2998 RMK CDP03528 CLR;","","","","","","","","","",""
"00826899999","2010-10-20T08:14:00","32.95","65.5666666","1156.72","WXPOD8278, AF","FM-16","4","29.98","66","66","","","","","100","","","","","","120","","2","","","","","","","","","","","","","","","","","","","","","","","","","","","","","","","","","","","","","","","","","","","","","","","","","","","","","","","","","","","","","","","","","","","","","","","","","","","","","","","","","","","","","","","","","","","MET090MOBOB0 METAR 8268 //003 000000 200344Z AUTO 12002KT //// CLR 19/19 A2998 RMK CDP03528 CLR;","","","","","","","","","",""
"00826899999","2010-10-20T08:30:00","32.95","65.5666666","1156.72","WXPOD8278, AF","FM-15","4","29.98","66","66","","","","","100","","","","","","120","","1","","","","","","","","","","","","","","","","","","","","","","","","","","","","","","","","","","","","","","","","","","","","","","","","","","","","","","","","","","","","","","","","","","","","","","","","","","","","","","","","","","","","","","","","","","","MET090MOBOB0 METAR 8268 //003 000000 200359Z AUTO 12001KT //// CLR 19/19 A2998 RMK CDP03528 CLR;","","","","","","","","","",""
"00826899999","2010-10-20T08:44:00","32.95","65.5666666","1156.72","WXPOD8278, AF","FM-16","4","29.98","66","66","","","","","100","","","","","","130","","1","","","","","","","","","","","","","","","","","","","","","","","","","","","","","","","","","","","","","","","","","","","","","","","","","","","","","","","","","","","","","","","","","","","","","","","","","","","","","","","","","","","","","","","","","","","MET090MOBOB0 METAR 8268 //003 000000 200414Z AUTO 13001KT //// CLR 19/19 A2998 RMK CDP03528 CLR;","","","","","","","","","",""
"00826899999","2010-10-20T08:59:00","32.95","65.5666666","1156.72","WXPOD8278, AF","FM-16","4","29.98","66","66","","","","","100","","","","","","130","","2","","","","","","","","","","","","","","","","","","","","","","","","","","","","","","","","","","","","","","","","","","","","","","","","","","","","","","","","","","","","","","","","","","","","","","","","","","","","","","","","","","","","","","","","","","","MET090MOBOB0 METAR 8268 //003 000000 200429Z AUTO 13002KT //// CLR 19/19 A2998 RMK CDP03528 CLR;","","","","","","","","","",""
"00826899999","2010-10-20T09:30:00","32.95","65.5666666","1156.72","WXPOD8278, AF","FM-15","4","29.97","66","66","","","","","100","","","","","","140","","1","","","","","","","","","","","","","","","","","","","","","","","","","","","","","","","","","","","","","","","","","","","","","","","","","","","","","","","","","","","","","","","","","","","","","","","","","","","","","","","","","","","","","","","","","","","MET090MOBOB0 METAR 8268 //003 000000 200459Z AUTO 14001KT //// CLR 19/19 A2997 RMK CDP03528 CLR;","","","","","","","","","",""
"00826899999","2010-10-20T09:44:00","32.95","65.5666666","1156.72","WXPOD8278, AF","FM-16","4","29.96","66","66","","","","","100","","","","","","140","","2","","","","","","","","","","","","","","","","","","","","","","","","","","","","","","","","","","","","","","","","","","","","","","","","","","","","","","","","","","","","","","","","","","","","","","","","","","","","","","","","","","","","","","","","","","","MET090MOBOB0 METAR 8268 //003 000000 200514Z AUTO 14002KT //// CLR 19/19 A2996 RMK CDP03528 CLR;","","","","","","","","","",""
"00826899999","2010-10-20T09:59:00","32.95","65.5666666","1156.72","WXPOD8278, AF","FM-16","4","29.96","66","66","","","","","100","","","","","","190","","2","","","","","","","","","","","","","","","","","","","","","","","","","","","","","","","","","","","","","","","","","","","","","","","","","","","","","","","","","","","","","","","","","","","","","","","","","","","","","","","","","","","","","","","","","","","MET090MOBOB0 METAR 8268 //003 000000 200529Z AUTO 19002KT //// CLR 19/19 A2996 RMK CDP03528 CLR;","","","","","","","","","",""
"00826899999","2010-10-20T10:14:00","32.95","65.5666666","1156.72","WXPOD8278, AF","FM-16","4","29.95","64","64","","","","","100","","","","","","190","","1","","","","","","","","","","","","","","","","","","","","","","","","","","","","","","","","","","","","","","","","","","","","","","","","","","","","","","","","","","","","","","","","","","","","","","","","","","","","","","","","","","","","","","","","","","","MET090MOBOB0 METAR 8268 //003 000000 200544Z AUTO 19001KT //// CLR 18/18 A2995 RMK CDP03528 CLR;","","","","","","","","","",""
"00826899999","2010-10-20T10:30:00","32.95","65.5666666","1156.72","WXPOD8278, AF","FM-15","4","29.96","64","64","","","","","100","","","","","","200","","1","","","","","","","","","","","","","","","","","","","","","","","","","","","","","","","","","","","","","","","","","","","","","","","","","","","","","","","","","","","","","","","","","","","","","","","","","","","","","","","","","","","","","","","","","","","MET090MOBOB0 METAR 8268 //003 000000 200559Z AUTO 20001KT //// CLR 18/18 A2996 RMK CDP03528 CLR;","","","","","","","","","",""
"00826899999","2010-10-20T10:44:00","32.95","65.5666666","1156.72","WXPOD8278, AF","FM-16","4","29.95","64","64","","","","","100","","","","","","180","","1","","","","","","","","","","","","","","","","","","","","","","","","","","","","","","","","","","","","","","","","","","","","","","","","","","","","","","","","","","","","","","","","","","","","","","","","","","","","","","","","","","","","","","","","","","","MET090MOBOB0 METAR 8268 //003 000000 200614Z AUTO 18001KT //// CLR 18/18 A2995 RMK CDP03528 CLR;","","","","","","","","","",""
"00826899999","2010-10-20T10:59:00","32.95","65.5666666","1156.72","WXPOD8278, AF","FM-16","4","29.95","64","64","","","","","100","","","","","","210","","1","","","","","","","","","","","","","","","","","","","","","","","","","","","","","","","","","","","","","","","","","","","","","","","","","","","","","","","","","","","","","","","","","","","","","","","","","","","","","","","","","","","","","","","","","","","MET090MOBOB0 METAR 8268 //003 000000 200629Z AUTO 21001KT //// CLR 18/18 A2995 RMK CDP03528 CLR;","","","","","","","","","",""
"00826899999","2010-10-20T11:14:00","32.95","65.5666666","1156.72","WXPOD8278, AF","FM-16","4","29.96","64","64","","","","","100","","","","","","190","","1","","","","","","","","","","","","","","","","","","","","","","","","","","","","","","","","","","","","","","","","","","","","","","","","","","","","","","","","","","","","","","","","","","","","","","","","","","","","","","","","","","","","","","","","","","","MET090MOBOB0 METAR 8268 //003 000000 200644Z AUTO 19001KT //// CLR 18/18 A2996 RMK CDP03528 CLR;","","","","","","","","","",""
"00826899999","2010-10-20T11:30:00","32.95","65.5666666","1156.72","WXPOD8278, AF","FM-15","4","29.96","64","64","","","","","100","","","","","","100","","1","","","","","","","","","","","","","","","","","","","","","","","","","","","","","","","","","","","","","","","","","","","","","","","","","","","","","","","","","","","","","","","","","","","","","","","","","","","","","","","","","","","","","","","","","","","MET090MOBOB0 METAR 8268 //003 000000 200659Z AUTO 10001KT //// CLR 18/18 A2996 RMK CDP03528 CLR;","","","","","","","","","",""
"00826899999","2010-10-20T11:44:00","32.95","65.5666666","1156.72","WXPOD8278, AF","FM-16","4","29.96","64","64","","","","","100","","","","","","100","","1","","","","","","","","","","","","","","","","","","","","","","","","","","","","","","","","","","","","","","","","","","","","","","","","","","","","","","","","","","","","","","","","","","","","","","","","","","","","","","","","","","","","","","","","","","","MET090MOBOB0 METAR 8268 //003 000000 200714Z AUTO 10001KT //// CLR 18/18 A2996 RMK CDP03528 CLR;","","","","","","","","","",""
"00826899999","2010-10-20T11:59:00","32.95","65.5666666","1156.72","WXPOD8278, AF","FM-16","4","29.96","64","64","","","","","100","","","","","","030","","3","","","","","","","","","","","","","","","","","","","","","","","","","","","","","","","","","","","","","","","","","","","","","","","","","","","","","","","","","","","","","","","","","","","","","","","","","","","","","","","","","","","","","","","","","","","MET090MOBOB0 METAR 8268 //003 000000 200729Z AUTO 03003KT //// CLR 18/18 A2996 RMK CDP03528 CLR;","","","","","","","","","",""
"00826899999","2010-10-20T12:30:00","32.95","65.5666666","1156.72","WXPOD8278, AF","FM-15","4","29.96","64","64","","","","","100","","","","","","050","","2","","","","","","","","","","","","","","","","","","","","","","","","","","","","","","","","","","","","","","","","","","","","","","","","","","","","","","","","","","","","","","","","","","","","","","","","","","","","","","","","","","","","","","","","","","","MET090MOBOB0 METAR 8268 //003 000000 200759Z AUTO 05002KT //// CLR 18/18 A2996 RMK CDP03528 CLR;","","","","","","","","","",""
"00826899999","2010-10-20T12:44:00","32.95","65.5666666","1156.72","WXPOD8278, AF","FM-16","4","29.96","64","64","","","","","100","","","","","","050","","3","","","","","","","","","","","","","","","","","","","","","","","","","","","","","","","","","","","","","","","","","","","","","","","","","","","","","","","","","","","","","","","","","","","","","","","","","","","","","","","","","","","","","","","","","","","MET090MOBOB0 METAR 8268 //003 000000 200814Z AUTO 05003KT //// CLR 18/18 A2996 RMK CDP03528 CLR;","","","","","","","","","",""
"00826899999","2010-10-20T12:59:00","32.95","65.5666666","1156.72","WXPOD8278, AF","FM-16","4","29.95","64","64","","","","","100","","","","","","100","","2","","","","","","","","","","","","","","","","","","","","","","","","","","","","","","","","","","","","","","","","","","","","","","","","","","","","","","","","","","","","","","","","","","","","","","","","","","","","","","","","","","","","","","","","","","","MET090MOBOB0 METAR 8268 //003 000000 200829Z AUTO 10002KT //// CLR 18/18 A2995 RMK CDP03528 CLR;","","","","","","","","","",""
"00826899999","2010-10-20T13:14:00","32.95","65.5666666","1156.72","WXPOD8278, AF","FM-16","4","29.95","64","64","","","","","100","","","","","","090","","2","","","","","","","","","","","","","","","","","","","","","","","","","","","","","","","","","","","","","","","","","","","","","","","","","","","","","","","","","","","","","","","","","","","","","","","","","","","","","","","","","","","","","","","","","","","MET090MOBOB0 METAR 8268 //003 000000 200844Z AUTO 09002KT //// CLR 18/18 A2995 RMK CDP03528 CLR;","","","","","","","","","",""
"00826899999","2010-10-20T13:30:00","32.95","65.5666666","1156.72","WXPOD8278, AF","FM-15","4","29.95","64","64","","","","","100","","","","","","120","","2","","","","","","","","","","","","","","","","","","","","","","","","","","","","","","","","","","","","","","","","","","","","","","","","","","","","","","","","","","","","","","","","","","","","","","","","","","","","","","","","","","","","","","","","","","","MET090MOBOB0 METAR 8268 //003 000000 200859Z AUTO 12002KT //// CLR 18/18 A2995 RMK CDP03528 CLR;","","","","","","","","","",""
"00826899999","2010-10-20T13:44:00","32.95","65.5666666","1156.72","WXPOD8278, AF","FM-16","4","29.95","64","64","","","","","100","","","","","","060","","1","","","","","","","","","","","","","","","","","","","","","","","","","","","","","","","","","","","","","","","","","","","","","","","","","","","","","","","","","","","","","","","","","","","","","","","","","","","","","","","","","","","","","","","","","","","MET090MOBOB0 METAR 8268 //003 000000 200914Z AUTO 06001KT //// CLR 18/18 A2995 RMK CDP03528 CLR;","","","","","","","","","",""
"00826899999","2010-10-20T13:59:00","32.95","65.5666666","1156.72","WXPOD8278, AF","FM-16","4","29.95","64","64","","","","","100","","","","","","150","","2","","","","","","","","","","","","","","","","","","","","","","","","","","","","","","","","","","","","","","","","","","","","","","","","","","","","","","","","","","","","","","","","","","","","","","","","","","","","","","","","","","","","","","","","","","","MET090MOBOB0 METAR 8268 //003 000000 200929Z AUTO 15002KT //// CLR 18/18 A2995 RMK CDP03528 CLR;","","","","","","","","","",""
"00826899999","2010-10-20T14:14:00","32.95","65.5666666","1156.72","WXPOD8278, AF","FM-16","4","29.96","64","64","","","","","100","","","","","","000","","0","","","","","","","","","","","","","","","","","","","","","","","","","","","","","","","","","","","","","","","","","","","","","","","","","","","","","","","","","","","","","","","","","","","","","","","","","","","","","","","","","","","","","","","","","","","MET090MOBOB0 METAR 8268 //003 000000 200944Z AUTO 00000KT //// CLR 18/18 A2996 RMK CDP03528 CLR;","","","","","","","","","",""
"00826899999","2010-10-20T14:30:00","32.95","65.5666666","1156.72","WXPOD8278, AF","FM-15","4","29.96","64","64","","","","","100","","","","","","110","","1","","","","","","","","","","","","","","","","","","","","","","","","","","","","","","","","","","","","","","","","","","","","","","","","","","","","","","","","","","","","","","","","","","","","","","","","","","","","","","","","","","","","","","","","","","","MET090MOBOB0 METAR 8268 //003 000000 200959Z AUTO 11001KT //// CLR 18/18 A2996 RMK CDP03528 CLR;","","","","","","","","","",""
"00826899999","2010-10-20T14:44:00","32.95","65.5666666","1156.72","WXPOD8278, AF","FM-16","4","29.97","64","64","","","","","100","","","","","","000","","0","","","","","","","","","","","","","","","","","","","","","","","","","","","","","","","","","","","","","","","","","","","","","","","","","","","","","","","","","","","","","","","","","","","","","","","","","","","","","","","","","","","","","","","","","","","MET090MOBOB0 METAR 8268 //003 000000 201014Z AUTO 00000KT //// CLR 18/18 A2997 RMK CDP03528 CLR;","","","","","","","","","",""
"00826899999","2010-10-20T14:59:00","32.95","65.5666666","1156.72","WXPOD8278, AF","FM-16","4","29.97","64","64","","","","","100","","","","","","020","","1","","","","","","","","","","","","","","","","","","","","","","","","","","","","","","","","","","","","","","","","","","","","","","","","","","","","","","","","","","","","","","","","","","","","","","","","","","","","","","","","","","","","","","","","","","","MET090MOBOB0 METAR 8268 //003 000000 201029Z AUTO 02001KT //// CLR 18/18 A2997 RMK CDP03528 CLR;","","","","","","","","","",""
"00826899999","2010-10-20T15:14:00","32.95","65.5666666","1156.72","WXPOD8278, AF","FM-16","4","29.98","64","64","","","","","100","","","","","","000","","0","","","","","","","","","","","","","","","","","","","","","","","","","","","","","","","","","","","","","","","","","","","","","","","","","","","","","","","","","","","","","","","","","","","","","","","","","","","","","","","","","","","","","","","","","","","MET090MOBOB0 METAR 8268 //003 000000 201044Z AUTO 00000KT //// CLR 18/18 A2998 RMK CDP03528 CLR;","","","","","","","","","",""
"00826899999","2010-10-20T15:30:00","32.95","65.5666666","1156.72","WXPOD8278, AF","FM-15","4","29.98","64","64","","","","","100","","","","","","050","","1","","","","","","","","","","","","","","","","","","","","","","","","","","","","","","","","","","","","","","","","","","","","","","","","","","","","","","","","","","","","","","","","","","","","","","","","","","","","","","","","","","","","","","","","","","","MET090MOBOB0 METAR 8268 //003 000000 201059Z AUTO 05001KT //// CLR 18/18 A2998 RMK CDP03528 CLR;","","","","","","","","","",""
"00826899999","2010-10-20T15:44:00","32.95","65.5666666","1156.72","WXPOD8278, AF","FM-16","4","29.99","63","63","","","","","100","","","","","","030","","2","","","","","","","","","","","","","","","","","","","","","","","","","","","","","","","","","","","","","","","","","","","","","","","","","","","","","","","","","","","","","","","","","","","","","","","","","","","","","","","","","","","","","","","","","","","MET090MOBOB0 METAR 8268 //003 000000 201114Z AUTO 03002KT //// CLR 17/17 A2999 RMK CDP03528 CLR;","","","","","","","","","",""
"00826899999","2010-10-20T15:59:00","32.95","65.5666666","1156.72","WXPOD8278, AF","FM-16","4","29.99","63","63","","","","","100","","","","","","090","","1","","","","","","","","","","","","","","","","","","","","","","","","","","","","","","","","","","","","","","","","","","","","","","","","","","","","","","","","","","","","","","","","","","","","","","","","","","","","","","","","","","","","","","","","","","","MET090MOBOB0 METAR 8268 //003 000000 201129Z AUTO 09001KT //// CLR 17/17 A2999 RMK CDP03528 CLR;","","","","","","","","","",""
"00826899999","2010-10-20T16:14:00","32.95","65.5666666","1156.72","WXPOD8278, AF","FM-16","4","29.99","63","63","","","","","100","","","","","","090","","1","","","","","","","","","","","","","","","","","","","","","","","","","","","","","","","","","","","","","","","","","","","","","","","","","","","","","","","","","","","","","","","","","","","","","","","","","","","","","","","","","","","","","","","","","","","MET090MOBOB0 METAR 8268 //003 000000 201144Z AUTO 09001KT //// CLR 17/17 A2999 RMK CDP03528 CLR;","","","","","","","","","",""
"00826899999","2010-10-20T16:30:00","32.95","65.5666666","1156.72","WXPOD8278, AF","FM-15","4","30.00","63","63","","","","","100","","","","","","070","","1","","","","","","","","","","","","","","","","","","","","","","","","","","","","","","","","","","","","","","","","","","","","","","","","","","","","","","","","","","","","","","","","","","","","","","","","","","","","","","","","","","","","","","","","","","","MET090MOBOB0 METAR 8268 //003 000000 201159Z AUTO 07001KT //// CLR 17/17 A3000 RMK CDP03528 CLR;","","","","","","","","","",""
"00826899999","2010-10-20T16:44:00","32.95","65.5666666","1156.72","WXPOD8278, AF","FM-16","4","30.00","63","63","","","","","100","","","","","","070","","2","","","","","","","","","","","","","","","","","","","","","","","","","","","","","","","","","","","","","","","","","","","","","","","","","","","","","","","","","","","","","","","","","","","","","","","","","","","","","","","","","","","","","","","","","","","MET090MOBOB0 METAR 8268 //003 000000 201214Z AUTO 07002KT //// CLR 17/17 A3000 RMK CDP03528 CLR;","","","","","","","","","",""
"00826899999","2010-10-20T16:59:00","32.95","65.5666666","1156.72","WXPOD8278, AF","FM-16","4","30.00","63","63","","","","","100","","","","","","090","","2","","","","","","","","","","","","","","","","","","","","","","","","","","","","","","","","","","","","","","","","","","","","","","","","","","","","","","","","","","","","","","","","","","","","","","","","","","","","","","","","","","","","","","","","","","","MET090MOBOB0 METAR 8268 //003 000000 201229Z AUTO 09002KT //// CLR 17/17 A3000 RMK CDP03528 CLR;","","","","","","","","","",""
"00826899999","2010-10-20T17:14:00","32.95","65.5666666","1156.72","WXPOD8278, AF","FM-16","4","30.00","64","64","","","","","100","","","","","","120","","1","","","","","","","","","","","","","","","","","","","","","","","","","","","","","","","","","","","","","","","","","","","","","","","","","","","","","","","","","","","","","","","","","","","","","","","","","","","","","","","","","","","","","","","","","","","MET090MOBOB0 METAR 8268 //003 000000 201244Z AUTO 12001KT //// CLR 18/18 A3000 RMK CDP03528 CLR;","","","","","","","","","",""
"00826899999","2010-10-20T17:30:00","32.95","65.5666666","1156.72","WXPOD8278, AF","FM-15","4","30.00","64","64","","","","","100","","","","","","110","","1","","","","","","","","","","","","","","","","","","","","","","","","","","","","","","","","","","","","","","","","","","","","","","","","","","","","","","","","","","","","","","","","","","","","","","","","","","","","","","","","","","","","","","","","","","","MET090MOBOB0 METAR 8268 //003 000000 201259Z AUTO 11001KT //// CLR 18/18 A3000 RMK CDP03528 CLR;","","","","","","","","","",""
"00826899999","2010-10-20T17:44:00","32.95","65.5666666","1156.72","WXPOD8278, AF","FM-16","4","30.01","64","64","","","","","100","","","","","","090","","2","","","","","","","","","","","","","","","","","","","","","","","","","","","","","","","","","","","","","","","","","","","","","","","","","","","","","","","","","","","","","","","","","","","","","","","","","","","","","","","","","","","","","","","","","","","MET090MOBOB0 METAR 8268 //003 000000 201314Z AUTO 09002KT //// CLR 18/18 A3001 RMK CDP03528 CLR;","","","","","","","","","",""
"00826899999","2010-10-20T17:59:00","32.95","65.5666666","1156.72","WXPOD8278, AF","FM-16","4","30.01","64","64","","","","","100","","","","","","060","","1","","","","","","","","","","","","","","","","","","","","","","","","","","","","","","","","","","","","","","","","","","","","","","","","","","","","","","","","","","","","","","","","","","","","","","","","","","","","","","","","","","","","","","","","","","","MET090MOBOB0 METAR 8268 //003 000000 201329Z AUTO 06001KT //// CLR 18/18 A3001 RMK CDP03528 CLR;","","","","","","","","","",""
"00826899999","2010-10-20T18:14:00","32.95","65.5666666","1156.72","WXPOD8278, AF","FM-16","4","30.02","66","66","","","","","100","OVC:08 1","","","","","010","","1","","","","","","","","","","","","","","","","","","","","","","","","","","","","","","","","","","","","","","","","","","","","","","","","","","","","","","","","","","","","","","","","","","","","","","","","","","","","","","","","","","","","","","","","","","","MET108MOBOB0 METAR 8268 //003 000000 201344Z AUTO 01001KT //// OVC001 19/19 A3002 RMK CDP03528 OVC001 CLD AVG 001;","","","","","","","","","",""
"00826899999","2010-10-20T18:30:00","32.95","65.5666666","1156.72","WXPOD8278, AF","FM-15","4","30.02","66","66","","","","","100","OVC:08 1","","","","","040","","1","","","","","","","","","","","","","","","","","","","","","","","","","","","","","","","","","","","","","","","","","","","","","","","","","","","","","","","","","","","","","","","","","","","","","","","","","","","","","","","","","","","","","","","","","","","MET108MOBOB0 METAR 8268 //003 000000 201359Z AUTO 04001KT //// OVC001 19/19 A3002 RMK CDP03528 OVC001 CLD AVG 001;","","","","","","","","","",""
"00826899999","2010-10-20T18:44:00","32.95","65.5666666","1156.72","WXPOD8278, AF","FM-16","4","30.03","66","66","","","","","100","OVC:08 1","","","","","050","","2","","","","","","","","","","","","","","","","","","","","","","","","","","","","","","","","","","","","","","","","","","","","","","","","","","","","","","","","","","","","","","","","","","","","","","","","","","","","","","","","","","","","","","","","","","","MET108MOBOB0 METAR 8268 //003 000000 201414Z AUTO 05002KT //// OVC001 19/19 A3003 RMK CDP03528 OVC001 CLD AVG 001;","","","","","","","","","",""
"00826899999","2010-10-20T18:59:00","32.95","65.5666666","1156.72","WXPOD8278, AF","FM-16","4","30.03","66","66","","","","","100","OVC:08 1","","","","","000","","0","","","","","","","","","","","","","","","","","","","","","","","","","","","","","","","","","","","","","","","","","","","","","","","","","","","","","","","","","","","","","","","","","","","","","","","","","","","","","","","","","","","","","","","","","","","MET108MOBOB0 METAR 8268 //003 000000 201429Z AUTO 00000KT //// OVC001 19/19 A3003 RMK CDP03528 OVC001 CLD AVG 002;","","","","","","","","","",""
"00826899999","2010-10-20T19:14:00","32.95","65.5666666","1156.72","WXPOD8278, AF","FM-16","4","30.04","68","68","","","","","100","OVC:08 3","","","","","200","","1","","","","","","","","","","","","","","","","","","","","","","","","","","","","","","","","","","","","","","","","","","","","","","","","","","","","","","","","","","","","","","","","","","","","","","","","","","","","","","","","","","","","","","","","","","","MET108MOBOB0 METAR 8268 //003 000000 201444Z AUTO 20001KT //// OVC003 20/20 A3004 RMK CDP03528 OVC003 CLD AVG 004;","","","","","","","","","",""
"00826899999","2010-10-20T19:30:00","32.95","65.5666666","1156.72","WXPOD8278, AF","FM-15","4","30.04","68","68","","","","","100","OVC:08 3","","","","","140","","1","","","","","","","","","","","","","","","","","","","","","","","","","","","","","","","","","","","","","","","","","","","","","","","","","","","","","","","","","","","","","","","","","","","","","","","","","","","","","","","","","","","","","","","","","","","MET108MOBOB0 METAR 8268 //003 000000 201459Z AUTO 14001KT //// OVC003 20/20 A3004 RMK CDP03528 OVC003 CLD AVG 006;","","","","","","","","","",""
"00826899999","2010-10-20T19:44:00","32.95","65.5666666","1156.72","WXPOD8278, AF","FM-16","4","30.04","68","68","","","","","100","OVC:08 7","","","","","210","","2","","","","","","","","","","","","","","","","","","","","","","","","","","","","","","","","","","","","","","","","","","","","","","","","","","","","","","","","","","","","","","","","","","","","","","","","","","","","","","","","","","","","","","","","","","","MET108MOBOB0 METAR 8268 //003 000000 201514Z AUTO 21002KT //// OVC007 20/20 A3004 RMK CDP03528 OVC007 CLD AVG 008;","","","","","","","","","",""
"00826899999","2010-10-20T19:59:00","32.95","65.5666666","1156.72","WXPOD8278, AF","FM-16","4","30.04","68","68","","","","","100","BKN:07 6","","","","","270","","2","","","","","","","","","","","","","","","","","","","","","","","","","","","","","","","","","","","","","","","","","","","","","","","","","","","","","","","","","","","","","","","","","","","","","","","","","","","","","","","","","","","","","","","","","","","MET108MOBOB0 METAR 8268 //003 000000 201529Z AUTO 27002KT //// BKN006 20/20 A3004 RMK CDP03528 BKN006 CLD AVG 007;","","","","","","","","","",""
"00826899999","2010-10-20T20:14:00","32.95","65.5666666","1156.72","WXPOD8278, AF","FM-16","4","30.04","70","70","","","","","100","OVC:08 7","","","","","210","","3","","","","","","","","","","","","","","","","","","","","","","","","","","","","","","","","","","","","","","","","","","","","","","","","","","","","","","","","","","","","","","","","","","","","","","","","","","","","","","","","","","","","","","","","","","","MET108MOBOB0 METAR 8268 //003 000000 201544Z AUTO 21003KT //// OVC007 21/21 A3004 RMK CDP03528 OVC007 CLD AVG 007;","","","","","","","","","",""
"00826899999","2010-10-20T20:30:00","32.95","65.5666666","1156.72","WXPOD8278, AF","FM-15","4","30.04","72","72","","","","","100","BKN:07 7","","","","","220","","2","","","","","","","","","","","","","","","","","","","","","","","","","","","","","","","","","","","","","","","","","","","","","","","","","","","","","","","","","","","","","","","","","","","","","","","","","","","","","","","","","","","","","","","","","","","MET108MOBOB0 METAR 8268 //003 000000 201559Z AUTO 22002KT //// BKN007 22/22 A3004 RMK CDP03528 BKN007 CLD AVG 009;","","","","","","","","","",""
"00826899999","2010-10-20T20:44:00","32.95","65.5666666","1156.72","WXPOD8278, AF","FM-16","4","30.04","70","72","","","","","94","OVC:08 9","","","","","130","","1","","","","","","","","","","","","","","","","","","","","","","","","","","","","","","","","","","","","","","","","","","","","","","","","","","","","","","","","","","","","","","","","","","","","","","","","","","","","","","","","","","","","","","","","","","","MET108MOBOB0 METAR 8268 //003 000000 201614Z AUTO 13001KT //// OVC009 22/21 A3004 RMK CDP03528 OVC009 CLD AVG 009;","","","","","","","","","",""
"00826899999","2010-10-20T20:59:00","32.95","65.5666666","1156.72","WXPOD8278, AF","FM-16","4","30.04","72","72","","","","","100","OVC:08 10","","","","","010","","1","","","","","","","","","","","","","","","","","","","","","","","","","","","","","","","","","","","","","","","","","","","","","","","","","","","","","","","","","","","","","","","","","","","","","","","","","","","","","","","","","","","","","","","","","","","MET108MOBOB0 METAR 8268 //003 000000 201629Z AUTO 01001KT //// OVC010 22/22 A3004 RMK CDP03528 OVC010 CLD AVG 010;","","","","","","","","","",""
"00826899999","2010-10-20T21:14:00","32.95","65.5666666","1156.72","WXPOD8278, AF","FM-16","4","30.04","72","73","","","","","94","OVC:08 11","","","","","360","","1","","","","","","","","","","","","","","","","","","","","","","","","","","","","","","","","","","","","","","","","","","","","","","","","","","","","","","","","","","","","","","","","","","","","","","","","","","","","","","","","","","","","","","","","","","","MET108MOBOB0 METAR 8268 //003 000000 201644Z AUTO 36001KT //// OVC011 23/22 A3004 RMK CDP03528 OVC011 CLD AVG 012;","","","","","","","","","",""
"00826899999","2010-10-20T21:30:00","32.95","65.5666666","1156.72","WXPOD8278, AF","FM-15","4","30.04","72","73","","","","","94","OVC:08 12","","","","","320","","2","","","","","","","","","","","","","","","","","","","","","","","","","","","","","","","","","","","","","","","","","","","","","","","","","","","","","","","","","","","","","","","","","","","","","","","","","","","","","","","","","","","","","","","","","","","MET108MOBOB0 METAR 8268 //003 000000 201659Z AUTO 32002KT //// OVC012 23/22 A3004 RMK CDP03528 OVC012 CLD AVG 015;","","","","","","","","","",""
"00826899999","2010-10-20T21:44:00","32.95","65.5666666","1156.72","WXPOD8278, AF","FM-16","4","30.04","70","73","","","","","89","OVC:08 13","","","","","340","","3","","","","","","","","","","","","","","","","","","","","","","","","","","","","","","","","","","","","","","","","","","","","","","","","","","","","","","","","","","","","","","","","","","","","","","","","","","","","","","","","","","","","","","","","","","","MET108MOBOB0 METAR 8268 //003 000000 201714Z AUTO 34003KT //// OVC013 23/21 A3004 RMK CDP03528 OVC013 CLD AVG 014;","","","","","","","","","",""
"00826899999","2010-10-20T21:59:00","32.95","65.5666666","1156.72","WXPOD8278, AF","FM-16","4","30.04","70","73","","","","","89","SCT:04 15","","","","","010","","6","","","","","","","","","","","","","","","","","","","","","","","","","","","","","","","","","","","","","","","","","","","","","","","","","","","","","","","","","","","","","","","","","","","","","","","","","","","","","","","","","","","","","","","","","","","MET108MOBOB0 METAR 8268 //003 000000 201729Z AUTO 01005KT //// SCT015 23/21 A3004 RMK CDP03528 SCT015 CLD AVG 016;","","","","","","","","","",""
"00826899999","2010-10-20T22:14:00","32.95","65.5666666","1156.72","WXPOD8278, AF","FM-16","4","30.03","70","77","","","","","79","","","","","","020","","2","","","","","","","","","","","","","","","","","","","","","","","","","","","","","","","","","","","","","","","","","","","","","","","","","","","","","","","","","","","","","","","","","","","","","","","","","","","","","","","","","","","","","","","","","","","MET090MOBOB0 METAR 8268 //003 000000 201744Z AUTO 02002KT //// CLR 25/21 A3003 RMK CDP03528 CLR;","","","","","","","","","",""
"00826899999","2010-10-20T22:30:00","32.95","65.5666666","1156.72","WXPOD8278, AF","FM-15","4","30.03","70","77","","","","","79","SCT:04 19","","","","","110","","3","","","","","","","","","","","","","","","","","","","","","","","","","","","","","","","","","","","","","","","","","","","","","","","","","","","","","","","","","","","","","","","","","","","","","","","","","","","","","","","","","","","","","","","","","","","MET108MOBOB0 METAR 8268 //003 000000 201759Z AUTO 11003KT //// SCT019 25/21 A3003 RMK CDP03528 SCT019 CLD AVG 020;","","","","","","","","","",""
"00826899999","2010-10-20T22:44:00","32.95","65.5666666","1156.72","WXPOD8278, AF","FM-16","4","30.02","72","79","","","","","79","FEW:02 20","","","","","130","","3","","","","","","","","","","","","","","","","","","","","","","","","","","","","","","","","","","","","","","","","","","","","","","","","","","","","","","","","","","","","","","","","","","","","","","","","","","","","","","","","","","","","","","","","","","","MET108MOBOB0 METAR 8268 //003 000000 201814Z AUTO 13003KT //// FEW020 26/22 A3002 RMK CDP03528 FEW020 CLD AVG 020;","","","","","","","","","",""
"00826899999","2010-10-20T22:59:00","32.95","65.5666666","1156.72","WXPOD8278, AF","FM-16","4","30.01","72","82","","","","","70","SCT:04 21","","","","","040","","2","","","","","","","","","","","","","","","","","","","","","","","","","","","","","","","","","","","","","","","","","","","","","","","","","","","","","","","","","","","","","","","","","","","","","","","","","","","","","","","","","","","","","","","","","","","MET108MOBOB0 METAR 8268 //003 000000 201829Z AUTO 04002KT //// SCT021 28/22 A3001 RMK CDP03528 SCT021 CLD AVG 022;","","","","","","","","","",""
"00826899999","2010-10-20T23:14:00","32.95","65.5666666","1156.72","WXPOD8278, AF","FM-16","4","30.00","68","77","","","","","74","FEW:02 23","","","","","050","","2","","","","","","","","","","","","","","","","","","","","","","","","","","","","","","","","","","","","","","","","","","","","","","","","","","","","","","","","","","","","","","","","","","","","","","","","","","","","","","","","","","","","","","","","","","","MET108MOBOB0 METAR 8268 //003 000000 201844Z AUTO 05002KT //// FEW023 25/20 A3000 RMK CDP03528 FEW023 CLD AVG 023;","","","","","","","","","",""
"00826899999","2010-10-20T23:30:00","32.95","65.5666666","1156.72","WXPOD8278, AF","FM-15","4","30.00","68","81","","","","","66","","","","","","050","","1","","","","","","","","","","","","","","","","","","","","","","","","","","","","","","","","","","","","","","","","","","","","","","","","","","","","","","","","","","","","","","","","","","","","","","","","","","","","","","","","","","","","","","","","","","","MET090MOBOB0 METAR 8268 //003 000000 201859Z AUTO 05001KT //// CLR 27/20 A3000 RMK CDP03528 CLR;","","","","","","","","","",""
"00826899999","2010-10-20T23:44:00","32.95","65.5666666","1156.72","WXPOD8278, AF","FM-16","4","29.99","70","81","","","","","70","BKN:07 27","","","","","060","","3","","","","","","","","","","","","","","","","","","","","","","","","","","","","","","","","","","","","","","","","","","","","","","","","","","","","","","","","","","","","","","","","","","","","","","","","","","","","","","","","","","","","","","","","","","","MET108MOBOB0 METAR 8268 //003 000000 201914Z AUTO 06003KT //// BKN027 27/21 A2999 RMK CDP03528 BKN027 CLD AVG 031;","","","","","","","","","",""
"00826899999","2010-10-20T23:59:00","32.95","65.5666666","1156.72","WXPOD8278, AF","FM-16","4","29.99","68","81","","","","","66","FEW:02 31","","","","","090","","2","","","","","","","","","","","","","","","","","","","","","","","","","","","","","","","","","","","","","","","","","","","","","","","","","","","","","","","","","","","","","","","","","","","","","","","","","","","","","","","","","","","","","","","","","","","MET108MOBOB0 METAR 8268 //003 000000 201929Z AUTO 09002KT //// FEW031 27/20 A2999 RMK CDP03528 FEW031 CLD AVG 032;","","","","","","","","","",""
"00826899999","2010-10-21T00:14:00","32.95","65.5666666","1156.72","WXPOD8278, AF","FM-16","4","29.99","70","84","","","","","62","BKN:07 32","","","","","040","","2","","","","","","","","","","","","","","","","","","","","","","","","","","","","","","","","","","","","","","","","","","","","","","","","","","","","","","","","","","","","","","","","","","","","","","","","","","","","","","","","","","","","","","","","","","","MET108MOBOB0 METAR 8268 //003 000000 201944Z AUTO 04002KT //// BKN032 29/21 A2999 RMK CDP03528 BKN032 CLD AVG 032;","","","","","","","","","",""
"00826899999","2010-10-21T00:30:00","32.95","65.5666666","1156.72","WXPOD8278, AF","FM-15","4","29.98","70","82","","","","","66","","","","","","040","","5","","","","","","","","","","","","","","","","","","","","","","","","","","","","","","","","","","","","","","","","","","","","","","","","","","","","","","","","","","","","","","","","","","","","","","","","","","","","","","","","","","","","","","","","","","","MET090MOBOB0 METAR 8268 //003 000000 201959Z AUTO 04004KT //// CLR 28/21 A2998 RMK CDP03528 CLR;","","","","","","","","","",""
"00826899999","2010-10-21T00:44:00","32.95","65.5666666","1156.72","WXPOD8278, AF","FM-16","4","29.98","68","81","","","","","66","","","","","","310","","2","","","","","","","","","","","","","","","","","","","","","","","","","","","","","","","","","","","","","","","","","","","","","","","","","","","","","","","","","","","","","","","","","","","","","","","","","","","","","","","","","","","","","","","","","","","MET090MOBOB0 METAR 8268 //003 000000 202014Z AUTO 31002KT //// CLR 27/20 A2998 RMK CDP03528 CLR;","","","","","","","","","",""
"00826899999","2010-10-21T00:59:00","32.95","65.5666666","1156.72","WXPOD8278, AF","FM-16","4","29.98","66","82","","","","","58","BKN:07 30","","","","","000","","0","","","","","","","","","","","","","","","","","","","","","","","","","","","","","","","","","","","","","","","","","","","","","","","","","","","","","","","","","","","","","","","","","","","","","","","","","","","","","","","","","","","","","","","","","","","MET108MOBOB0 METAR 8268 //003 000000 202029Z AUTO 00000KT //// BKN030 28/19 A2998 RMK CDP03528 BKN030 CLD AVG 035;","","","","","","","","","",""
"00826899999","2010-10-21T01:14:00","32.95","65.5666666","1156.72","WXPOD8278, AF","FM-16","4","29.98","68","81","","","","","66","","","","","","070","","3","","","","","","","","","","","","","","","","","","","","","","","","","","","","","","","","","","","","","","","","","","","","","","","","","","","","","","","","","","","","","","","","","","","","","","","","","","","","","","","","","","","","","","","","","","","MET090MOBOB0 METAR 8268 //003 000000 202044Z AUTO 07003KT //// CLR 27/20 A2998 RMK CDP03528 CLR;","","","","","","","","","",""
"00826899999","2010-10-21T01:30:00","32.95","65.5666666","1156.72","WXPOD8278, AF","FM-15","4","29.98","66","81","","","","","62","","","","","","250","","2","","","","","","","","","","","","","","","","","","","","","","","","","","","","","","","","","","","","","","","","","","","","","","","","","","","","","","","","","","","","","","","","","","","","","","","","","","","","","","","","","","","","","","","","","","","MET090MOBOB0 METAR 8268 //003 000000 202059Z AUTO 25002KT //// CLR 27/19 A2998 RMK CDP03528 CLR;","","","","","","","","","",""
"00826899999","2010-10-21T01:44:00","32.95","65.5666666","1156.72","WXPOD8278, AF","FM-16","4","29.98","68","84","","","","","58","","","","","","090","","1","","","","","","","","","","","","","","","","","","","","","","","","","","","","","","","","","","","","","","","","","","","","","","","","","","","","","","","","","","","","","","","","","","","","","","","","","","","","","","","","","","","","","","","","","","","MET090MOBOB0 METAR 8268 //003 000000 202114Z AUTO 09001KT //// CLR 29/20 A2998 RMK CDP03528 CLR;","","","","","","","","","",""
"00826899999","2010-10-21T01:59:00","32.95","65.5666666","1156.72","WXPOD8278, AF","FM-16","4","29.97","68","84","","","","","58","BKN:07 35","","","","","060","","5","","","","","","","","","","","","","","","","","","","","","","","","","","","","","","","","","","","","","","","","","","","","","","","","","","","","","","","","","","","","","","","","","","","","","","","","","","","","","","","","","","","","","","","","","","","MET108MOBOB0 METAR 8268 //003 000000 202129Z AUTO 06004KT //// BKN036 29/20 A2997 RMK CDP03528 BKN036 CLD AVG 037;","","","","","","","","","",""
"00826899999","2010-10-21T02:14:00","32.95","65.5666666","1156.72","WXPOD8278, AF","FM-16","4","29.97","66","82","","","","","58","SCT:04 43","","","","","030","","1","","","","","","","","","","","","","","","","","","","","","","","","","","","","","","","","","","","","","","","","","","","","","","","","","","","","","","","","","","","","","","","","","","","","","","","","","","","","","","","","","","","","","","","","","","","MET108MOBOB0 METAR 8268 //003 000000 202144Z AUTO 03001KT //// SCT044 28/19 A2997 RMK CDP03528 SCT044 CLD AVG 045;","","","","","","","","","",""
"00826899999","2010-10-21T02:30:00","32.95","65.5666666","1156.72","WXPOD8278, AF","FM-15","4","29.97","68","82","","","","","62","FEW:02 36","","","","","100","","5","","","","","","","","","","","","","","","","","","","","","","","","","","","","","","","","","","","","","","","","","","","","","","","","","","","","","","","","","","","","","","","","","","","","","","","","","","","","","","","","","","","","","","","","","","","MET108MOBOB0 METAR 8268 //003 000000 202159Z AUTO 10004KT //// FEW037 28/20 A2997 RMK CDP03528 FEW037 CLD AVG 038;","","","","","","","","","",""
"00826899999","2010-10-21T02:44:00","32.95","65.5666666","1156.72","WXPOD8278, AF","FM-16","4","29.97","68","79","","","","","70","BKN:07 44","","","","","060","","5","","","","","","","","","","","","","","","","","","","","","","","","","","","","","","","","","","","","","","","","","","","","","","","","","","","","","","","","","","","","","","","","","","","","","","","","","","","","","","","","","","","","","","","","","","","MET108MOBOB0 METAR 8268 //003 000000 202214Z AUTO 06004KT //// BKN045 26/20 A2997 RMK CDP03528 BKN045 CLD AVG 048;","","","","","","","","","",""
"00826899999","2010-10-21T02:59:00","32.95","65.5666666","1156.72","WXPOD8278, AF","FM-16","4","29.97","68","79","","","","","70","","","","","","060","","3","","","","","","","","","","","","","","","","","","","","","","","","","","","","","","","","","","","","","","","","","","","","","","","","","","","","","","","","","","","","","","","","","","","","","","","","","","","","","","","","","","","","","","","","","","","MET090MOBOB0 METAR 8268 //003 000000 202229Z AUTO 06003KT //// CLR 26/20 A2997 RMK CDP03528 CLR;","","","","","","","","","",""
"00826899999","2010-10-21T03:14:00","32.95","65.5666666","1156.72","WXPOD8278, AF","FM-16","4","29.98","68","77","","","","","74","","","","","","070","","3","","","","","","","","","","","","","","","","","","","","","","","","","","","","","","","","","","","","","","","","","","","","","","","","","","","","","","","","","","","","","","","","","","","","","","","","","","","","","","","","","","","","","","","","","","","MET090MOBOB0 METAR 8268 //003 000000 202244Z AUTO 07003KT //// CLR 25/20 A2998 RMK CDP03528 CLR;","","","","","","","","","",""
"00826899999","2010-10-21T03:30:00","32.95","65.5666666","1156.72","WXPOD8278, AF","FM-15","4","29.98","68","77","","","","","74","","","","","","060","","2","","","","","","","","","","","","","","","","","","","","","","","","","","","","","","","","","","","","","","","","","","","","","","","","","","","","","","","","","","","","","","","","","","","","","","","","","","","","","","","","","","","","","","","","","","","MET090MOBOB0 METAR 8268 //003 000000 202259Z AUTO 06002KT //// CLR 25/20 A2998 RMK CDP03528 CLR;","","","","","","","","","",""
"00826899999","2010-10-21T03:44:00","32.95","65.5666666","1156.72","WXPOD8278, AF","FM-16","4","29.98","68","75","","","","","78","","","","","","070","","3","","","","","","","","","","","","","","","","","","","","","","","","","","","","","","","","","","","","","","","","","","","","","","","","","","","","","","","","","","","","","","","","","","","","","","","","","","","","","","","","","","","","","","","","","","","MET090MOBOB0 METAR 8268 //003 000000 202314Z AUTO 07003KT //// CLR 24/20 A2998 RMK CDP03528 CLR;","","","","","","","","","",""
"00826899999","2010-10-21T03:59:00","32.95","65.5666666","1156.72","WXPOD8278, AF","FM-16","4","29.98","68","75","","","","","78","","","","","","080","","3","","","","","","","","","","","","","","","","","","","","","","","","","","","","","","","","","","","","","","","","","","","","","","","","","","","","","","","","","","","","","","","","","","","","","","","","","","","","","","","","","","","","","","","","","","","MET090MOBOB0 METAR 8268 //003 000000 202329Z AUTO 08003KT //// CLR 24/20 A2998 RMK CDP03528 CLR;","","","","","","","","","",""
"00826899999","2010-10-21T04:14:00","32.95","65.5666666","1156.72","WXPOD8278, AF","FM-16","4","29.99","68","73","","","","","83","","","","","","070","","3","","","","","","","","","","","","","","","","","","","","","","","","","","","","","","","","","","","","","","","","","","","","","","","","","","","","","","","","","","","","","","","","","","","","","","","","","","","","","","","","","","","","","","","","","","","MET090MOBOB0 METAR 8268 //003 000000 202344Z AUTO 07003KT //// CLR 23/20 A2999 RMK CDP03528 CLR;","","","","","","","","","",""
"00826899999","2010-10-21T04:30:00","32.95","65.5666666","1156.72","WXPOD8278, AF","FM-15","4","29.99","68","73","","","","","83","","","","","","060","","3","","","","","","","","","","","","","","","","","","","","","","","","","","","","","","","","","","","","","","","","","","","","","","","","","","","","","","","","","","","","","","","","","","","","","","","","","","","","","","","","","","","","","","","","","","","MET090MOBOB0 METAR 8268 //003 000000 202359Z AUTO 06003KT //// CLR 23/20 A2999 RMK CDP03528 CLR;","","","","","","","","","",""
"00826899999","2010-10-21T04:44:00","32.95","65.5666666","1156.72","WXPOD8278, AF","FM-16","4","30.00","68","72","","","","","88","","","","","","070","","2","","","","","","","","","","","","","","","","","","","","","","","","","","","","","","","","","","","","","","","","","","","","","","","","","","","","","","","","","","","","","","","","","","","","","","","","","","","","","","","","","","","","","","","","","","","MET090MOBOB0 METAR 8268 //003 000000 210014Z AUTO 07002KT //// CLR 22/20 A3000 RMK CDP03528 CLR;","","","","","","","","","",""
"00826899999","2010-10-21T04:59:00","32.95","65.5666666","1156.72","WXPOD8278, AF","FM-16","4","30.00","68","72","","","","","88","","","","","","060","","2","","","","","","","","","","","","","","","","","","","","","","","","","","","","","","","","","","","","","","","","","","","","","","","","","","","","","","","","","","","","","","","","","","","","","","","","","","","","","","","","","","","","","","","","","","","MET090MOBOB0 METAR 8268 //003 000000 210029Z AUTO 06002KT //// CLR 22/20 A3000 RMK CDP03528 CLR;","","","","","","","","","",""
"00826899999","2010-10-21T05:14:00","32.95","65.5666666","1156.72","WXPOD8278, AF","FM-16","4","30.01","68","70","","","","","94","","","","","","070","","1","","","","","","","","","","","","","","","","","","","","","","","","","","","","","","","","","","","","","","","","","","","","","","","","","","","","","","","","","","","","","","","","","","","","","","","","","","","","","","","","","","","","","","","","","","","MET090MOBOB0 METAR 8268 //003 000000 210044Z AUTO 07001KT //// CLR 21/20 A3001 RMK CDP03528 CLR;","","","","","","","","","",""
"00826899999","2010-10-21T05:44:00","32.95","65.5666666","1156.72","WXPOD8278, AF","FM-16","4","30.01","68","70","","","","","94","","","","","","040","","2","","","","","","","","","","","","","","","","","","","","","","","","","","","","","","","","","","","","","","","","","","","","","","","","","","","","","","","","","","","","","","","","","","","","","","","","","","","","","","","","","","","","","","","","","","","MET090MOBOB0 METAR 8268 //003 000000 210114Z AUTO 04002KT //// CLR 21/20 A3001 RMK CDP03528 CLR;","","","","","","","","","",""
"00826899999","2010-10-21T05:59:00","32.95","65.5666666","1156.72","WXPOD8278, AF","FM-16","4","30.02","68","70","","","","","94","FEW:02 62","","","","","070","","1","","","","","","","","","","","","","","","","","","","","","","","","","","","","","","","","","","","","","","","","","","","","","","","","","","","","","","","","","","","","","","","","","","","","","","","","","","","","","","","","","","","","","","","","","","","MET108MOBOB0 METAR 8268 //003 000000 210129Z AUTO 07001KT //// FEW063 21/20 A3002 RMK CDP03528 FEW063 CLD AVG 063;","","","","","","","","","",""
"00826899999","2010-10-21T06:14:00","32.95","65.5666666","1156.72","WXPOD8278, AF","FM-16","4","30.02","68","68","","","","","100","","","","","","080","","2","","","","","","","","","","","","","","","","","","","","","","","","","","","","","","","","","","","","","","","","","","","","","","","","","","","","","","","","","","","","","","","","","","","","","","","","","","","","","","","","","","","","","","","","","","","MET090MOBOB0 METAR 8268 //003 000000 210144Z AUTO 08002KT //// CLR 20/20 A3002 RMK CDP03528 CLR;","","","","","","","","","",""
"00826899999","2010-10-21T06:30:00","32.95","65.5666666","1156.72","WXPOD8278, AF","FM-15","4","30.02","68","68","","","","","100","","","","","","050","","1","","","","","","","","","","","","","","","","","","","","","","","","","","","","","","","","","","","","","","","","","","","","","","","","","","","","","","","","","","","","","","","","","","","","","","","","","","","","","","","","","","","","","","","","","","","MET090MOBOB0 METAR 8268 //003 000000 210159Z AUTO 05001KT //// CLR 20/20 A3002 RMK CDP03528 CLR;","","","","","","","","","",""
"00826899999","2010-10-21T06:44:00","32.95","65.5666666","1156.72","WXPOD8278, AF","FM-16","4","30.02","68","68","","","","","100","","","","","","060","","1","","","","","","","","","","","","","","","","","","","","","","","","","","","","","","","","","","","","","","","","","","","","","","","","","","","","","","","","","","","","","","","","","","","","","","","","","","","","","","","","","","","","","","","","","","","MET090MOBOB0 METAR 8268 //003 000000 210214Z AUTO 06001KT //// CLR 20/20 A3002 RMK CDP03528 CLR;","","","","","","","","","",""
"00826899999","2010-10-21T06:59:00","32.95","65.5666666","1156.72","WXPOD8278, AF","FM-16","4","30.03","66","66","","","","","100","","","","","","060","","1","","","","","","","","","","","","","","","","","","","","","","","","","","","","","","","","","","","","","","","","","","","","","","","","","","","","","","","","","","","","","","","","","","","","","","","","","","","","","","","","","","","","","","","","","","","MET090MOBOB0 METAR 8268 //003 000000 210229Z AUTO 06001KT //// CLR 19/19 A3003 RMK CDP03528 CLR;","","","","","","","","","",""
"00826899999","2010-10-21T07:30:00","32.95","65.5666666","1156.72","WXPOD8278, AF","FM-15","4","30.03","66","66","","","","","100","","","","","","000","","0","","","","","","","","","","","","","","","","","","","","","","","","","","","","","","","","","","","","","","","","","","","","","","","","","","","","","","","","","","","","","","","","","","","","","","","","","","","","","","","","","","","","","","","","","","","MET090MOBOB0 METAR 8268 //003 000000 210259Z AUTO 00000KT //// CLR 19/19 A3003 RMK CDP03528 CLR;","","","","","","","","","",""
"00826899999","2010-10-21T07:44:00","32.95","65.5666666","1156.72","WXPOD8278, AF","FM-16","4","30.04","66","66","","","","","100","","","","","","130","","1","","","","","","","","","","","","","","","","","","","","","","","","","","","","","","","","","","","","","","","","","","","","","","","","","","","","","","","","","","","","","","","","","","","","","","","","","","","","","","","","","","","","","","","","","","","MET090MOBOB0 METAR 8268 //003 000000 210314Z AUTO 13001KT //// CLR 19/19 A3004 RMK CDP03528 CLR;","","","","","","","","","",""
"00826899999","2010-10-21T07:59:00","32.95","65.5666666","1156.72","WXPOD8278, AF","FM-16","4","30.04","66","66","","","","","100","","","","","","120","","1","","","","","","","","","","","","","","","","","","","","","","","","","","","","","","","","","","","","","","","","","","","","","","","","","","","","","","","","","","","","","","","","","","","","","","","","","","","","","","","","","","","","","","","","","","","MET090MOBOB0 METAR 8268 //003 000000 210329Z AUTO 12001KT //// CLR 19/19 A3004 RMK CDP03528 CLR;","","","","","","","","","",""
"00826899999","2010-10-21T08:14:00","32.95","65.5666666","1156.72","WXPOD8278, AF","FM-16","4","30.04","64","64","","","","","100","","","","","","000","","0","","","","","","","","","","","","","","","","","","","","","","","","","","","","","","","","","","","","","","","","","","","","","","","","","","","","","","","","","","","","","","","","","","","","","","","","","","","","","","","","","","","","","","","","","","","MET090MOBOB0 METAR 8268 //003 000000 210344Z AUTO 00000KT //// CLR 18/18 A3004 RMK CDP03528 CLR;","","","","","","","","","",""
"00826899999","2010-10-21T08:30:00","32.95","65.5666666","1156.72","WXPOD8278, AF","FM-15","4","30.04","64","64","","","","","100","","","","","","000","","0","","","","","","","","","","","","","","","","","","","","","","","","","","","","","","","","","","","","","","","","","","","","","","","","","","","","","","","","","","","","","","","","","","","","","","","","","","","","","","","","","","","","","","","","","","","MET090MOBOB0 METAR 8268 //003 000000 210359Z AUTO 00000KT //// CLR 18/18 A3004 RMK CDP03528 CLR;","","","","","","","","","",""
"00826899999","2010-10-21T08:59:00","32.95","65.5666666","1156.72","WXPOD8278, AF","FM-16","4","30.04","64","64","","","","","100","","","","","","000","","0","","","","","","","","","","","","","","","","","","","","","","","","","","","","","","","","","","","","","","","","","","","","","","","","","","","","","","","","","","","","","","","","","","","","","","","","","","","","","","","","","","","","","","","","","","","MET090MOBOB0 METAR 8268 //003 000000 210429Z AUTO 00000KT //// CLR 18/18 A3004 RMK CDP03528 CLR;","","","","","","","","","",""
"00826899999","2010-10-21T09:14:00","32.95","65.5666666","1156.72","WXPOD8278, AF","FM-16","4","30.04","64","64","","","","","100","","","","","","190","","1","","","","","","","","","","","","","","","","","","","","","","","","","","","","","","","","","","","","","","","","","","","","","","","","","","","","","","","","","","","","","","","","","","","","","","","","","","","","","","","","","","","","","","","","","","","MET090MOBOB0 METAR 8268 //003 000000 210444Z AUTO 19001KT //// CLR 18/18 A3004 RMK CDP03528 CLR;","","","","","","","","","",""
"00826899999","2010-10-21T09:30:00","32.95","65.5666666","1156.72","WXPOD8278, AF","FM-15","4","30.03","64","64","","","","","100","","","","","","210","","1","","","","","","","","","","","","","","","","","","","","","","","","","","","","","","","","","","","","","","","","","","","","","","","","","","","","","","","","","","","","","","","","","","","","","","","","","","","","","","","","","","","","","","","","","","","MET090MOBOB0 METAR 8268 //003 000000 210459Z AUTO 21001KT //// CLR 18/18 A3003 RMK CDP03528 CLR;","","","","","","","","","",""
"00826899999","2010-10-21T09:44:00","32.95","65.5666666","1156.72","WXPOD8278, AF","FM-16","4","30.03","64","64","","","","","100","","","","","","060","","1","","","","","","","","","","","","","","","","","","","","","","","","","","","","","","","","","","","","","","","","","","","","","","","","","","","","","","","","","","","","","","","","","","","","","","","","","","","","","","","","","","","","","","","","","","","MET090MOBOB0 METAR 8268 //003 000000 210514Z AUTO 06001KT //// CLR 18/18 A3003 RMK CDP03528 CLR;","","","","","","","","","",""
"00826899999","2010-10-21T09:59:00","32.95","65.5666666","1156.72","WXPOD8278, AF","FM-16","4","30.03","64","64","","","","","100","","","","","","200","","1","","","","","","","","","","","","","","","","","","","","","","","","","","","","","","","","","","","","","","","","","","","","","","","","","","","","","","","","","","","","","","","","","","","","","","","","","","","","","","","","","","","","","","","","","","","MET090MOBOB0 METAR 8268 //003 000000 210529Z AUTO 20001KT //// CLR 18/18 A3003 RMK CDP03528 CLR;","","","","","","","","","",""
"00826899999","2010-10-21T10:14:00","32.95","65.5666666","1156.72","WXPOD8278, AF","FM-16","4","30.03","64","64","","","","","100","","","","","","120","","1","","","","","","","","","","","","","","","","","","","","","","","","","","","","","","","","","","","","","","","","","","","","","","","","","","","","","","","","","","","","","","","","","","","","","","","","","","","","","","","","","","","","","","","","","","","MET090MOBOB0 METAR 8268 //003 000000 210544Z AUTO 12001KT //// CLR 18/18 A3003 RMK CDP03528 CLR;","","","","","","","","","",""
"00826899999","2010-10-21T10:30:00","32.95","65.5666666","1156.72","WXPOD8278, AF","FM-15","4","30.03","64","64","","","","","100","","","","","","070","","1","","","","","","","","","","","","","","","","","","","","","","","","","","","","","","","","","","","","","","","","","","","","","","","","","","","","","","","","","","","","","","","","","","","","","","","","","","","","","","","","","","","","","","","","","","","MET090MOBOB0 METAR 8268 //003 000000 210559Z AUTO 07001KT //// CLR 18/18 A3003 RMK CDP03528 CLR;","","","","","","","","","",""
"00826899999","2010-10-21T10:44:00","32.95","65.5666666","1156.72","WXPOD8278, AF","FM-16","4","30.03","63","63","","","","","100","","","","","","110","","1","","","","","","","","","","","","","","","","","","","","","","","","","","","","","","","","","","","","","","","","","","","","","","","","","","","","","","","","","","","","","","","","","","","","","","","","","","","","","","","","","","","","","","","","","","","MET090MOBOB0 METAR 8268 //003 000000 210614Z AUTO 11001KT //// CLR 17/17 A3003 RMK CDP03528 CLR;","","","","","","","","","",""
"00826899999","2010-10-21T10:59:00","32.95","65.5666666","1156.72","WXPOD8278, AF","FM-16","4","30.03","63","63","","","","","100","","","","","","030","","1","","","","","","","","","","","","","","","","","","","","","","","","","","","","","","","","","","","","","","","","","","","","","","","","","","","","","","","","","","","","","","","","","","","","","","","","","","","","","","","","","","","","","","","","","","","MET090MOBOB0 METAR 8268 //003 000000 210629Z AUTO 03001KT //// CLR 17/17 A3003 RMK CDP03528 CLR;","","","","","","","","","",""
"00826899999","2010-10-21T11:14:00","32.95","65.5666666","1156.72","WXPOD8278, AF","FM-16","4","30.03","63","63","","","","","100","","","","","","030","","1","","","","","","","","","","","","","","","","","","","","","","","","","","","","","","","","","","","","","","","","","","","","","","","","","","","","","","","","","","","","","","","","","","","","","","","","","","","","","","","","","","","","","","","","","","","MET090MOBOB0 METAR 8268 //003 000000 210644Z AUTO 03001KT //// CLR 17/17 A3003 RMK CDP03528 CLR;","","","","","","","","","",""
"00826899999","2010-10-21T11:30:00","32.95","65.5666666","1156.72","WXPOD8278, AF","FM-15","4","30.03","63","63","","","","","100","","","","","","050","","1","","","","","","","","","","","","","","","","","","","","","","","","","","","","","","","","","","","","","","","","","","","","","","","","","","","","","","","","","","","","","","","","","","","","","","","","","","","","","","","","","","","","","","","","","","","MET090MOBOB0 METAR 8268 //003 000000 210659Z AUTO 05001KT //// CLR 17/17 A3003 RMK CDP03528 CLR;","","","","","","","","","",""
"00826899999","2010-10-21T11:44:00","32.95","65.5666666","1156.72","WXPOD8278, AF","FM-16","4","30.03","63","63","","","","","100","","","","","","060","","1","","","","","","","","","","","","","","","","","","","","","","","","","","","","","","","","","","","","","","","","","","","","","","","","","","","","","","","","","","","","","","","","","","","","","","","","","","","","","","","","","","","","","","","","","","","MET090MOBOB0 METAR 8268 //003 000000 210714Z AUTO 06001KT //// CLR 17/17 A3003 RMK CDP03528 CLR;","","","","","","","","","",""
"00826899999","2010-10-21T11:59:00","32.95","65.5666666","1156.72","WXPOD8278, AF","FM-16","4","30.03","63","63","","","","","100","","","","","","030","","1","","","","","","","","","","","","","","","","","","","","","","","","","","","","","","","","","","","","","","","","","","","","","","","","","","","","","","","","","","","","","","","","","","","","","","","","","","","","","","","","","","","","","","","","","","","MET090MOBOB0 METAR 8268 //003 000000 210729Z AUTO 03001KT //// CLR 17/17 A3003 RMK CDP03528 CLR;","","","","","","","","","",""
"00826899999","2010-10-21T12:14:00","32.95","65.5666666","1156.72","WXPOD8278, AF","FM-16","4","30.03","63","63","","","","","100","","","","","","030","","1","","","","","","","","","","","","","","","","","","","","","","","","","","","","","","","","","","","","","","","","","","","","","","","","","","","","","","","","","","","","","","","","","","","","","","","","","","","","","","","","","","","","","","","","","","","MET090MOBOB0 METAR 8268 //003 000000 210744Z AUTO 03001KT //// CLR 17/17 A3003 RMK CDP03528 CLR;","","","","","","","","","",""
"00826899999","2010-10-21T12:30:00","32.95","65.5666666","1156.72","WXPOD8278, AF","FM-15","4","30.03","63","63","","","","","100","","","","","","150","","1","","","","","","","","","","","","","","","","","","","","","","","","","","","","","","","","","","","","","","","","","","","","","","","","","","","","","","","","","","","","","","","","","","","","","","","","","","","","","","","","","","","","","","","","","","","MET090MOBOB0 METAR 8268 //003 000000 210759Z AUTO 15001KT //// CLR 17/17 A3003 RMK CDP03528 CLR;","","","","","","","","","",""
"00826899999","2010-10-21T12:44:00","32.95","65.5666666","1156.72","WXPOD8278, AF","FM-16","4","30.03","63","63","","","","","100","","","","","","050","","1","","","","","","","","","","","","","","","","","","","","","","","","","","","","","","","","","","","","","","","","","","","","","","","","","","","","","","","","","","","","","","","","","","","","","","","","","","","","","","","","","","","","","","","","","","","MET090MOBOB0 METAR 8268 //003 000000 210814Z AUTO 05001KT //// CLR 17/17 A3003 RMK CDP03528 CLR;","","","","","","","","","",""
"00826899999","2010-10-21T12:59:00","32.95","65.5666666","1156.72","WXPOD8278, AF","FM-16","4","30.03","63","63","","","","","100","","","","","","030","","1","","","","","","","","","","","","","","","","","","","","","","","","","","","","","","","","","","","","","","","","","","","","","","","","","","","","","","","","","","","","","","","","","","","","","","","","","","","","","","","","","","","","","","","","","","","MET090MOBOB0 METAR 8268 //003 000000 210829Z AUTO 03001KT //// CLR 17/17 A3003 RMK CDP03528 CLR;","","","","","","","","","",""
"00826899999","2010-10-21T13:14:00","32.95","65.5666666","1156.72","WXPOD8278, AF","FM-16","4","30.03","63","63","","","","","100","","","","","","050","","1","","","","","","","","","","","","","","","","","","","","","","","","","","","","","","","","","","","","","","","","","","","","","","","","","","","","","","","","","","","","","","","","","","","","","","","","","","","","","","","","","","","","","","","","","","","MET090MOBOB0 METAR 8268 //003 000000 210844Z AUTO 05001KT //// CLR 17/17 A3003 RMK CDP03528 CLR;","","","","","","","","","",""
"00826899999","2010-10-21T13:30:00","32.95","65.5666666","1156.72","WXPOD8278, AF","FM-15","4","30.03","63","63","","","","","100","","","","","","050","","1","","","","","","","","","","","","","","","","","","","","","","","","","","","","","","","","","","","","","","","","","","","","","","","","","","","","","","","","","","","","","","","","","","","","","","","","","","","","","","","","","","","","","","","","","","","MET090MOBOB0 METAR 8268 //003 000000 210859Z AUTO 05001KT //// CLR 17/17 A3003 RMK CDP03528 CLR;","","","","","","","","","",""
"00826899999","2010-10-21T13:44:00","32.95","65.5666666","1156.72","WXPOD8278, AF","FM-16","4","30.02","63","63","","","","","100","FEW:02 139","","","","","030","","1","","","","","","","","","","","","","","","","","","","","","","","","","","","","","","","","","","","","","","","","","","","","","","","","","","","","","","","","","","","","","","","","","","","","","","","","","","","","","","","","","","","","","","","","","","","MET108MOBOB0 METAR 8268 //003 000000 210914Z AUTO 03001KT //// FEW141 17/17 A3002 RMK CDP03528 FEW141 CLD AVG 141;","","","","","","","","","",""
"00826899999","2010-10-21T13:59:00","32.95","65.5666666","1156.72","WXPOD8278, AF","FM-16","4","30.02","63","63","","","","","100","","","","","","070","","1","","","","","","","","","","","","","","","","","","","","","","","","","","","","","","","","","","","","","","","","","","","","","","","","","","","","","","","","","","","","","","","","","","","","","","","","","","","","","","","","","","","","","","","","","","","MET090MOBOB0 METAR 8268 //003 000000 210929Z AUTO 07001KT //// CLR 17/17 A3002 RMK CDP03528 CLR;","","","","","","","","","",""
"00826899999","2010-10-21T14:14:00","32.95","65.5666666","1156.72","WXPOD8278, AF","FM-16","4","30.02","63","63","","","","","100","","","","","","050","","1","","","","","","","","","","","","","","","","","","","","","","","","","","","","","","","","","","","","","","","","","","","","","","","","","","","","","","","","","","","","","","","","","","","","","","","","","","","","","","","","","","","","","","","","","","","MET090MOBOB0 METAR 8268 //003 000000 210944Z AUTO 05001KT //// CLR 17/17 A3002 RMK CDP03528 CLR;","","","","","","","","","",""
"00826899999","2010-10-21T14:30:00","32.95","65.5666666","1156.72","WXPOD8278, AF","FM-15","4","30.02","61","61","","","","","100","","","","","","080","","1","","","","","","","","","","","","","","","","","","","","","","","","","","","","","","","","","","","","","","","","","","","","","","","","","","","","","","","","","","","","","","","","","","","","","","","","","","","","","","","","","","","","","","","","","","","MET090MOBOB0 METAR 8268 //003 000000 210959Z AUTO 08001KT //// CLR 16/16 A3002 RMK CDP03528 CLR;","","","","","","","","","",""
"00826899999","2010-10-21T14:44:00","32.95","65.5666666","1156.72","WXPOD8278, AF","FM-16","4","30.03","61","61","","","","","100","","","","","","120","","1","","","","","","","","","","","","","","","","","","","","","","","","","","","","","","","","","","","","","","","","","","","","","","","","","","","","","","","","","","","","","","","","","","","","","","","","","","","","","","","","","","","","","","","","","","","MET090MOBOB0 METAR 8268 //003 000000 211014Z AUTO 12001KT //// CLR 16/16 A3003 RMK CDP03528 CLR;","","","","","","","","","",""
"00826899999","2010-10-21T14:59:00","32.95","65.5666666","1156.72","WXPOD8278, AF","FM-16","4","30.03","61","61","","","","","100","","","","","","090","","1","","","","","","","","","","","","","","","","","","","","","","","","","","","","","","","","","","","","","","","","","","","","","","","","","","","","","","","","","","","","","","","","","","","","","","","","","","","","","","","","","","","","","","","","","","","MET090MOBOB0 METAR 8268 //003 000000 211029Z AUTO 09001KT //// CLR 16/16 A3003 RMK CDP03528 CLR;","","","","","","","","","",""
"00826899999","2010-10-21T15:14:00","32.95","65.5666666","1156.72","WXPOD8278, AF","FM-16","4","30.03","61","61","","","","","100","","","","","","030","","1","","","","","","","","","","","","","","","","","","","","","","","","","","","","","","","","","","","","","","","","","","","","","","","","","","","","","","","","","","","","","","","","","","","","","","","","","","","","","","","","","","","","","","","","","","","MET090MOBOB0 METAR 8268 //003 000000 211044Z AUTO 03001KT //// CLR 16/16 A3003 RMK CDP03528 CLR;","","","","","","","","","",""
"00826899999","2010-10-21T15:30:00","32.95","65.5666666","1156.72","WXPOD8278, AF","FM-15","4","30.03","61","61","","","","","100","","","","","","060","","1","","","","","","","","","","","","","","","","","","","","","","","","","","","","","","","","","","","","","","","","","","","","","","","","","","","","","","","","","","","","","","","","","","","","","","","","","","","","","","","","","","","","","","","","","","","MET090MOBOB0 METAR 8268 //003 000000 211059Z AUTO 06001KT //// CLR 16/16 A3003 RMK CDP03528 CLR;","","","","","","","","","",""
"00826899999","2010-10-21T15:59:00","32.95","65.5666666","1156.72","WXPOD8278, AF","FM-16","4","30.03","61","61","","","","","100","","","","","","000","","0","","","","","","","","","","","","","","","","","","","","","","","","","","","","","","","","","","","","","","","","","","","","","","","","","","","","","","","","","","","","","","","","","","","","","","","","","","","","","","","","","","","","","","","","","","","MET090MOBOB0 METAR 8268 //003 000000 211129Z AUTO 00000KT //// CLR 16/16 A3003 RMK CDP03528 CLR;","","","","","","","","","",""
"00826899999","2010-10-21T16:14:00","32.95","65.5666666","1156.72","WXPOD8278, AF","FM-16","4","30.04","59","59","","","","","100","","","","","","000","","0","","","","","","","","","","","","","","","","","","","","","","","","","","","","","","","","","","","","","","","","","","","","","","","","","","","","","","","","","","","","","","","","","","","","","","","","","","","","","","","","","","","","","","","","","","","MET090MOBOB0 METAR 8268 //003 000000 211144Z AUTO 00000KT //// CLR 15/15 A3004 RMK CDP03528 CLR;","","","","","","","","","",""
"00826899999","2010-10-21T16:30:00","32.95","65.5666666","1156.72","WXPOD8278, AF","FM-15","4","30.04","61","61","","","","","100","","","","","","070","","1","","","","","","","","","","","","","","","","","","","","","","","","","","","","","","","","","","","","","","","","","","","","","","","","","","","","","","","","","","","","","","","","","","","","","","","","","","","","","","","","","","","","","","","","","","","MET090MOBOB0 METAR 8268 //003 000000 211159Z AUTO 07001KT //// CLR 16/16 A3004 RMK CDP03528 CLR;","","","","","","","","","",""
"00826899999","2010-10-21T16:44:00","32.95","65.5666666","1156.72","WXPOD8278, AF","FM-16","4","30.04","59","59","","","","","100","","","","","","040","","1","","","","","","","","","","","","","","","","","","","","","","","","","","","","","","","","","","","","","","","","","","","","","","","","","","","","","","","","","","","","","","","","","","","","","","","","","","","","","","","","","","","","","","","","","","","MET090MOBOB0 METAR 8268 //003 000000 211214Z AUTO 04001KT //// CLR 15/15 A3004 RMK CDP03528 CLR;","","","","","","","","","",""
"00826899999","2010-10-21T16:59:00","32.95","65.5666666","1156.72","WXPOD8278, AF","FM-16","4","30.05","59","59","","","","","100","","","","","","010","","1","","","","","","","","","","","","","","","","","","","","","","","","","","","","","","","","","","","","","","","","","","","","","","","","","","","","","","","","","","","","","","","","","","","","","","","","","","","","","","","","","","","","","","","","","","","MET090MOBOB0 METAR 8268 //003 000000 211229Z AUTO 01001KT //// CLR 15/15 A3005 RMK CDP03528 CLR;","","","","","","","","","",""
"00826899999","2010-10-21T17:14:00","32.95","65.5666666","1156.72","WXPOD8278, AF","FM-16","4","30.05","61","61","","","","","100","","","","","","000","","0","","","","","","","","","","","","","","","","","","","","","","","","","","","","","","","","","","","","","","","","","","","","","","","","","","","","","","","","","","","","","","","","","","","","","","","","","","","","","","","","","","","","","","","","","","","MET090MOBOB0 METAR 8268 //003 000000 211244Z AUTO 00000KT //// CLR 16/16 A3005 RMK CDP03528 CLR;","","","","","","","","","",""
"00826899999","2010-10-21T17:44:00","32.95","65.5666666","1156.72","WXPOD8278, AF","FM-16","4","30.06","64","64","","","","","100","","","","","","030","","1","","","","","","","","","","","","","","","","","","","","","","","","","","","","","","","","","","","","","","","","","","","","","","","","","","","","","","","","","","","","","","","","","","","","","","","","","","","","","","","","","","","","","","","","","","","MET090MOBOB0 METAR 8268 //003 000000 211314Z AUTO 03001KT //// CLR 18/18 A3006 RMK CDP03528 CLR;","","","","","","","","","",""
"00826899999","2010-10-21T17:59:00","32.95","65.5666666","1156.72","WXPOD8278, AF","FM-16","4","30.06","66","66","","","","","100","","","","","","030","","1","","","","","","","","","","","","","","","","","","","","","","","","","","","","","","","","","","","","","","","","","","","","","","","","","","","","","","","","","","","","","","","","","","","","","","","","","","","","","","","","","","","","","","","","","","","MET090MOBOB0 METAR 8268 //003 000000 211329Z AUTO 03001KT //// CLR 19/19 A3006 RMK CDP03528 CLR;","","","","","","","","","",""
"00826899999","2010-10-21T18:14:00","32.95","65.5666666","1156.72","WXPOD8278, AF","FM-16","4","30.07","66","68","","","","","94","","","","","","090","","1","","","","","","","","","","","","","","","","","","","","","","","","","","","","","","","","","","","","","","","","","","","","","","","","","","","","","","","","","","","","","","","","","","","","","","","","","","","","","","","","","","","","","","","","","","","MET090MOBOB0 METAR 8268 //003 000000 211344Z AUTO 09001KT //// CLR 20/19 A3007 RMK CDP03528 CLR;","","","","","","","","","",""
"00826899999","2010-10-21T18:30:00","32.95","65.5666666","1156.72","WXPOD8278, AF","FM-15","4","30.07","68","73","","","","","83","","","","","","040","","1","","","","","","","","","","","","","","","","","","","","","","","","","","","","","","","","","","","","","","","","","","","","","","","","","","","","","","","","","","","","","","","","","","","","","","","","","","","","","","","","","","","","","","","","","","","MET090MOBOB0 METAR 8268 //003 000000 211359Z AUTO 04001KT //// CLR 23/20 A3007 RMK CDP03528 CLR;","","","","","","","","","",""
"00826899999","2010-10-21T18:44:00","32.95","65.5666666","1156.72","WXPOD8278, AF","FM-16","4","30.07","66","73","","","","","78","","","","","","020","","1","","","","","","","","","","","","","","","","","","","","","","","","","","","","","","","","","","","","","","","","","","","","","","","","","","","","","","","","","","","","","","","","","","","","","","","","","","","","","","","","","","","","","","","","","","","MET090MOBOB0 METAR 8268 //003 000000 211414Z AUTO 02001KT //// CLR 23/19 A3007 RMK CDP03528 CLR;","","","","","","","","","",""
"00826899999","2010-10-21T18:59:00","32.95","65.5666666","1156.72","WXPOD8278, AF","FM-16","4","30.08","66","73","","","","","78","","","","","","070","","1","","","","","","","","","","","","","","","","","","","","","","","","","","","","","","","","","","","","","","","","","","","","","","","","","","","","","","","","","","","","","","","","","","","","","","","","","","","","","","","","","","","","","","","","","","","MET090MOBOB0 METAR 8268 //003 000000 211429Z AUTO 07001KT //// CLR 23/19 A3008 RMK CDP03528 CLR;","","","","","","","","","",""
"00826899999","2010-10-21T19:14:00","32.95","65.5666666","1156.72","WXPOD8278, AF","FM-16","4","30.08","68","73","","","","","83","","","","","","120","","3","","","","","","","","","","","","","","","","","","","","","","","","","","","","","","","","","","","","","","","","","","","","","","","","","","","","","","","","","","","","","","","","","","","","","","","","","","","","","","","","","","","","","","","","","","","MET090MOBOB0 METAR 8268 //003 000000 211444Z AUTO 12003KT //// CLR 23/20 A3008 RMK CDP03528 CLR;","","","","","","","","","",""
"00826899999","2010-10-21T19:30:00","32.95","65.5666666","1156.72","WXPOD8278, AF","FM-15","4","30.08","66","75","","","","","74","","","","","","100","","1","","","","","","","","","","","","","","","","","","","","","","","","","","","","","","","","","","","","","","","","","","","","","","","","","","","","","","","","","","","","","","","","","","","","","","","","","","","","","","","","","","","","","","","","","","","MET090MOBOB0 METAR 8268 //003 000000 211459Z AUTO 10001KT //// CLR 24/19 A3008 RMK CDP03528 CLR;","","","","","","","","","",""
"00826899999","2010-10-21T19:44:00","32.95","65.5666666","1156.72","WXPOD8278, AF","FM-16","4","30.08","68","77","","","","","74","","","","","","160","","2","","","","","","","","","","","","","","","","","","","","","","","","","","","","","","","","","","","","","","","","","","","","","","","","","","","","","","","","","","","","","","","","","","","","","","","","","","","","","","","","","","","","","","","","","","","MET090MOBOB0 METAR 8268 //003 000000 211514Z AUTO 16002KT //// CLR 25/20 A3008 RMK CDP03528 CLR;","","","","","","","","","",""
"00826899999","2010-10-21T19:59:00","32.95","65.5666666","1156.72","WXPOD8278, AF","FM-16","4","30.08","68","79","","","","","70","","","","","","130","","2","","","","","","","","","","","","","","","","","","","","","","","","","","","","","","","","","","","","","","","","","","","","","","","","","","","","","","","","","","","","","","","","","","","","","","","","","","","","","","","","","","","","","","","","","","","MET090MOBOB0 METAR 8268 //003 000000 211529Z AUTO 13002KT //// CLR 26/20 A3008 RMK CDP03528 CLR;","","","","","","","","","",""
"00826899999","2010-10-21T20:14:00","32.95","65.5666666","1156.72","WXPOD8278, AF","FM-16","4","30.08","68","81","","","","","66","","","","","","190","","2","","","","","","","","","","","","","","","","","","","","","","","","","","","","","","","","","","","","","","","","","","","","","","","","","","","","","","","","","","","","","","","","","","","","","","","","","","","","","","","","","","","","","","","","","","","MET090MOBOB0 METAR 8268 //003 000000 211544Z AUTO 19002KT //// CLR 27/20 A3008 RMK CDP03528 CLR;","","","","","","","","","",""
"00826899999","2010-10-21T20:30:00","32.95","65.5666666","1156.72","WXPOD8278, AF","FM-15","4","30.08","66","79","","","","","65","","","","","","200","","2","","","","","","","","","","","","","","","","","","","","","","","","","","","","","","","","","","","","","","","","","","","","","","","","","","","","","","","","","","","","","","","","","","","","","","","","","","","","","","","","","","","","","","","","","","","MET090MOBOB0 METAR 8268 //003 000000 211559Z AUTO 20002KT //// CLR 26/19 A3008 RMK CDP03528 CLR;","","","","","","","","","",""
"00826899999","2010-10-21T20:44:00","32.95","65.5666666","1156.72","WXPOD8278, AF","FM-16","4","30.08","63","81","","","","","54","","","","","","170","","2","","","","","","","","","","","","","","","","","","","","","","","","","","","","","","","","","","","","","","","","","","","","","","","","","","","","","","","","","","","","","","","","","","","","","","","","","","","","","","","","","","","","","","","","","","","MET090MOBOB0 METAR 8268 //003 000000 211614Z AUTO 17002KT //// CLR 27/17 A3008 RMK CDP03528 CLR;","","","","","","","","","",""
"00826899999","2010-10-21T20:59:00","32.95","65.5666666","1156.72","WXPOD8278, AF","FM-16","4","30.08","64","82","","","","","55","","","","","","000","","0","","","","","","","","","","","","","","","","","","","","","","","","","","","","","","","","","","","","","","","","","","","","","","","","","","","","","","","","","","","","","","","","","","","","","","","","","","","","","","","","","","","","","","","","","","","MET090MOBOB0 METAR 8268 //003 000000 211629Z AUTO 00000KT //// CLR 28/18 A3008 RMK CDP03528 CLR;","","","","","","","","","",""
"00826899999","2010-10-21T21:14:00","32.95","65.5666666","1156.72","WXPOD8278, AF","FM-16","4","30.08","64","81","","","","","58","","","","","","360","","1","","","","","","","","","","","","","","","","","","","","","","","","","","","","","","","","","","","","","","","","","","","","","","","","","","","","","","","","","","","","","","","","","","","","","","","","","","","","","","","","","","","","","","","","","","","MET090MOBOB0 METAR 8268 //003 000000 211644Z AUTO 36001KT //// CLR 27/18 A3008 RMK CDP03528 CLR;","","","","","","","","","",""
"00826899999","2010-10-21T21:44:00","32.95","65.5666666","1156.72","WXPOD8278, AF","FM-16","4","30.07","64","82","","","","","55","","","","","","210","","1","","","","","","","","","","","","","","","","","","","","","","","","","","","","","","","","","","","","","","","","","","","","","","","","","","","","","","","","","","","","","","","","","","","","","","","","","","","","","","","","","","","","","","","","","","","MET090MOBOB0 METAR 8268 //003 000000 211714Z AUTO 21001KT //// CLR 28/18 A3007 RMK CDP03528 CLR;","","","","","","","","","",""
"00826899999","2010-10-21T21:59:00","32.95","65.5666666","1156.72","WXPOD8278, AF","FM-16","4","30.07","64","82","","","","","55","","","","","","140","","3","","","","","","","","","","","","","","","","","","","","","","","","","","","","","","","","","","","","","","","","","","","","","","","","","","","","","","","","","","","","","","","","","","","","","","","","","","","","","","","","","","","","","","","","","","","MET090MOBOB0 METAR 8268 //003 000000 211729Z AUTO 14003KT //// CLR 28/18 A3007 RMK CDP03528 CLR;","","","","","","","","","",""
"00826899999","2010-10-21T22:14:00","32.95","65.5666666","1156.72","WXPOD8278, AF","FM-16","4","30.06","61","82","","","","","48","","","","","","080","","2","","","","","","","","","","","","","","","","","","","","","","","","","","","","","","","","","","","","","","","","","","","","","","","","","","","","","","","","","","","","","","","","","","","","","","","","","","","","","","","","","","","","","","","","","","","MET090MOBOB0 METAR 8268 //003 000000 211744Z AUTO 08002KT //// CLR 28/16 A3006 RMK CDP03528 CLR;","","","","","","","","","",""
"00826899999","2010-10-21T22:30:00","32.95","65.5666666","1156.72","WXPOD8278, AF","FM-15","4","30.06","61","84","","","","","45","","","","","","000","","0","","","","","","","","","","","","","","","","","","","","","","","","","","","","","","","","","","","","","","","","","","","","","","","","","","","","","","","","","","","","","","","","","","","","","","","","","","","","","","","","","","","","","","","","","","","MET090MOBOB0 METAR 8268 //003 000000 211759Z AUTO 00000KT //// CLR 29/16 A3006 RMK CDP03528 CLR;","","","","","","","","","",""
"00826899999","2010-10-21T22:44:00","32.95","65.5666666","1156.72","WXPOD8278, AF","FM-16","4","30.04","61","84","","","","","45","","","","","","130","","3","","","","","","","","","","","","","","","","","","","","","","","","","","","","","","","","","","","","","","","","","","","","","","","","","","","","","","","","","","","","","","","","","","","","","","","","","","","","","","","","","","","","","","","","","","","MET090MOBOB0 METAR 8268 //003 000000 211814Z AUTO 13003KT //// CLR 29/16 A3004 RMK CDP03528 CLR;","","","","","","","","","",""
"00826899999","2010-10-21T22:59:00","32.95","65.5666666","1156.72","WXPOD8278, AF","FM-16","4","30.04","59","82","","","","","45","","","","","","090","","3","","","","","","","","","","","","","","","","","","","","","","","","","","","","","","","","","","","","","","","","","","","","","","","","","","","","","","","","","","","","","","","","","","","","","","","","","","","","","","","","","","","","","","","","","","","MET090MOBOB0 METAR 8268 //003 000000 211829Z AUTO 09003KT //// CLR 28/15 A3004 RMK CDP03528 CLR;","","","","","","","","","",""
"00826899999","2010-10-21T23:14:00","32.95","65.5666666","1156.72","WXPOD8278, AF","FM-16","4","30.03","61","82","","","","","48","","","","","","070","","2","","","","","","","","","","","","","","","","","","","","","","","","","","","","","","","","","","","","","","","","","","","","","","","","","","","","","","","","","","","","","","","","","","","","","","","","","","","","","","","","","","","","","","","","","","","MET090MOBOB0 METAR 8268 //003 000000 211844Z AUTO 07002KT //// CLR 28/16 A3003 RMK CDP03528 CLR;","","","","","","","","","",""
"00826899999","2010-10-21T23:30:00","32.95","65.5666666","1156.72","WXPOD8278, AF","FM-15","4","30.02","61","82","","","","","48","","","","","","060","","2","","","","","","","","","","","","","","","","","","","","","","","","","","","","","","","","","","","","","","","","","","","","","","","","","","","","","","","","","","","","","","","","","","","","","","","","","","","","","","","","","","","","","","","","","","","MET090MOBOB0 METAR 8268 //003 000000 211859Z AUTO 06002KT //// CLR 28/16 A3002 RMK CDP03528 CLR;","","","","","","","","","",""
"00826899999","2010-10-21T23:44:00","32.95","65.5666666","1156.72","WXPOD8278, AF","FM-16","4","30.01","59","84","","","","","43","","","","","","180","","2","","","","","","","","","","","","","","","","","","","","","","","","","","","","","","","","","","","","","","","","","","","","","","","","","","","","","","","","","","","","","","","","","","","","","","","","","","","","","","","","","","","","","","","","","","","MET090MOBOB0 METAR 8268 //003 000000 211914Z AUTO 18002KT //// CLR 29/15 A3001 RMK CDP03528 CLR;","","","","","","","","","",""
"00826899999","2010-10-21T23:59:00","32.95","65.5666666","1156.72","WXPOD8278, AF","FM-16","4","30.01","59","86","","","","","40","","","","","","150","","1","","","","","","","","","","","","","","","","","","","","","","","","","","","","","","","","","","","","","","","","","","","","","","","","","","","","","","","","","","","","","","","","","","","","","","","","","","","","","","","","","","","","","","","","","","","MET090MOBOB0 METAR 8268 //003 000000 211929Z AUTO 15001KT //// CLR 30/15 A3001 RMK CDP03528 CLR;","","","","","","","","","",""
"00826899999","2010-10-22T00:14:00","32.95","65.5666666","1156.72","WXPOD8278, AF","FM-16","4","30.00","59","86","","","","","40","","","","","","090","","3","","","","","","","","","","","","","","","","","","","","","","","","","","","","","","","","","","","","","","","","","","","","","","","","","","","","","","","","","","","","","","","","","","","","","","","","","","","","","","","","","","","","","","","","","","","MET090MOBOB0 METAR 8268 //003 000000 211944Z AUTO 09003KT //// CLR 30/15 A3000 RMK CDP03528 CLR;","","","","","","","","","",""
"00826899999","2010-10-22T00:30:00","32.95","65.5666666","1156.72","WXPOD8278, AF","FM-15","4","30.00","54","84","","","","","35","","","","","","170","","1","","","","","","","","","","","","","","","","","","","","","","","","","","","","","","","","","","","","","","","","","","","","","","","","","","","","","","","","","","","","","","","","","","","","","","","","","","","","","","","","","","","","","","","","","","","MET090MOBOB0 METAR 8268 //003 000000 211959Z AUTO 17001KT //// CLR 29/12 A3000 RMK CDP03528 CLR;","","","","","","","","","",""
"00826899999","2010-10-22T00:44:00","32.95","65.5666666","1156.72","WXPOD8278, AF","FM-16","4","30.00","57","86","","","","","38","FEW:02 24","","","","","200","","2","","","","","","","","","","","","","","","","","","","","","","","","","","","","","","","","","","","","","","","","","","","","","","","","","","","","","","","","","","","","","","","","","","","","","","","","","","","","","","","","","","","","","","","","","","","MET108MOBOB0 METAR 8268 //003 000000 212014Z AUTO 20002KT //// FEW024 30/14 A3000 RMK CDP03528 FEW024 CLD AVG 024;","","","","","","","","","",""
"00826899999","2010-10-22T00:59:00","32.95","65.5666666","1156.72","WXPOD8278, AF","FM-16","4","29.99","55","86","","","","","35","","","","","","130","","3","","","","","","","","","","","","","","","","","","","","","","","","","","","","","","","","","","","","","","","","","","","","","","","","","","","","","","","","","","","","","","","","","","","","","","","","","","","","","","","","","","","","","","","","","","","MET090MOBOB0 METAR 8268 //003 000000 212029Z AUTO 13003KT //// CLR 30/13 A2999 RMK CDP03528 CLR;","","","","","","","","","",""
"00826899999","2010-10-22T01:14:00","32.95","65.5666666","1156.72","WXPOD8278, AF","FM-16","4","29.99","54","88","","","","","31","","","","","","190","","2","","","","","","","","","","","","","","","","","","","","","","","","","","","","","","","","","","","","","","","","","","","","","","","","","","","","","","","","","","","","","","","","","","","","","","","","","","","","","","","","","","","","","","","","","","","MET090MOBOB0 METAR 8268 //003 000000 212044Z AUTO 19002KT //// CLR 31/12 A2999 RMK CDP03528 CLR;","","","","","","","","","",""
"00826899999","2010-10-22T01:30:00","32.95","65.5666666","1156.72","WXPOD8278, AF","FM-15","4","29.99","52","86","","","","","31","","","","","","150","","2","","","","","","","","","","","","","","","","","","","","","","","","","","","","","","","","","","","","","","","","","","","","","","","","","","","","","","","","","","","","","","","","","","","","","","","","","","","","","","","","","","","","","","","","","","","MET090MOBOB0 METAR 8268 //003 000000 212059Z AUTO 15002KT //// CLR 30/11 A2999 RMK CDP03528 CLR;","","","","","","","","","",""
"00826899999","2010-10-22T01:44:00","32.95","65.5666666","1156.72","WXPOD8278, AF","FM-16","4","29.99","48","86","","","","","27","","","","","","110","","2","","","","","","","","","","","","","","","","","","","","","","","","","","","","","","","","","","","","","","","","","","","","","","","","","","","","","","","","","","","","","","","","","","","","","","","","","","","","","","","","","","","","","","","","","","","MET090MOBOB0 METAR 8268 //003 000000 212114Z AUTO 11002KT //// CLR 30/09 A2999 RMK CDP03528 CLR;","","","","","","","","","",""
"00826899999","2010-10-22T01:59:00","32.95","65.5666666","1156.72","WXPOD8278, AF","FM-16","4","29.99","50","88","","","","","27","","","","","","080","","1","","","","","","","","","","","","","","","","","","","","","","","","","","","","","","","","","","","","","","","","","","","","","","","","","","","","","","","","","","","","","","","","","","","","","","","","","","","","","","","","","","","","","","","","","","","MET090MOBOB0 METAR 8268 //003 000000 212129Z AUTO 08001KT //// CLR 31/10 A2999 RMK CDP03528 CLR;","","","","","","","","","",""
"00826899999","2010-10-22T02:14:00","32.95","65.5666666","1156.72","WXPOD8278, AF","FM-16","4","29.99","50","88","","","","","27","","","","","","130","","2","","","","","","","","","","","","","","","","","","","","","","","","","","","","","","","","","","","","","","","","","","","","","","","","","","","","","","","","","","","","","","","","","","","","","","","","","","","","","","","","","","","","","","","","","","","MET090MOBOB0 METAR 8268 //003 000000 212144Z AUTO 13002KT //// CLR 31/10 A2999 RMK CDP03528 CLR;","","","","","","","","","",""
"00826899999","2010-10-22T02:30:00","32.95","65.5666666","1156.72","WXPOD8278, AF","FM-15","4","29.98","52","86","","","","","31","","","","","","140","","2","","","","","","","","","","","","","","","","","","","","","","","","","","","","","","","","","","","","","","","","","","","","","","","","","","","","","","","","","","","","","","","","","","","","","","","","","","","","","","","","","","","","","","","","","","","MET090MOBOB0 METAR 8268 //003 000000 212159Z AUTO 14002KT //// CLR 30/11 A2998 RMK CDP03528 CLR;","","","","","","","","","",""
"00826899999","2010-10-22T02:44:00","32.95","65.5666666","1156.72","WXPOD8278, AF","FM-16","4","29.98","52","86","","","","","31","","","","","","120","","2","","","","","","","","","","","","","","","","","","","","","","","","","","","","","","","","","","","","","","","","","","","","","","","","","","","","","","","","","","","","","","","","","","","","","","","","","","","","","","","","","","","","","","","","","","","MET090MOBOB0 METAR 8268 //003 000000 212214Z AUTO 12002KT //// CLR 30/11 A2998 RMK CDP03528 CLR;","","","","","","","","","",""
"00826899999","2010-10-22T02:59:00","32.95","65.5666666","1156.72","WXPOD8278, AF","FM-16","4","29.98","52","84","","","","","33","","","","","","110","","2","","","","","","","","","","","","","","","","","","","","","","","","","","","","","","","","","","","","","","","","","","","","","","","","","","","","","","","","","","","","","","","","","","","","","","","","","","","","","","","","","","","","","","","","","","","MET090MOBOB0 METAR 8268 //003 000000 212229Z AUTO 11002KT //// CLR 29/11 A2998 RMK CDP03528 CLR;","","","","","","","","","",""
"00826899999","2010-10-22T03:14:00","32.95","65.5666666","1156.72","WXPOD8278, AF","FM-16","4","29.98","54","84","","","","","35","","","","","","100","","2","","","","","","","","","","","","","","","","","","","","","","","","","","","","","","","","","","","","","","","","","","","","","","","","","","","","","","","","","","","","","","","","","","","","","","","","","","","","","","","","","","","","","","","","","","","MET090MOBOB0 METAR 8268 //003 000000 212244Z AUTO 10002KT //// CLR 29/12 A2998 RMK CDP03528 CLR;","","","","","","","","","",""
"00826899999","2010-10-22T03:30:00","32.95","65.5666666","1156.72","WXPOD8278, AF","FM-15","4","29.98","55","82","","","","","40","","","","","","120","","1","","","","","","","","","","","","","","","","","","","","","","","","","","","","","","","","","","","","","","","","","","","","","","","","","","","","","","","","","","","","","","","","","","","","","","","","","","","","","","","","","","","","","","","","","","","MET090MOBOB0 METAR 8268 //003 000000 212259Z AUTO 12001KT //// CLR 28/13 A2998 RMK CDP03528 CLR;","","","","","","","","","",""
"00826899999","2010-10-22T03:44:00","32.95","65.5666666","1156.72","WXPOD8278, AF","FM-16","4","29.98","57","81","","","","","45","","","","","","120","","1","","","","","","","","","","","","","","","","","","","","","","","","","","","","","","","","","","","","","","","","","","","","","","","","","","","","","","","","","","","","","","","","","","","","","","","","","","","","","","","","","","","","","","","","","","","MET090MOBOB0 METAR 8268 //003 000000 212314Z AUTO 12001KT //// CLR 27/14 A2998 RMK CDP03528 CLR;","","","","","","","","","",""
"00826899999","2010-10-22T03:59:00","32.95","65.5666666","1156.72","WXPOD8278, AF","FM-16","4","29.98","59","77","","","","","54","","","","","","090","","1","","","","","","","","","","","","","","","","","","","","","","","","","","","","","","","","","","","","","","","","","","","","","","","","","","","","","","","","","","","","","","","","","","","","","","","","","","","","","","","","","","","","","","","","","","","MET090MOBOB0 METAR 8268 //003 000000 212329Z AUTO 09001KT //// CLR 25/15 A2998 RMK CDP03528 CLR;","","","","","","","","","",""
"00826899999","2010-10-22T04:14:00","32.95","65.5666666","1156.72","WXPOD8278, AF","FM-16","4","29.98","61","75","","","","","61","","","","","","120","","2","","","","","","","","","","","","","","","","","","","","","","","","","","","","","","","","","","","","","","","","","","","","","","","","","","","","","","","","","","","","","","","","","","","","","","","","","","","","","","","","","","","","","","","","","","","MET090MOBOB0 METAR 8268 //003 000000 212344Z AUTO 12002KT //// CLR 24/16 A2998 RMK CDP03528 CLR;","","","","","","","","","",""
"00826899999","2010-10-22T04:30:00","32.95","65.5666666","1156.72","WXPOD8278, AF","FM-15","4","29.99","61","75","","","","","61","","","","","","110","","1","","","","","","","","","","","","","","","","","","","","","","","","","","","","","","","","","","","","","","","","","","","","","","","","","","","","","","","","","","","","","","","","","","","","","","","","","","","","","","","","","","","","","","","","","","","MET090MOBOB0 METAR 8268 //003 000000 212359Z AUTO 11001KT //// CLR 24/16 A2999 RMK CDP03528 CLR;","","","","","","","","","",""
