"STATION","DATE","LATITUDE","LONGITUDE","ELEVATION","NAME","REPORT_TYPE","SOURCE","HourlyAltimeterSetting","HourlyDewPointTemperature","HourlyDryBulbTemperature","HourlyPrecipitation","HourlyPresentWeatherType","HourlyPressureChange","HourlyPressureTendency","HourlyRelativeHumidity","HourlySkyConditions","HourlySeaLevelPressure","HourlyStationPressure","HourlyVisibility","HourlyWetBulbTemperature","HourlyWindDirection","HourlyWindGustSpeed","HourlyWindSpeed","Sunrise","Sunset","DailyAverageDewPointTemperature","DailyAverageDryBulbTemperature","DailyAverageRelativeHumidity","DailyAverageSeaLevelPressure","DailyAverageStationPressure","DailyAverageWetBulbTemperature","DailyAverageWindSpeed","DailyCoolingDegreeDays","DailyDepartureFromNormalAverageTemperature","DailyHeatingDegreeDays","DailyMaximumDryBulbTemperature","DailyMinimumDryBulbTemperature","DailyPeakWindDirection","DailyPeakWindSpeed","DailyPrecipitation","DailySnowDepth","DailySnowfall","DailySustainedWindDirection","DailySustainedWindSpeed","DailyWeather","MonthlyAverageRH","MonthlyDaysWithGT001Precip","MonthlyDaysWithGT010Precip","MonthlyDaysWithGT32Temp","MonthlyDaysWithGT90Temp","MonthlyDaysWithLT0Temp","MonthlyDaysWithLT32Temp","MonthlyDepartureFromNormalAverageTemperature","MonthlyDepartureFromNormalCoolingDegreeDays","MonthlyDepartureFromNormalHeatingDegreeDays","MonthlyDepartureFromNormalMaximumTemperature","MonthlyDepartureFromNormalMinimumTemperature","MonthlyDepartureFromNormalPrecipitation","MonthlyDewpointTemperature","MonthlyGreatestPrecip","MonthlyGreatestPrecipDate","MonthlyGreatestSnowDepth","MonthlyGreatestSnowDepthDate","MonthlyGreatestSnowfall","MonthlyGreatestSnowfallDate","MonthlyMaxSeaLevelPressureValue","MonthlyMaxSeaLevelPressureValueDate","MonthlyMaxSeaLevelPressureValueTime","MonthlyMaximumTemperature","MonthlyMeanTemperature","MonthlyMinSeaLevelPressureValue","MonthlyMinSeaLevelPressureValueDate","MonthlyMinSeaLevelPressureValueTime","MonthlyMinimumTemperature","MonthlySeaLevelPressure","MonthlyStationPressure","MonthlyTotalLiquidPrecipitation","MonthlyTotalSnowfall","MonthlyWetBulb","AWND","CDSD","CLDD","DSNW","HDSD","HTDD","DYTS","DYHF","NormalsCoolingDegreeDay","NormalsHeatingDegreeDay","ShortDurationEndDate005","ShortDurationEndDate010","ShortDurationEndDate015","ShortDurationEndDate020","ShortDurationEndDate030","ShortDurationEndDate045","ShortDurationEndDate060","ShortDurationEndDate080","ShortDurationEndDate100","ShortDurationEndDate120","ShortDurationEndDate150","ShortDurationEndDate180","ShortDurationPrecipitationValue005","ShortDurationPrecipitationValue010","ShortDurationPrecipitationValue015","ShortDurationPrecipitationValue020","ShortDurationPrecipitationValue030","ShortDurationPrecipitationValue045","ShortDurationPrecipitationValue060","ShortDurationPrecipitationValue080","ShortDurationPrecipitationValue100","ShortDurationPrecipitationValue120","ShortDurationPrecipitationValue150","ShortDurationPrecipitationValue180","REM","BackupDirection","BackupDistance","BackupDistanceUnit","BackupElements","BackupElevation","BackupEquipment","BackupLatitude","BackupLongitude","BackupName","WindEquipmentChangeDate"
"00702699999","2016-06-22T22:54:00","0.0","0.0","7026.0","WXPOD 7026, AF","FM-15","4","30.04","64","93","","","","","39","","","","","","000","","0","","","","","","","","","","","","","","","","","","","","","","","","","","","","","","","","","","","","","","","","","","","","","","","","","","","","","","","","","","","","","","","","","","","","","","","","","","","","","","","","","","","","","","","","","","","MET069MOBOB0 METAR 7026 //008 000000 221824Z AUTO 00000KT //// 34/18 A3004=","","","","","","","","","",""
"00702699999","2016-06-22T22:59:00","0.0","0.0","7026.0","WXPOD 7026, AF","FM-15","4","30.03","64","95","","","","","36","","","","","","000","","0","","","","","","","","","","","","","","","","","","","","","","","","","","","","","","","","","","","","","","","","","","","","","","","","","","","","","","","","","","","","","","","","","","","","","","","","","","","","","","","","","","","","","","","","","","","MET069MOBOB0 METAR 7026 //008 000000 221829Z AUTO 00000KT //// 35/18 A3003=","","","","","","","","","",""
"00702699999","2016-06-22T23:04:00","0.0","0.0","7026.0","WXPOD 7026, AF","FM-15","4","30.03","64","95","","","","","36","","","","","","000","","0","","","","","","","","","","","","","","","","","","","","","","","","","","","","","","","","","","","","","","","","","","","","","","","","","","","","","","","","","","","","","","","","","","","","","","","","","","","","","","","","","","","","","","","","","","","MET069MOBOB0 METAR 7026 //008 000000 221834Z AUTO 00000KT //// 35/18 A3003=","","","","","","","","","",""
"00702699999","2016-06-22T23:09:00","0.0","0.0","7026.0","WXPOD 7026, AF","FM-15","4","30.03","66","97","","","","","37","","","","","","000","","0","","","","","","","","","","","","","","","","","","","","","","","","","","","","","","","","","","","","","","","","","","","","","","","","","","","","","","","","","","","","","","","","","","","","","","","","","","","","","","","","","","","","","","","","","","","MET069MOBOB0 METAR 7026 //008 000000 221839Z AUTO 00000KT //// 36/19 A3003=","","","","","","","","","",""
"00702699999","2016-06-22T23:14:00","0.0","0.0","7026.0","WXPOD 7026, AF","FM-15","4","30.03","66","97","","","","","37","","","","","","000","","0","","","","","","","","","","","","","","","","","","","","","","","","","","","","","","","","","","","","","","","","","","","","","","","","","","","","","","","","","","","","","","","","","","","","","","","","","","","","","","","","","","","","","","","","","","","MET069MOBOB0 METAR 7026 //008 000000 221844Z AUTO 00000KT //// 36/19 A3003=","","","","","","","","","",""
"00702699999","2016-06-22T23:19:00","0.0","0.0","7026.0","WXPOD 7026, AF","FM-15","4","30.03","66","95","","","","","39","","","","","","000","","0","","","","","","","","","","","","","","","","","","","","","","","","","","","","","","","","","","","","","","","","","","","","","","","","","","","","","","","","","","","","","","","","","","","","","","","","","","","","","","","","","","","","","","","","","","","MET069MOBOB0 METAR 7026 //008 000000 221849Z AUTO 00000KT //// 35/19 A3003=","","","","","","","","","",""
"00702699999","2016-06-22T23:24:00","0.0","0.0","7026.0","WXPOD 7026, AF","FM-15","4","30.02","64","95","","","","","36","","","","","","000","","0","","","","","","","","","","","","","","","","","","","","","","","","","","","","","","","","","","","","","","","","","","","","","","","","","","","","","","","","","","","","","","","","","","","","","","","","","","","","","","","","","","","","","","","","","","","MET069MOBOB0 METAR 7026 //008 000000 221854Z AUTO 00000KT //// 35/18 A3002=","","","","","","","","","",""
"00702699999","2016-06-22T23:29:00","0.0","0.0","7026.0","WXPOD 7026, AF","FM-15","4","30.02","66","97","","","","","37","","","","","","000","","0","","","","","","","","","","","","","","","","","","","","","","","","","","","","","","","","","","","","","","","","","","","","","","","","","","","","","","","","","","","","","","","","","","","","","","","","","","","","","","","","","","","","","","","","","","","MET069MOBOB0 METAR 7026 //008 000000 221859Z AUTO 00000KT //// 36/19 A3002=","","","","","","","","","",""
"00702699999","2016-06-22T23:34:00","0.0","0.0","7026.0","WXPOD 7026, AF","FM-15","4","30.02","66","95","","","","","39","","","","","","000","","0","","","","","","","","","","","","","","","","","","","","","","","","","","","","","","","","","","","","","","","","","","","","","","","","","","","","","","","","","","","","","","","","","","","","","","","","","","","","","","","","","","","","","","","","","","","MET069MOBOB0 METAR 7026 //008 000000 221904Z AUTO 00000KT //// 35/19 A3002=","","","","","","","","","",""
"00702699999","2016-06-22T23:39:00","0.0","0.0","7026.0","WXPOD 7026, AF","FM-15","4","30.02","64","97","","","","","34","","","","","","000","","0","","","","","","","","","","","","","","","","","","","","","","","","","","","","","","","","","","","","","","","","","","","","","","","","","","","","","","","","","","","","","","","","","","","","","","","","","","","","","","","","","","","","","","","","","","","MET069MOBOB0 METAR 7026 //008 000000 221909Z AUTO 00000KT //// 36/18 A3002=","","","","","","","","","",""
"00702699999","2016-06-22T23:44:00","0.0","0.0","7026.0","WXPOD 7026, AF","FM-15","4","30.02","66","97","","","","","37","","","","","","000","","0","","","","","","","","","","","","","","","","","","","","","","","","","","","","","","","","","","","","","","","","","","","","","","","","","","","","","","","","","","","","","","","","","","","","","","","","","","","","","","","","","","","","","","","","","","","MET069MOBOB0 METAR 7026 //008 000000 221914Z AUTO 00000KT //// 36/19 A3002=","","","","","","","","","",""
"00702699999","2016-06-22T23:49:00","0.0","0.0","7026.0","WXPOD 7026, AF","FM-15","4","30.03","64","97","","","","","34","","","","","","000","","0","","","","","","","","","","","","","","","","","","","","","","","","","","","","","","","","","","","","","","","","","","","","","","","","","","","","","","","","","","","","","","","","","","","","","","","","","","","","","","","","","","","","","","","","","","","MET069MOBOB0 METAR 7026 //008 000000 221919Z AUTO 00000KT //// 36/18 A3003=","","","","","","","","","",""
"00702699999","2016-06-22T23:54:00","0.0","0.0","7026.0","WXPOD 7026, AF","FM-15","4","30.02","66","97","","","","","37","","","","","","000","","0","","","","","","","","","","","","","","","","","","","","","","","","","","","","","","","","","","","","","","","","","","","","","","","","","","","","","","","","","","","","","","","","","","","","","","","","","","","","","","","","","","","","","","","","","","","MET069MOBOB0 METAR 7026 //008 000000 221924Z AUTO 00000KT //// 36/19 A3002=","","","","","","","","","",""
"00702699999","2016-06-22T23:59:00","0.0","0.0","7026.0","WXPOD 7026, AF","FM-15","4","30.02","66","97","","","","","37","","","","","","000","","0","","","","","","","","","","","","","","","","","","","","","","","","","","","","","","","","","","","","","","","","","","","","","","","","","","","","","","","","","","","","","","","","","","","","","","","","","","","","","","","","","","","","","","","","","","","MET069MOBOB0 METAR 7026 //008 000000 221929Z AUTO 00000KT //// 36/19 A3002=","","","","","","","","","",""
"00702699999","2016-06-23T00:04:00","0.0","0.0","7026.0","WXPOD 7026, AF","FM-15","4","30.02","66","97","","","","","37","","","","","","000","","0","","","","","","","","","","","","","","","","","","","","","","","","","","","","","","","","","","","","","","","","","","","","","","","","","","","","","","","","","","","","","","","","","","","","","","","","","","","","","","","","","","","","","","","","","","","MET069MOBOB0 METAR 7026 //008 000000 221934Z AUTO 00000KT //// 36/19 A3002=","","","","","","","","","",""
"00702699999","2016-06-23T00:09:00","0.0","0.0","7026.0","WXPOD 7026, AF","FM-15","4","30.02","66","95","","","","","39","","","","","","000","","0","","","","","","","","","","","","","","","","","","","","","","","","","","","","","","","","","","","","","","","","","","","","","","","","","","","","","","","","","","","","","","","","","","","","","","","","","","","","","","","","","","","","","","","","","","","MET069MOBOB0 METAR 7026 //008 000000 221939Z AUTO 00000KT //// 35/19 A3002=","","","","","","","","","",""
"00702699999","2016-06-23T00:14:00","0.0","0.0","7026.0","WXPOD 7026, AF","FM-15","4","30.02","66","97","","","","","37","","","","","","000","","0","","","","","","","","","","","","","","","","","","","","","","","","","","","","","","","","","","","","","","","","","","","","","","","","","","","","","","","","","","","","","","","","","","","","","","","","","","","","","","","","","","","","","","","","","","","MET069MOBOB0 METAR 7026 //008 000000 221944Z AUTO 00000KT //// 36/19 A3002=","","","","","","","","","",""
"00702699999","2016-06-23T00:19:00","0.0","0.0","7026.0","WXPOD 7026, AF","FM-15","4","30.02","64","95","","","","","36","","","","","","000","","0","","","","","","","","","","","","","","","","","","","","","","","","","","","","","","","","","","","","","","","","","","","","","","","","","","","","","","","","","","","","","","","","","","","","","","","","","","","","","","","","","","","","","","","","","","","MET069MOBOB0 METAR 7026 //008 000000 221949Z AUTO 00000KT //// 35/18 A3002=","","","","","","","","","",""
"00702699999","2016-06-23T00:24:00","0.0","0.0","7026.0","WXPOD 7026, AF","FM-15","4","30.02","64","97","","","","","34","","","","","","000","","0","","","","","","","","","","","","","","","","","","","","","","","","","","","","","","","","","","","","","","","","","","","","","","","","","","","","","","","","","","","","","","","","","","","","","","","","","","","","","","","","","","","","","","","","","","","MET069MOBOB0 METAR 7026 //008 000000 221954Z AUTO 00000KT //// 36/18 A3002=","","","","","","","","","",""
"00702699999","2016-06-23T00:29:00","0.0","0.0","7026.0","WXPOD 7026, AF","FM-15","4","30.02","68","99","","","","","37","","","","","","000","","0","","","","","","","","","","","","","","","","","","","","","","","","","","","","","","","","","","","","","","","","","","","","","","","","","","","","","","","","","","","","","","","","","","","","","","","","","","","","","","","","","","","","","","","","","","","MET069MOBOB0 METAR 7026 //008 000000 221959Z AUTO 00000KT //// 37/20 A3002=","","","","","","","","","",""
"00702699999","2016-06-23T00:34:00","0.0","0.0","7026.0","WXPOD 7026, AF","FM-15","4","30.02","66","99","","","","","35","","","","6.21","","000","","0","","","","","","","","","","","","","","","","","","","","","","","","","","","","","","","","","","","","","","","","","","","","","","","","","","","","","","","","","","","","","","","","","","","","","","","","","","","","","","","","","","","","","","","","","","","MET090MOBOB0 METAR 7026 //008 000000 222004Z AUTO 00000KT 9999 CLR 37/19 A3002 RMK CDP03661 CLR=","","","","","","","","","",""
"00702699999","2016-06-23T00:39:00","0.0","0.0","7026.0","WXPOD 7026, AF","FM-15","4","30.02","64","99","","","","","33","","","","6.21","","000","","0","","","","","","","","","","","","","","","","","","","","","","","","","","","","","","","","","","","","","","","","","","","","","","","","","","","","","","","","","","","","","","","","","","","","","","","","","","","","","","","","","","","","","","","","","","","MET090MOBOB0 METAR 7026 //008 000000 222009Z AUTO 00000KT 9999 CLR 37/18 A3002 RMK CDP03661 CLR=","","","","","","","","","",""
"00702699999","2016-06-23T00:44:00","0.0","0.0","7026.0","WXPOD 7026, AF","FM-15","4","30.02","66","99","","","","","35","","","","6.21","","000","","0","","","","","","","","","","","","","","","","","","","","","","","","","","","","","","","","","","","","","","","","","","","","","","","","","","","","","","","","","","","","","","","","","","","","","","","","","","","","","","","","","","","","","","","","","","","MET090MOBOB0 METAR 7026 //008 000000 222014Z AUTO 00000KT 9999 CLR 37/19 A3002 RMK CDP03661 CLR=","","","","","","","","","",""
"00702699999","2016-06-23T00:49:00","0.0","0.0","7026.0","WXPOD 7026, AF","FM-15","4","30.02","66","99","","","","","35","","","","6.21","","000","","0","","","","","","","","","","","","","","","","","","","","","","","","","","","","","","","","","","","","","","","","","","","","","","","","","","","","","","","","","","","","","","","","","","","","","","","","","","","","","","","","","","","","","","","","","","","MET090MOBOB0 METAR 7026 //008 000000 222019Z AUTO 00000KT 9999 CLR 37/19 A3002 RMK CDP03661 CLR=","","","","","","","","","",""
"00702699999","2016-06-23T00:54:00","0.0","0.0","7026.0","WXPOD 7026, AF","FM-15","4","30.02","66","99","","","","","35","","","","6.21","","000","","0","","","","","","","","","","","","","","","","","","","","","","","","","","","","","","","","","","","","","","","","","","","","","","","","","","","","","","","","","","","","","","","","","","","","","","","","","","","","","","","","","","","","","","","","","","","MET090MOBOB0 METAR 7026 //008 000000 222024Z AUTO 00000KT 9999 CLR 37/19 A3002 RMK CDP03661 CLR=","","","","","","","","","",""
"00702699999","2016-06-23T00:59:00","0.0","0.0","7026.0","WXPOD 7026, AF","FM-15","4","30.02","66","99","","","","","35","","","","6.21","","000","","0","","","","","","","","","","","","","","","","","","","","","","","","","","","","","","","","","","","","","","","","","","","","","","","","","","","","","","","","","","","","","","","","","","","","","","","","","","","","","","","","","","","","","","","","","","","MET090MOBOB0 METAR 7026 //008 000000 222029Z AUTO 00000KT 9999 CLR 37/19 A3002 RMK CDP03661 CLR=","","","","","","","","","",""
"00702699999","2016-06-23T01:04:00","0.0","0.0","7026.0","WXPOD 7026, AF","FM-15","4","30.02","68","100","","","","","35","","","","6.21","","000","","0","","","","","","","","","","","","","","","","","","","","","","","","","","","","","","","","","","","","","","","","","","","","","","","","","","","","","","","","","","","","","","","","","","","","","","","","","","","","","","","","","","","","","","","","","","","MET090MOBOB0 METAR 7026 //008 000000 222034Z AUTO 00000KT 9999 CLR 38/20 A3002 RMK CDP03661 CLR=","","","","","","","","","",""
"00702699999","2016-06-23T01:09:00","0.0","0.0","7026.0","WXPOD 7026, AF","FM-15","4","30.02","66","97","","","","","37","FEW:02 108","","","6.21","","000","","0","","","","","","","","","","","","","","","","","","","","","","","","","","","","","","","","","","","","","","","","","","","","","","","","","","","","","","","","","","","","","","","","","","","","","","","","","","","","","","","","","","","","","","","","","","","MET108MOBOB0 METAR 7026 //008 000000 222039Z AUTO 00000KT 9999 FEW108 36/19 A3002 RMK CDP03661 FEW108 CLD AVG 108=","","","","","","","","","",""
"00702699999","2016-06-23T01:14:00","0.0","0.0","7026.0","WXPOD 7026, AF","FM-15","4","30.02","66","99","","","","","35","","","","6.21","","000","","0","","","","","","","","","","","","","","","","","","","","","","","","","","","","","","","","","","","","","","","","","","","","","","","","","","","","","","","","","","","","","","","","","","","","","","","","","","","","","","","","","","","","","","","","","","","MET090MOBOB0 METAR 7026 //008 000000 222044Z AUTO 00000KT 9999 CLR 37/19 A3002 RMK CDP03661 CLR=","","","","","","","","","",""
"00702699999","2016-06-23T01:19:00","0.0","0.0","7026.0","WXPOD 7026, AF","FM-15","4","30.02","64","99","","","","","33","","","","6.21","","000","","0","","","","","","","","","","","","","","","","","","","","","","","","","","","","","","","","","","","","","","","","","","","","","","","","","","","","","","","","","","","","","","","","","","","","","","","","","","","","","","","","","","","","","","","","","","","MET090MOBOB0 METAR 7026 //008 000000 222049Z AUTO 00000KT 9999 CLR 37/18 A3002 RMK CDP03661 CLR=","","","","","","","","","",""
"00702699999","2016-06-23T01:24:00","0.0","0.0","7026.0","WXPOD 7026, AF","FM-15","4","30.02","66","97","","","","","37","","","","6.21","","000","","0","","","","","","","","","","","","","","","","","","","","","","","","","","","","","","","","","","","","","","","","","","","","","","","","","","","","","","","","","","","","","","","","","","","","","","","","","","","","","","","","","","","","","","","","","","","MET090MOBOB0 METAR 7026 //008 000000 222054Z AUTO 00000KT 9999 CLR 36/19 A3002 RMK CDP03661 CLR=","","","","","","","","","",""
"00702699999","2016-06-23T01:29:00","0.0","0.0","7026.0","WXPOD 7026, AF","FM-15","4","30.02","68","99","","","","","37","","","","6.21","","000","","0","","","","","","","","","","","","","","","","","","","","","","","","","","","","","","","","","","","","","","","","","","","","","","","","","","","","","","","","","","","","","","","","","","","","","","","","","","","","","","","","","","","","","","","","","","","MET090MOBOB0 METAR 7026 //008 000000 222059Z AUTO 00000KT 9999 CLR 37/20 A3002 RMK CDP03661 CLR=","","","","","","","","","",""
"00702699999","2016-06-23T01:34:00","0.0","0.0","7026.0","WXPOD 7026, AF","FM-15","4","30.02","66","99","","","","","35","","","","6.21","","000","","0","","","","","","","","","","","","","","","","","","","","","","","","","","","","","","","","","","","","","","","","","","","","","","","","","","","","","","","","","","","","","","","","","","","","","","","","","","","","","","","","","","","","","","","","","","","MET090MOBOB0 METAR 7026 //008 000000 222104Z AUTO 00000KT 9999 CLR 37/19 A3002 RMK CDP03661 CLR=","","","","","","","","","",""
"00702699999","2016-06-23T01:39:00","0.0","0.0","7026.0","WXPOD 7026, AF","FM-15","4","30.03","66","97","","","","","37","","","","6.21","","000","","0","","","","","","","","","","","","","","","","","","","","","","","","","","","","","","","","","","","","","","","","","","","","","","","","","","","","","","","","","","","","","","","","","","","","","","","","","","","","","","","","","","","","","","","","","","","MET090MOBOB0 METAR 7026 //008 000000 222109Z AUTO 00000KT 9999 CLR 36/19 A3003 RMK CDP03661 CLR=","","","","","","","","","",""
"00702699999","2016-06-23T01:44:00","0.0","0.0","7026.0","WXPOD 7026, AF","FM-15","4","30.02","66","97","","","","","37","","","","6.21","","000","","0","","","","","","","","","","","","","","","","","","","","","","","","","","","","","","","","","","","","","","","","","","","","","","","","","","","","","","","","","","","","","","","","","","","","","","","","","","","","","","","","","","","","","","","","","","","MET090MOBOB0 METAR 7026 //008 000000 222114Z AUTO 00000KT 9999 CLR 36/19 A3002 RMK CDP03661 CLR=","","","","","","","","","",""
"00702699999","2016-06-23T01:49:00","0.0","0.0","7026.0","WXPOD 7026, AF","FM-15","4","30.02","66","97","","","","","37","","","","6.21","","000","","0","","","","","","","","","","","","","","","","","","","","","","","","","","","","","","","","","","","","","","","","","","","","","","","","","","","","","","","","","","","","","","","","","","","","","","","","","","","","","","","","","","","","","","","","","","","MET090MOBOB0 METAR 7026 //008 000000 222119Z AUTO 00000KT 9999 CLR 36/19 A3002 RMK CDP03661 CLR=","","","","","","","","","",""
"00702699999","2016-06-23T01:54:00","0.0","0.0","7026.0","WXPOD 7026, AF","FM-15","4","30.02","66","97","","","","","37","","","","6.21","","000","","0","","","","","","","","","","","","","","","","","","","","","","","","","","","","","","","","","","","","","","","","","","","","","","","","","","","","","","","","","","","","","","","","","","","","","","","","","","","","","","","","","","","","","","","","","","","MET090MOBOB0 METAR 7026 //008 000000 222124Z AUTO 00000KT 9999 CLR 36/19 A3002 RMK CDP03661 CLR=","","","","","","","","","",""
"00702699999","2016-06-23T01:59:00","0.0","0.0","7026.0","WXPOD 7026, AF","FM-15","4","30.02","66","97","","","","","37","","","","6.21","","000","","0","","","","","","","","","","","","","","","","","","","","","","","","","","","","","","","","","","","","","","","","","","","","","","","","","","","","","","","","","","","","","","","","","","","","","","","","","","","","","","","","","","","","","","","","","","","MET090MOBOB0 METAR 7026 //008 000000 222129Z AUTO 00000KT 9999 CLR 36/19 A3002 RMK CDP03661 CLR=","","","","","","","","","",""
"00702699999","2016-06-23T02:04:00","0.0","0.0","7026.0","WXPOD 7026, AF","FM-15","4","30.01","66","97","","","","","37","","","","6.21","","000","","0","","","","","","","","","","","","","","","","","","","","","","","","","","","","","","","","","","","","","","","","","","","","","","","","","","","","","","","","","","","","","","","","","","","","","","","","","","","","","","","","","","","","","","","","","","","MET090MOBOB0 METAR 7026 //008 000000 222134Z AUTO 00000KT 9999 CLR 36/19 A3001 RMK CDP03661 CLR=","","","","","","","","","",""
"00702699999","2016-06-23T02:09:00","0.0","0.0","7026.0","WXPOD 7026, AF","FM-15","4","30.01","66","97","","","","","37","","","","6.21","","000","","0","","","","","","","","","","","","","","","","","","","","","","","","","","","","","","","","","","","","","","","","","","","","","","","","","","","","","","","","","","","","","","","","","","","","","","","","","","","","","","","","","","","","","","","","","","","MET090MOBOB0 METAR 7026 //008 000000 222139Z AUTO 00000KT 9999 CLR 36/19 A3001 RMK CDP03661 CLR=","","","","","","","","","",""
"00702699999","2016-06-23T02:14:00","0.0","0.0","7026.0","WXPOD 7026, AF","FM-15","4","30.01","70","97","","","","","42","","","","6.21","","000","","0","","","","","","","","","","","","","","","","","","","","","","","","","","","","","","","","","","","","","","","","","","","","","","","","","","","","","","","","","","","","","","","","","","","","","","","","","","","","","","","","","","","","","","","","","","","MET090MOBOB0 METAR 7026 //008 000000 222144Z AUTO 00000KT 9999 CLR 36/21 A3001 RMK CDP03661 CLR=","","","","","","","","","",""
"00702699999","2016-06-23T02:19:00","0.0","0.0","7026.0","WXPOD 7026, AF","FM-15","4","30.00","68","95","","","","","41","","","","6.21","","000","","0","","","","","","","","","","","","","","","","","","","","","","","","","","","","","","","","","","","","","","","","","","","","","","","","","","","","","","","","","","","","","","","","","","","","","","","","","","","","","","","","","","","","","","","","","","","MET090MOBOB0 METAR 7026 //008 000000 222149Z AUTO 00000KT 9999 CLR 35/20 A3000 RMK CDP03661 CLR=","","","","","","","","","",""
"00702699999","2016-06-23T02:24:00","0.0","0.0","7026.0","WXPOD 7026, AF","FM-15","4","30.00","66","95","","","","","39","","","","6.21","","000","","0","","","","","","","","","","","","","","","","","","","","","","","","","","","","","","","","","","","","","","","","","","","","","","","","","","","","","","","","","","","","","","","","","","","","","","","","","","","","","","","","","","","","","","","","","","","MET090MOBOB0 METAR 7026 //008 000000 222154Z AUTO 00000KT 9999 CLR 35/19 A3000 RMK CDP03661 CLR=","","","","","","","","","",""
"00702699999","2016-06-23T02:29:00","0.0","0.0","7026.0","WXPOD 7026, AF","FM-15","4","30.01","66","95","","","","","39","","","","6.21","","000","","0","","","","","","","","","","","","","","","","","","","","","","","","","","","","","","","","","","","","","","","","","","","","","","","","","","","","","","","","","","","","","","","","","","","","","","","","","","","","","","","","","","","","","","","","","","","MET090MOBOB0 METAR 7026 //008 000000 222159Z AUTO 00000KT 9999 CLR 35/19 A3001 RMK CDP03661 CLR=","","","","","","","","","",""
"00702699999","2016-06-23T02:34:00","0.0","0.0","7026.0","WXPOD 7026, AF","FM-15","4","30.01","66","95","","","","","39","","","","6.21","","000","","0","","","","","","","","","","","","","","","","","","","","","","","","","","","","","","","","","","","","","","","","","","","","","","","","","","","","","","","","","","","","","","","","","","","","","","","","","","","","","","","","","","","","","","","","","","","MET090MOBOB0 METAR 7026 //008 000000 222204Z AUTO 00000KT 9999 CLR 35/19 A3001 RMK CDP03661 CLR=","","","","","","","","","",""
"00702699999","2016-06-23T02:39:00","0.0","0.0","7026.0","WXPOD 7026, AF","FM-15","4","30.01","68","95","","","","","41","","","","6.21","","000","","0","","","","","","","","","","","","","","","","","","","","","","","","","","","","","","","","","","","","","","","","","","","","","","","","","","","","","","","","","","","","","","","","","","","","","","","","","","","","","","","","","","","","","","","","","","","MET090MOBOB0 METAR 7026 //008 000000 222209Z AUTO 00000KT 9999 CLR 35/20 A3001 RMK CDP03661 CLR=","","","","","","","","","",""
"00702699999","2016-06-23T02:44:00","0.0","0.0","7026.0","WXPOD 7026, AF","FM-15","4","30.01","70","93","","","","","47","","","","6.21","","000","","0","","","","","","","","","","","","","","","","","","","","","","","","","","","","","","","","","","","","","","","","","","","","","","","","","","","","","","","","","","","","","","","","","","","","","","","","","","","","","","","","","","","","","","","","","","","MET090MOBOB0 METAR 7026 //008 000000 222214Z AUTO 00000KT 9999 CLR 34/21 A3001 RMK CDP03661 CLR=","","","","","","","","","",""
"00702699999","2016-06-23T02:49:00","0.0","0.0","7026.0","WXPOD 7026, AF","FM-15","4","30.01","66","93","","","","","41","","","","6.21","","000","","0","","","","","","","","","","","","","","","","","","","","","","","","","","","","","","","","","","","","","","","","","","","","","","","","","","","","","","","","","","","","","","","","","","","","","","","","","","","","","","","","","","","","","","","","","","","MET090MOBOB0 METAR 7026 //008 000000 222219Z AUTO 00000KT 9999 CLR 34/19 A3001 RMK CDP03661 CLR=","","","","","","","","","",""
"00702699999","2016-06-23T02:54:00","0.0","0.0","7026.0","WXPOD 7026, AF","FM-15","4","30.01","70","93","","","","","47","","","","6.21","","000","","0","","","","","","","","","","","","","","","","","","","","","","","","","","","","","","","","","","","","","","","","","","","","","","","","","","","","","","","","","","","","","","","","","","","","","","","","","","","","","","","","","","","","","","","","","","","MET090MOBOB0 METAR 7026 //008 000000 222224Z AUTO 00000KT 9999 CLR 34/21 A3001 RMK CDP03661 CLR=","","","","","","","","","",""
"00702699999","2016-06-23T02:59:00","0.0","0.0","7026.0","WXPOD 7026, AF","FM-15","4","30.01","68","91","","","","","46","","","","6.21","","000","","0","","","","","","","","","","","","","","","","","","","","","","","","","","","","","","","","","","","","","","","","","","","","","","","","","","","","","","","","","","","","","","","","","","","","","","","","","","","","","","","","","","","","","","","","","","","MET090MOBOB0 METAR 7026 //008 000000 222229Z AUTO 00000KT 9999 CLR 33/20 A3001 RMK CDP03661 CLR=","","","","","","","","","",""
"00702699999","2016-06-23T03:04:00","0.0","0.0","7026.0","WXPOD 7026, AF","FM-15","4","30.01","68","93","","","","","44","","","","6.21","","000","","0","","","","","","","","","","","","","","","","","","","","","","","","","","","","","","","","","","","","","","","","","","","","","","","","","","","","","","","","","","","","","","","","","","","","","","","","","","","","","","","","","","","","","","","","","","","MET090MOBOB0 METAR 7026 //008 000000 222234Z AUTO 00000KT 9999 CLR 34/20 A3001 RMK CDP03661 CLR=","","","","","","","","","",""
"00702699999","2016-06-23T03:09:00","0.0","0.0","7026.0","WXPOD 7026, AF","FM-15","4","30.01","68","93","","","","","44","","","","6.21","","000","","0","","","","","","","","","","","","","","","","","","","","","","","","","","","","","","","","","","","","","","","","","","","","","","","","","","","","","","","","","","","","","","","","","","","","","","","","","","","","","","","","","","","","","","","","","","","MET090MOBOB0 METAR 7026 //008 000000 222239Z AUTO 00000KT 9999 CLR 34/20 A3001 RMK CDP03661 CLR=","","","","","","","","","",""
"00702699999","2016-06-23T03:14:00","0.0","0.0","7026.0","WXPOD 7026, AF","FM-15","4","30.01","66","93","","","","","41","","","","6.21","","000","","0","","","","","","","","","","","","","","","","","","","","","","","","","","","","","","","","","","","","","","","","","","","","","","","","","","","","","","","","","","","","","","","","","","","","","","","","","","","","","","","","","","","","","","","","","","","MET090MOBOB0 METAR 7026 //008 000000 222244Z AUTO 00000KT 9999 CLR 34/19 A3001 RMK CDP03661 CLR=","","","","","","","","","",""
"00702699999","2016-06-23T03:19:00","0.0","0.0","7026.0","WXPOD 7026, AF","FM-15","4","30.01","70","91","","","","","49","","","","6.21","","000","","0","","","","","","","","","","","","","","","","","","","","","","","","","","","","","","","","","","","","","","","","","","","","","","","","","","","","","","","","","","","","","","","","","","","","","","","","","","","","","","","","","","","","","","","","","","","MET090MOBOB0 METAR 7026 //008 000000 222249Z AUTO 00000KT 9999 CLR 33/21 A3001 RMK CDP03661 CLR=","","","","","","","","","",""
"00702699999","2016-06-23T03:24:00","0.0","0.0","7026.0","WXPOD 7026, AF","FM-15","4","30.01","70","91","","","","","49","","","","6.21","","000","","0","","","","","","","","","","","","","","","","","","","","","","","","","","","","","","","","","","","","","","","","","","","","","","","","","","","","","","","","","","","","","","","","","","","","","","","","","","","","","","","","","","","","","","","","","","","MET090MOBOB0 METAR 7026 //008 000000 222254Z AUTO 00000KT 9999 CLR 33/21 A3001 RMK CDP03661 CLR=","","","","","","","","","",""
"00702699999","2016-06-23T03:29:00","0.0","0.0","7026.0","WXPOD 7026, AF","FM-15","4","30.01","68","91","","","","","46","","","","6.21","","000","","0","","","","","","","","","","","","","","","","","","","","","","","","","","","","","","","","","","","","","","","","","","","","","","","","","","","","","","","","","","","","","","","","","","","","","","","","","","","","","","","","","","","","","","","","","","","MET090MOBOB0 METAR 7026 //008 000000 222259Z AUTO 00000KT 9999 CLR 33/20 A3001 RMK CDP03661 CLR=","","","","","","","","","",""
"00702699999","2016-06-23T03:34:00","0.0","0.0","7026.0","WXPOD 7026, AF","FM-15","4","30.01","70","91","","","","","49","","","","6.21","","000","","0","","","","","","","","","","","","","","","","","","","","","","","","","","","","","","","","","","","","","","","","","","","","","","","","","","","","","","","","","","","","","","","","","","","","","","","","","","","","","","","","","","","","","","","","","","","MET090MOBOB0 METAR 7026 //008 000000 222304Z AUTO 00000KT 9999 CLR 33/21 A3001 RMK CDP03661 CLR=","","","","","","","","","",""
"00702699999","2016-06-23T03:39:00","0.0","0.0","7026.0","WXPOD 7026, AF","FM-15","4","30.01","68","91","","","","","46","","","","6.21","","000","","0","","","","","","","","","","","","","","","","","","","","","","","","","","","","","","","","","","","","","","","","","","","","","","","","","","","","","","","","","","","","","","","","","","","","","","","","","","","","","","","","","","","","","","","","","","","MET090MOBOB0 METAR 7026 //008 000000 222309Z AUTO 00000KT 9999 CLR 33/20 A3001 RMK CDP03661 CLR=","","","","","","","","","",""
"00702699999","2016-06-23T03:44:00","0.0","0.0","7026.0","WXPOD 7026, AF","FM-15","4","30.01","70","90","","","","","52","","","","6.21","","000","","0","","","","","","","","","","","","","","","","","","","","","","","","","","","","","","","","","","","","","","","","","","","","","","","","","","","","","","","","","","","","","","","","","","","","","","","","","","","","","","","","","","","","","","","","","","","MET090MOBOB0 METAR 7026 //008 000000 222314Z AUTO 00000KT 9999 CLR 32/21 A3001 RMK CDP03661 CLR=","","","","","","","","","",""
"00702699999","2016-06-23T03:49:00","0.0","0.0","7026.0","WXPOD 7026, AF","FM-15","4","30.02","70","90","","","","","52","","","","6.21","","000","","0","","","","","","","","","","","","","","","","","","","","","","","","","","","","","","","","","","","","","","","","","","","","","","","","","","","","","","","","","","","","","","","","","","","","","","","","","","","","","","","","","","","","","","","","","","","MET090MOBOB0 METAR 7026 //008 000000 222319Z AUTO 00000KT 9999 CLR 32/21 A3002 RMK CDP03661 CLR=","","","","","","","","","",""
"00702699999","2016-06-23T03:54:00","0.0","0.0","7026.0","WXPOD 7026, AF","FM-15","4","30.01","70","90","","","","","52","","","","6.21","","000","","0","","","","","","","","","","","","","","","","","","","","","","","","","","","","","","","","","","","","","","","","","","","","","","","","","","","","","","","","","","","","","","","","","","","","","","","","","","","","","","","","","","","","","","","","","","","MET090MOBOB0 METAR 7026 //008 000000 222324Z AUTO 00000KT 9999 CLR 32/21 A3001 RMK CDP03661 CLR=","","","","","","","","","",""
"00702699999","2016-06-23T03:59:00","0.0","0.0","7026.0","WXPOD 7026, AF","FM-15","4","30.02","70","88","","","","","55","","","","6.21","","000","","0","","","","","","","","","","","","","","","","","","","","","","","","","","","","","","","","","","","","","","","","","","","","","","","","","","","","","","","","","","","","","","","","","","","","","","","","","","","","","","","","","","","","","","","","","","","MET090MOBOB0 METAR 7026 //008 000000 222329Z AUTO 00000KT 9999 CLR 31/21 A3002 RMK CDP03661 CLR=","","","","","","","","","",""
"00702699999","2016-06-23T04:04:00","0.0","0.0","7026.0","WXPOD 7026, AF","FM-15","4","30.02","70","88","","","","","55","","","","6.21","","000","","0","","","","","","","","","","","","","","","","","","","","","","","","","","","","","","","","","","","","","","","","","","","","","","","","","","","","","","","","","","","","","","","","","","","","","","","","","","","","","","","","","","","","","","","","","","","MET090MOBOB0 METAR 7026 //008 000000 222334Z AUTO 00000KT 9999 CLR 31/21 A3002 RMK CDP03661 CLR=","","","","","","","","","",""
"00702699999","2016-06-23T04:09:00","0.0","0.0","7026.0","WXPOD 7026, AF","FM-15","4","30.02","70","88","","","","","55","","","","6.21","","000","","0","","","","","","","","","","","","","","","","","","","","","","","","","","","","","","","","","","","","","","","","","","","","","","","","","","","","","","","","","","","","","","","","","","","","","","","","","","","","","","","","","","","","","","","","","","","MET090MOBOB0 METAR 7026 //008 000000 222339Z AUTO 00000KT 9999 CLR 31/21 A3002 RMK CDP03661 CLR=","","","","","","","","","",""
"00702699999","2016-06-23T04:14:00","0.0","0.0","7026.0","WXPOD 7026, AF","FM-15","4","30.02","70","88","","","","","55","","","","6.21","","000","","0","","","","","","","","","","","","","","","","","","","","","","","","","","","","","","","","","","","","","","","","","","","","","","","","","","","","","","","","","","","","","","","","","","","","","","","","","","","","","","","","","","","","","","","","","","","MET090MOBOB0 METAR 7026 //008 000000 222344Z AUTO 00000KT 9999 CLR 31/21 A3002 RMK CDP03661 CLR=","","","","","","","","","",""
"00702699999","2016-06-23T04:19:00","0.0","0.0","7026.0","WXPOD 7026, AF","FM-15","4","30.02","70","88","","","","","55","","","","6.21","","000","","0","","","","","","","","","","","","","","","","","","","","","","","","","","","","","","","","","","","","","","","","","","","","","","","","","","","","","","","","","","","","","","","","","","","","","","","","","","","","","","","","","","","","","","","","","","","MET090MOBOB0 METAR 7026 //008 000000 222349Z AUTO 00000KT 9999 CLR 31/21 A3002 RMK CDP03661 CLR=","","","","","","","","","",""
"00702699999","2016-06-23T04:24:00","0.0","0.0","7026.0","WXPOD 7026, AF","FM-15","4","30.02","70","88","","","","","55","","","","6.21","","000","","0","","","","","","","","","","","","","","","","","","","","","","","","","","","","","","","","","","","","","","","","","","","","","","","","","","","","","","","","","","","","","","","","","","","","","","","","","","","","","","","","","","","","","","","","","","","MET090MOBOB0 METAR 7026 //008 000000 222354Z AUTO 00000KT 9999 CLR 31/21 A3002 RMK CDP03661 CLR=","","","","","","","","","",""
"00702699999","2016-06-23T04:29:00","0.0","0.0","7026.0","WXPOD 7026, AF","FM-15","4","30.02","70","88","","","","","55","","","","6.21","","000","","0","","","","","","","","","","","","","","","","","","","","","","","","","","","","","","","","","","","","","","","","","","","","","","","","","","","","","","","","","","","","","","","","","","","","","","","","","","","","","","","","","","","","","","","","","","","MET090MOBOB0 METAR 7026 //008 000000 222359Z AUTO 00000KT 9999 CLR 31/21 A3002 RMK CDP03661 CLR=","","","","","","","","","",""
"00702699999","2016-06-23T04:34:00","0.0","0.0","7026.0","WXPOD 7026, AF","FM-15","4","30.02","70","88","","","","","55","","","","6.21","","000","","0","","","","","","","","","","","","","","","","","","","","","","","","","","","","","","","","","","","","","","","","","","","","","","","","","","","","","","","","","","","","","","","","","","","","","","","","","","","","","","","","","","","","","","","","","","","MET090MOBOB0 METAR 7026 //008 000000 230004Z AUTO 00000KT 9999 CLR 31/21 A3002 RMK CDP03661 CLR=","","","","","","","","","",""
"00702699999","2016-06-23T04:39:00","0.0","0.0","7026.0","WXPOD 7026, AF","FM-15","4","30.02","70","88","","","","","55","","","","6.21","","000","","0","","","","","","","","","","","","","","","","","","","","","","","","","","","","","","","","","","","","","","","","","","","","","","","","","","","","","","","","","","","","","","","","","","","","","","","","","","","","","","","","","","","","","","","","","","","MET090MOBOB0 METAR 7026 //008 000000 230009Z AUTO 00000KT 9999 CLR 31/21 A3002 RMK CDP03661 CLR=","","","","","","","","","",""
"00702699999","2016-06-23T04:44:00","0.0","0.0","7026.0","WXPOD 7026, AF","FM-15","4","30.02","70","88","","","","","55","","","","6.21","","000","","0","","","","","","","","","","","","","","","","","","","","","","","","","","","","","","","","","","","","","","","","","","","","","","","","","","","","","","","","","","","","","","","","","","","","","","","","","","","","","","","","","","","","","","","","","","","MET090MOBOB0 METAR 7026 //008 000000 230014Z AUTO 00000KT 9999 CLR 31/21 A3002 RMK CDP03661 CLR=","","","","","","","","","",""
"00702699999","2016-06-23T04:49:00","0.0","0.0","7026.0","WXPOD 7026, AF","FM-15","4","30.02","70","86","","","","","59","","","","6.21","","000","","0","","","","","","","","","","","","","","","","","","","","","","","","","","","","","","","","","","","","","","","","","","","","","","","","","","","","","","","","","","","","","","","","","","","","","","","","","","","","","","","","","","","","","","","","","","","MET090MOBOB0 METAR 7026 //008 000000 230019Z AUTO 00000KT 9999 CLR 30/21 A3002 RMK CDP03661 CLR=","","","","","","","","","",""
"00702699999","2016-06-23T04:54:00","0.0","0.0","7026.0","WXPOD 7026, AF","FM-15","4","30.02","70","86","","","","","59","","","","6.21","","000","","0","","","","","","","","","","","","","","","","","","","","","","","","","","","","","","","","","","","","","","","","","","","","","","","","","","","","","","","","","","","","","","","","","","","","","","","","","","","","","","","","","","","","","","","","","","","MET090MOBOB0 METAR 7026 //008 000000 230024Z AUTO 00000KT 9999 CLR 30/21 A3002 RMK CDP03661 CLR=","","","","","","","","","",""
"00702699999","2016-06-23T04:59:00","0.0","0.0","7026.0","WXPOD 7026, AF","FM-15","4","30.02","70","86","","","","","59","","","","6.21","","000","","0","","","","","","","","","","","","","","","","","","","","","","","","","","","","","","","","","","","","","","","","","","","","","","","","","","","","","","","","","","","","","","","","","","","","","","","","","","","","","","","","","","","","","","","","","","","MET090MOBOB0 METAR 7026 //008 000000 230029Z AUTO 00000KT 9999 CLR 30/21 A3002 RMK CDP03661 CLR=","","","","","","","","","",""
"00702699999","2016-06-23T05:04:00","0.0","0.0","7026.0","WXPOD 7026, AF","FM-15","4","30.02","70","86","","","","","59","","","","6.21","","000","","0","","","","","","","","","","","","","","","","","","","","","","","","","","","","","","","","","","","","","","","","","","","","","","","","","","","","","","","","","","","","","","","","","","","","","","","","","","","","","","","","","","","","","","","","","","","MET090MOBOB0 METAR 7026 //008 000000 230034Z AUTO 00000KT 9999 CLR 30/21 A3002 RMK CDP03661 CLR=","","","","","","","","","",""
"00702699999","2016-06-23T05:09:00","0.0","0.0","7026.0","WXPOD 7026, AF","FM-15","4","30.02","70","86","","","","","59","","","","6.21","","000","","0","","","","","","","","","","","","","","","","","","","","","","","","","","","","","","","","","","","","","","","","","","","","","","","","","","","","","","","","","","","","","","","","","","","","","","","","","","","","","","","","","","","","","","","","","","","MET090MOBOB0 METAR 7026 //008 000000 230039Z AUTO 00000KT 9999 CLR 30/21 A3002 RMK CDP03661 CLR=","","","","","","","","","",""
"00702699999","2016-06-23T05:14:00","0.0","0.0","7026.0","WXPOD 7026, AF","FM-15","4","30.02","70","86","","","","","59","","","","6.21","","000","","0","","","","","","","","","","","","","","","","","","","","","","","","","","","","","","","","","","","","","","","","","","","","","","","","","","","","","","","","","","","","","","","","","","","","","","","","","","","","","","","","","","","","","","","","","","","MET090MOBOB0 METAR 7026 //008 000000 230044Z AUTO 00000KT 9999 CLR 30/21 A3002 RMK CDP03661 CLR=","","","","","","","","","",""
"00702699999","2016-06-23T05:19:00","0.0","0.0","7026.0","WXPOD 7026, AF","FM-15","4","30.02","70","86","","","","","59","","","","6.21","","000","","0","","","","","","","","","","","","","","","","","","","","","","","","","","","","","","","","","","","","","","","","","","","","","","","","","","","","","","","","","","","","","","","","","","","","","","","","","","","","","","","","","","","","","","","","","","","MET090MOBOB0 METAR 7026 //008 000000 230049Z AUTO 00000KT 9999 CLR 30/21 A3002 RMK CDP03661 CLR=","","","","","","","","","",""
"00702699999","2016-06-23T05:24:00","0.0","0.0","7026.0","WXPOD 7026, AF","FM-15","4","30.02","70","86","","","","","59","","","","6.21","","000","","0","","","","","","","","","","","","","","","","","","","","","","","","","","","","","","","","","","","","","","","","","","","","","","","","","","","","","","","","","","","","","","","","","","","","","","","","","","","","","","","","","","","","","","","","","","","MET090MOBOB0 METAR 7026 //008 000000 230054Z AUTO 00000KT 9999 CLR 30/21 A3002 RMK CDP03661 CLR=","","","","","","","","","",""
"00702699999","2016-06-23T05:29:00","0.0","0.0","7026.0","WXPOD 7026, AF","FM-15","4","30.03","70","86","","","","","59","","","","6.21","","000","","0","","","","","","","","","","","","","","","","","","","","","","","","","","","","","","","","","","","","","","","","","","","","","","","","","","","","","","","","","","","","","","","","","","","","","","","","","","","","","","","","","","","","","","","","","","","MET090MOBOB0 METAR 7026 //008 000000 230059Z AUTO 00000KT 9999 CLR 30/21 A3003 RMK CDP03661 CLR=","","","","","","","","","",""
"00702699999","2016-06-23T05:34:00","0.0","0.0","7026.0","WXPOD 7026, AF","FM-15","4","30.03","70","86","","","","","59","FEW:02 61","","","6.21","","000","","0","","","","","","","","","","","","","","","","","","","","","","","","","","","","","","","","","","","","","","","","","","","","","","","","","","","","","","","","","","","","","","","","","","","","","","","","","","","","","","","","","","","","","","","","","","","MET108MOBOB0 METAR 7026 //008 000000 230104Z AUTO 00000KT 9999 FEW061 30/21 A3003 RMK CDP03661 FEW061 CLD AVG 061=","","","","","","","","","",""
"00702699999","2016-06-23T05:39:00","0.0","0.0","7026.0","WXPOD 7026, AF","FM-15","4","30.03","70","86","","","","","59","FEW:02 63","","","6.21","","000","","0","","","","","","","","","","","","","","","","","","","","","","","","","","","","","","","","","","","","","","","","","","","","","","","","","","","","","","","","","","","","","","","","","","","","","","","","","","","","","","","","","","","","","","","","","","","MET108MOBOB0 METAR 7026 //008 000000 230109Z AUTO 00000KT 9999 FEW063 30/21 A3003 RMK CDP03661 FEW063 CLD AVG 063=","","","","","","","","","",""
"00702699999","2016-06-23T05:44:00","0.0","0.0","7026.0","WXPOD 7026, AF","FM-15","4","30.03","70","86","","","","","59","","","","6.21","","000","","0","","","","","","","","","","","","","","","","","","","","","","","","","","","","","","","","","","","","","","","","","","","","","","","","","","","","","","","","","","","","","","","","","","","","","","","","","","","","","","","","","","","","","","","","","","","MET090MOBOB0 METAR 7026 //008 000000 230114Z AUTO 00000KT 9999 CLR 30/21 A3003 RMK CDP03661 CLR=","","","","","","","","","",""
"00702699999","2016-06-23T05:49:00","0.0","0.0","7026.0","WXPOD 7026, AF","FM-15","4","30.03","70","86","","","","","59","","","","6.21","","000","","0","","","","","","","","","","","","","","","","","","","","","","","","","","","","","","","","","","","","","","","","","","","","","","","","","","","","","","","","","","","","","","","","","","","","","","","","","","","","","","","","","","","","","","","","","","","MET090MOBOB0 METAR 7026 //008 000000 230119Z AUTO 00000KT 9999 CLR 30/21 A3003 RMK CDP03661 CLR=","","","","","","","","","",""
"00702699999","2016-06-23T05:54:00","0.0","0.0","7026.0","WXPOD 7026, AF","FM-15","4","30.03","70","86","","","","","59","","","","6.21","","000","","0","","","","","","","","","","","","","","","","","","","","","","","","","","","","","","","","","","","","","","","","","","","","","","","","","","","","","","","","","","","","","","","","","","","","","","","","","","","","","","","","","","","","","","","","","","","MET090MOBOB0 METAR 7026 //008 000000 230124Z AUTO 00000KT 9999 CLR 30/21 A3003 RMK CDP03661 CLR=","","","","","","","","","",""
"00702699999","2016-06-23T05:59:00","0.0","0.0","7026.0","WXPOD 7026, AF","FM-15","4","30.03","70","86","","","","","59","","","","6.21","","000","","0","","","","","","","","","","","","","","","","","","","","","","","","","","","","","","","","","","","","","","","","","","","","","","","","","","","","","","","","","","","","","","","","","","","","","","","","","","","","","","","","","","","","","","","","","","","MET090MOBOB0 METAR 7026 //008 000000 230129Z AUTO 00000KT 9999 CLR 30/21 A3003 RMK CDP03661 CLR=","","","","","","","","","",""
"00702699999","2016-06-23T06:04:00","0.0","0.0","7026.0","WXPOD 7026, AF","FM-15","4","30.03","72","86","","","","","62","","","","6.21","","000","","0","","","","","","","","","","","","","","","","","","","","","","","","","","","","","","","","","","","","","","","","","","","","","","","","","","","","","","","","","","","","","","","","","","","","","","","","","","","","","","","","","","","","","","","","","","","MET090MOBOB0 METAR 7026 //008 000000 230134Z AUTO 00000KT 9999 CLR 30/22 A3003 RMK CDP03661 CLR=","","","","","","","","","",""
"00702699999","2016-06-23T06:09:00","0.0","0.0","7026.0","WXPOD 7026, AF","FM-15","4","30.04","70","86","","","","","59","","","","6.21","","000","","0","","","","","","","","","","","","","","","","","","","","","","","","","","","","","","","","","","","","","","","","","","","","","","","","","","","","","","","","","","","","","","","","","","","","","","","","","","","","","","","","","","","","","","","","","","","MET090MOBOB0 METAR 7026 //008 000000 230139Z AUTO 00000KT 9999 CLR 30/21 A3004 RMK CDP03661 CLR=","","","","","","","","","",""
"00702699999","2016-06-23T06:14:00","0.0","0.0","7026.0","WXPOD 7026, AF","FM-15","4","30.04","72","86","","","","","62","","","","6.21","","000","","0","","","","","","","","","","","","","","","","","","","","","","","","","","","","","","","","","","","","","","","","","","","","","","","","","","","","","","","","","","","","","","","","","","","","","","","","","","","","","","","","","","","","","","","","","","","MET090MOBOB0 METAR 7026 //008 000000 230144Z AUTO 00000KT 9999 CLR 30/22 A3004 RMK CDP03661 CLR=","","","","","","","","","",""
"00702699999","2016-06-23T06:19:00","0.0","0.0","7026.0","WXPOD 7026, AF","FM-15","4","30.04","72","86","","","","","62","","","","6.21","","000","","0","","","","","","","","","","","","","","","","","","","","","","","","","","","","","","","","","","","","","","","","","","","","","","","","","","","","","","","","","","","","","","","","","","","","","","","","","","","","","","","","","","","","","","","","","","","MET090MOBOB0 METAR 7026 //008 000000 230149Z AUTO 00000KT 9999 CLR 30/22 A3004 RMK CDP03661 CLR=","","","","","","","","","",""
"00702699999","2016-06-23T06:24:00","0.0","0.0","7026.0","WXPOD 7026, AF","FM-15","4","30.04","72","86","","","","","62","","","","6.21","","000","","0","","","","","","","","","","","","","","","","","","","","","","","","","","","","","","","","","","","","","","","","","","","","","","","","","","","","","","","","","","","","","","","","","","","","","","","","","","","","","","","","","","","","","","","","","","","MET090MOBOB0 METAR 7026 //008 000000 230154Z AUTO 00000KT 9999 CLR 30/22 A3004 RMK CDP03661 CLR=","","","","","","","","","",""
"00702699999","2016-06-23T06:29:00","0.0","0.0","7026.0","WXPOD 7026, AF","FM-15","4","30.04","72","86","","","","","62","","","","6.21","","000","","0","","","","","","","","","","","","","","","","","","","","","","","","","","","","","","","","","","","","","","","","","","","","","","","","","","","","","","","","","","","","","","","","","","","","","","","","","","","","","","","","","","","","","","","","","","","MET090MOBOB0 METAR 7026 //008 000000 230159Z AUTO 00000KT 9999 CLR 30/22 A3004 RMK CDP03661 CLR=","","","","","","","","","",""
"00702699999","2016-06-23T06:34:00","0.0","0.0","7026.0","WXPOD 7026, AF","FM-15","4","30.04","72","86","","","","","62","","","","6.21","","000","","0","","","","","","","","","","","","","","","","","","","","","","","","","","","","","","","","","","","","","","","","","","","","","","","","","","","","","","","","","","","","","","","","","","","","","","","","","","","","","","","","","","","","","","","","","","","MET090MOBOB0 METAR 7026 //008 000000 230204Z AUTO 00000KT 9999 CLR 30/22 A3004 RMK CDP03661 CLR=","","","","","","","","","",""
"00702699999","2016-06-23T06:39:00","0.0","0.0","7026.0","WXPOD 7026, AF","FM-15","4","30.05","72","86","","","","","62","","","","6.21","","000","","0","","","","","","","","","","","","","","","","","","","","","","","","","","","","","","","","","","","","","","","","","","","","","","","","","","","","","","","","","","","","","","","","","","","","","","","","","","","","","","","","","","","","","","","","","","","MET090MOBOB0 METAR 7026 //008 000000 230209Z AUTO 00000KT 9999 CLR 30/22 A3005 RMK CDP03661 CLR=","","","","","","","","","",""
"00702699999","2016-06-23T06:44:00","0.0","0.0","7026.0","WXPOD 7026, AF","FM-15","4","30.05","72","86","","","","","62","","","","6.21","","000","","0","","","","","","","","","","","","","","","","","","","","","","","","","","","","","","","","","","","","","","","","","","","","","","","","","","","","","","","","","","","","","","","","","","","","","","","","","","","","","","","","","","","","","","","","","","","MET090MOBOB0 METAR 7026 //008 000000 230214Z AUTO 00000KT 9999 CLR 30/22 A3005 RMK CDP03661 CLR=","","","","","","","","","",""
"00702699999","2016-06-23T06:49:00","0.0","0.0","7026.0","WXPOD 7026, AF","FM-15","4","30.05","72","86","","","","","62","","","","6.21","","000","","0","","","","","","","","","","","","","","","","","","","","","","","","","","","","","","","","","","","","","","","","","","","","","","","","","","","","","","","","","","","","","","","","","","","","","","","","","","","","","","","","","","","","","","","","","","","MET090MOBOB0 METAR 7026 //008 000000 230219Z AUTO 00000KT 9999 CLR 30/22 A3005 RMK CDP03661 CLR=","","","","","","","","","",""
"00702699999","2016-06-23T06:54:00","0.0","0.0","7026.0","WXPOD 7026, AF","FM-15","4","30.05","72","86","","","","","62","","","","6.21","","000","","0","","","","","","","","","","","","","","","","","","","","","","","","","","","","","","","","","","","","","","","","","","","","","","","","","","","","","","","","","","","","","","","","","","","","","","","","","","","","","","","","","","","","","","","","","","","MET090MOBOB0 METAR 7026 //008 000000 230224Z AUTO 00000KT 9999 CLR 30/22 A3005 RMK CDP03661 CLR=","","","","","","","","","",""
"00702699999","2016-06-23T06:59:00","0.0","0.0","7026.0","WXPOD 7026, AF","FM-15","4","30.05","72","86","","","","","62","","","","6.21","","000","","0","","","","","","","","","","","","","","","","","","","","","","","","","","","","","","","","","","","","","","","","","","","","","","","","","","","","","","","","","","","","","","","","","","","","","","","","","","","","","","","","","","","","","","","","","","","MET090MOBOB0 METAR 7026 //008 000000 230229Z AUTO 00000KT 9999 CLR 30/22 A3005 RMK CDP03661 CLR=","","","","","","","","","",""
"00702699999","2016-06-23T07:04:00","0.0","0.0","7026.0","WXPOD 7026, AF","FM-15","4","30.05","72","86","","","","","62","","","","6.21","","000","","0","","","","","","","","","","","","","","","","","","","","","","","","","","","","","","","","","","","","","","","","","","","","","","","","","","","","","","","","","","","","","","","","","","","","","","","","","","","","","","","","","","","","","","","","","","","MET090MOBOB0 METAR 7026 //008 000000 230234Z AUTO 00000KT 9999 CLR 30/22 A3005 RMK CDP03661 CLR=","","","","","","","","","",""
"00702699999","2016-06-23T07:09:00","0.0","0.0","7026.0","WXPOD 7026, AF","FM-15","4","30.05","72","86","","","","","62","","","","6.21","","000","","0","","","","","","","","","","","","","","","","","","","","","","","","","","","","","","","","","","","","","","","","","","","","","","","","","","","","","","","","","","","","","","","","","","","","","","","","","","","","","","","","","","","","","","","","","","","MET090MOBOB0 METAR 7026 //008 000000 230239Z AUTO 00000KT 9999 CLR 30/22 A3005 RMK CDP03661 CLR=","","","","","","","","","",""
"00702699999","2016-06-23T07:14:00","0.0","0.0","7026.0","WXPOD 7026, AF","FM-15","4","30.05","72","86","","","","","62","","","","6.21","","000","","0","","","","","","","","","","","","","","","","","","","","","","","","","","","","","","","","","","","","","","","","","","","","","","","","","","","","","","","","","","","","","","","","","","","","","","","","","","","","","","","","","","","","","","","","","","","MET090MOBOB0 METAR 7026 //008 000000 230244Z AUTO 00000KT 9999 CLR 30/22 A3005 RMK CDP03661 CLR=","","","","","","","","","",""
"00702699999","2016-06-23T07:19:00","0.0","0.0","7026.0","WXPOD 7026, AF","FM-15","4","30.05","72","86","","","","","62","","","","6.21","","000","","0","","","","","","","","","","","","","","","","","","","","","","","","","","","","","","","","","","","","","","","","","","","","","","","","","","","","","","","","","","","","","","","","","","","","","","","","","","","","","","","","","","","","","","","","","","","MET090MOBOB0 METAR 7026 //008 000000 230249Z AUTO 00000KT 9999 CLR 30/22 A3005 RMK CDP03661 CLR=","","","","","","","","","",""
"00702699999","2016-06-23T07:24:00","0.0","0.0","7026.0","WXPOD 7026, AF","FM-15","4","30.05","72","86","","","","","62","","","","6.21","","000","","0","","","","","","","","","","","","","","","","","","","","","","","","","","","","","","","","","","","","","","","","","","","","","","","","","","","","","","","","","","","","","","","","","","","","","","","","","","","","","","","","","","","","","","","","","","","MET090MOBOB0 METAR 7026 //008 000000 230254Z AUTO 00000KT 9999 CLR 30/22 A3005 RMK CDP03661 CLR=","","","","","","","","","",""
"00702699999","2016-06-23T07:29:00","0.0","0.0","7026.0","WXPOD 7026, AF","FM-15","4","30.05","72","86","","","","","62","","","","6.21","","000","","0","","","","","","","","","","","","","","","","","","","","","","","","","","","","","","","","","","","","","","","","","","","","","","","","","","","","","","","","","","","","","","","","","","","","","","","","","","","","","","","","","","","","","","","","","","","MET090MOBOB0 METAR 7026 //008 000000 230259Z AUTO 00000KT 9999 CLR 30/22 A3005 RMK CDP03661 CLR=","","","","","","","","","",""
"00702699999","2016-06-23T07:34:00","0.0","0.0","7026.0","WXPOD 7026, AF","FM-15","4","30.05","72","86","","","","","62","","","","6.21","","000","","0","","","","","","","","","","","","","","","","","","","","","","","","","","","","","","","","","","","","","","","","","","","","","","","","","","","","","","","","","","","","","","","","","","","","","","","","","","","","","","","","","","","","","","","","","","","MET090MOBOB0 METAR 7026 //008 000000 230304Z AUTO 00000KT 9999 CLR 30/22 A3005 RMK CDP03661 CLR=","","","","","","","","","",""
"00702699999","2016-06-23T07:39:00","0.0","0.0","7026.0","WXPOD 7026, AF","FM-15","4","30.05","72","84","","","","","66","","","","6.21","","000","","0","","","","","","","","","","","","","","","","","","","","","","","","","","","","","","","","","","","","","","","","","","","","","","","","","","","","","","","","","","","","","","","","","","","","","","","","","","","","","","","","","","","","","","","","","","","MET090MOBOB0 METAR 7026 //008 000000 230309Z AUTO 00000KT 9999 CLR 29/22 A3005 RMK CDP03661 CLR=","","","","","","","","","",""
"00702699999","2016-06-23T07:44:00","0.0","0.0","7026.0","WXPOD 7026, AF","FM-15","4","30.05","72","84","","","","","66","","","","6.21","","000","","0","","","","","","","","","","","","","","","","","","","","","","","","","","","","","","","","","","","","","","","","","","","","","","","","","","","","","","","","","","","","","","","","","","","","","","","","","","","","","","","","","","","","","","","","","","","MET090MOBOB0 METAR 7026 //008 000000 230314Z AUTO 00000KT 9999 CLR 29/22 A3005 RMK CDP03661 CLR=","","","","","","","","","",""
"00702699999","2016-06-23T07:49:00","0.0","0.0","7026.0","WXPOD 7026, AF","FM-15","4","30.05","72","84","","","","","66","","","","6.21","","000","","0","","","","","","","","","","","","","","","","","","","","","","","","","","","","","","","","","","","","","","","","","","","","","","","","","","","","","","","","","","","","","","","","","","","","","","","","","","","","","","","","","","","","","","","","","","","MET090MOBOB0 METAR 7026 //008 000000 230319Z AUTO 00000KT 9999 CLR 29/22 A3005 RMK CDP03661 CLR=","","","","","","","","","",""
"00702699999","2016-06-23T07:54:00","0.0","0.0","7026.0","WXPOD 7026, AF","FM-15","4","30.05","72","86","","","","","62","","","","6.21","","000","","0","","","","","","","","","","","","","","","","","","","","","","","","","","","","","","","","","","","","","","","","","","","","","","","","","","","","","","","","","","","","","","","","","","","","","","","","","","","","","","","","","","","","","","","","","","","MET090MOBOB0 METAR 7026 //008 000000 230324Z AUTO 00000KT 9999 CLR 30/22 A3005 RMK CDP03661 CLR=","","","","","","","","","",""
"00702699999","2016-06-23T07:59:00","0.0","0.0","7026.0","WXPOD 7026, AF","FM-15","4","30.05","72","86","","","","","62","","","","6.21","","000","","0","","","","","","","","","","","","","","","","","","","","","","","","","","","","","","","","","","","","","","","","","","","","","","","","","","","","","","","","","","","","","","","","","","","","","","","","","","","","","","","","","","","","","","","","","","","MET090MOBOB0 METAR 7026 //008 000000 230329Z AUTO 00000KT 9999 CLR 30/22 A3005 RMK CDP03661 CLR=","","","","","","","","","",""
"00702699999","2016-06-23T08:04:00","0.0","0.0","7026.0","WXPOD 7026, AF","FM-15","4","30.05","72","86","","","","","62","","","","6.21","","000","","0","","","","","","","","","","","","","","","","","","","","","","","","","","","","","","","","","","","","","","","","","","","","","","","","","","","","","","","","","","","","","","","","","","","","","","","","","","","","","","","","","","","","","","","","","","","MET090MOBOB0 METAR 7026 //008 000000 230334Z AUTO 00000KT 9999 CLR 30/22 A3005 RMK CDP03661 CLR=","","","","","","","","","",""
"00702699999","2016-06-23T08:09:00","0.0","0.0","7026.0","WXPOD 7026, AF","FM-15","4","30.05","72","84","","","","","66","","","","6.21","","000","","0","","","","","","","","","","","","","","","","","","","","","","","","","","","","","","","","","","","","","","","","","","","","","","","","","","","","","","","","","","","","","","","","","","","","","","","","","","","","","","","","","","","","","","","","","","","MET090MOBOB0 METAR 7026 //008 000000 230339Z AUTO 00000KT 9999 CLR 29/22 A3005 RMK CDP03661 CLR=","","","","","","","","","",""
"00702699999","2016-06-23T08:14:00","0.0","0.0","7026.0","WXPOD 7026, AF","FM-15","4","30.05","72","84","","","","","66","","","","6.21","","000","","0","","","","","","","","","","","","","","","","","","","","","","","","","","","","","","","","","","","","","","","","","","","","","","","","","","","","","","","","","","","","","","","","","","","","","","","","","","","","","","","","","","","","","","","","","","","MET090MOBOB0 METAR 7026 //008 000000 230344Z AUTO 00000KT 9999 CLR 29/22 A3005 RMK CDP03661 CLR=","","","","","","","","","",""
"00702699999","2016-06-23T08:19:00","0.0","0.0","7026.0","WXPOD 7026, AF","FM-15","4","30.05","72","84","","","","","66","","","","6.21","","000","","0","","","","","","","","","","","","","","","","","","","","","","","","","","","","","","","","","","","","","","","","","","","","","","","","","","","","","","","","","","","","","","","","","","","","","","","","","","","","","","","","","","","","","","","","","","","MET090MOBOB0 METAR 7026 //008 000000 230349Z AUTO 00000KT 9999 CLR 29/22 A3005 RMK CDP03661 CLR=","","","","","","","","","",""
"00702699999","2016-06-23T08:24:00","0.0","0.0","7026.0","WXPOD 7026, AF","FM-15","4","30.05","72","84","","","","","66","","","","6.21","","000","","0","","","","","","","","","","","","","","","","","","","","","","","","","","","","","","","","","","","","","","","","","","","","","","","","","","","","","","","","","","","","","","","","","","","","","","","","","","","","","","","","","","","","","","","","","","","MET090MOBOB0 METAR 7026 //008 000000 230354Z AUTO 00000KT 9999 CLR 29/22 A3005 RMK CDP03661 CLR=","","","","","","","","","",""
"00702699999","2016-06-23T08:29:00","0.0","0.0","7026.0","WXPOD 7026, AF","FM-15","4","30.05","72","84","","","","","66","","","","6.21","","000","","0","","","","","","","","","","","","","","","","","","","","","","","","","","","","","","","","","","","","","","","","","","","","","","","","","","","","","","","","","","","","","","","","","","","","","","","","","","","","","","","","","","","","","","","","","","","MET090MOBOB0 METAR 7026 //008 000000 230359Z AUTO 00000KT 9999 CLR 29/22 A3005 RMK CDP03661 CLR=","","","","","","","","","",""
"00702699999","2016-06-23T08:34:00","0.0","0.0","7026.0","WXPOD 7026, AF","FM-15","4","30.05","72","84","","","","","66","","","","6.21","","000","","0","","","","","","","","","","","","","","","","","","","","","","","","","","","","","","","","","","","","","","","","","","","","","","","","","","","","","","","","","","","","","","","","","","","","","","","","","","","","","","","","","","","","","","","","","","","MET090MOBOB0 METAR 7026 //008 000000 230404Z AUTO 00000KT 9999 CLR 29/22 A3005 RMK CDP03661 CLR=","","","","","","","","","",""
"00702699999","2016-06-23T08:39:00","0.0","0.0","7026.0","WXPOD 7026, AF","FM-15","4","30.05","72","84","","","","","66","","","","6.21","","000","","0","","","","","","","","","","","","","","","","","","","","","","","","","","","","","","","","","","","","","","","","","","","","","","","","","","","","","","","","","","","","","","","","","","","","","","","","","","","","","","","","","","","","","","","","","","","MET090MOBOB0 METAR 7026 //008 000000 230409Z AUTO 00000KT 9999 CLR 29/22 A3005 RMK CDP03661 CLR=","","","","","","","","","",""
"00702699999","2016-06-23T08:44:00","0.0","0.0","7026.0","WXPOD 7026, AF","FM-15","4","30.04","72","84","","","","","66","","","","6.21","","000","","0","","","","","","","","","","","","","","","","","","","","","","","","","","","","","","","","","","","","","","","","","","","","","","","","","","","","","","","","","","","","","","","","","","","","","","","","","","","","","","","","","","","","","","","","","","","MET090MOBOB0 METAR 7026 //008 000000 230414Z AUTO 00000KT 9999 CLR 29/22 A3004 RMK CDP03661 CLR=","","","","","","","","","",""
"00702699999","2016-06-23T08:49:00","0.0","0.0","7026.0","WXPOD 7026, AF","FM-15","4","30.04","72","84","","","","","66","","","","6.21","","000","","0","","","","","","","","","","","","","","","","","","","","","","","","","","","","","","","","","","","","","","","","","","","","","","","","","","","","","","","","","","","","","","","","","","","","","","","","","","","","","","","","","","","","","","","","","","","MET090MOBOB0 METAR 7026 //008 000000 230419Z AUTO 00000KT 9999 CLR 29/22 A3004 RMK CDP03661 CLR=","","","","","","","","","",""
"00702699999","2016-06-23T08:54:00","0.0","0.0","7026.0","WXPOD 7026, AF","FM-15","4","30.04","72","84","","","","","66","","","","6.21","","000","","0","","","","","","","","","","","","","","","","","","","","","","","","","","","","","","","","","","","","","","","","","","","","","","","","","","","","","","","","","","","","","","","","","","","","","","","","","","","","","","","","","","","","","","","","","","","MET090MOBOB0 METAR 7026 //008 000000 230424Z AUTO 00000KT 9999 CLR 29/22 A3004 RMK CDP03661 CLR=","","","","","","","","","",""
"00702699999","2016-06-23T08:59:00","0.0","0.0","7026.0","WXPOD 7026, AF","FM-15","4","30.03","72","84","","","","","66","","","","6.21","","000","","0","","","","","","","","","","","","","","","","","","","","","","","","","","","","","","","","","","","","","","","","","","","","","","","","","","","","","","","","","","","","","","","","","","","","","","","","","","","","","","","","","","","","","","","","","","","MET090MOBOB0 METAR 7026 //008 000000 230429Z AUTO 00000KT 9999 CLR 29/22 A3003 RMK CDP03661 CLR=","","","","","","","","","",""
"00702699999","2016-06-23T09:04:00","0.0","0.0","7026.0","WXPOD 7026, AF","FM-15","4","30.03","72","84","","","","","66","","","","6.21","","000","","0","","","","","","","","","","","","","","","","","","","","","","","","","","","","","","","","","","","","","","","","","","","","","","","","","","","","","","","","","","","","","","","","","","","","","","","","","","","","","","","","","","","","","","","","","","","MET090MOBOB0 METAR 7026 //008 000000 230434Z AUTO 00000KT 9999 CLR 29/22 A3003 RMK CDP03661 CLR=","","","","","","","","","",""
"00702699999","2016-06-23T09:09:00","0.0","0.0","7026.0","WXPOD 7026, AF","FM-15","4","30.03","72","84","","","","","66","","","","6.21","","000","","0","","","","","","","","","","","","","","","","","","","","","","","","","","","","","","","","","","","","","","","","","","","","","","","","","","","","","","","","","","","","","","","","","","","","","","","","","","","","","","","","","","","","","","","","","","","MET090MOBOB0 METAR 7026 //008 000000 230439Z AUTO 00000KT 9999 CLR 29/22 A3003 RMK CDP03661 CLR=","","","","","","","","","",""
"00702699999","2016-06-23T09:14:00","0.0","0.0","7026.0","WXPOD 7026, AF","FM-15","4","30.03","72","84","","","","","66","","","","6.21","","000","","0","","","","","","","","","","","","","","","","","","","","","","","","","","","","","","","","","","","","","","","","","","","","","","","","","","","","","","","","","","","","","","","","","","","","","","","","","","","","","","","","","","","","","","","","","","","MET090MOBOB0 METAR 7026 //008 000000 230444Z AUTO 00000KT 9999 CLR 29/22 A3003 RMK CDP03661 CLR=","","","","","","","","","",""
"00702699999","2016-06-23T09:19:00","0.0","0.0","7026.0","WXPOD 7026, AF","FM-15","4","30.02","72","84","","","","","66","","","","6.21","","000","","0","","","","","","","","","","","","","","","","","","","","","","","","","","","","","","","","","","","","","","","","","","","","","","","","","","","","","","","","","","","","","","","","","","","","","","","","","","","","","","","","","","","","","","","","","","","MET090MOBOB0 METAR 7026 //008 000000 230449Z AUTO 00000KT 9999 CLR 29/22 A3002 RMK CDP03661 CLR=","","","","","","","","","",""
"00702699999","2016-06-23T09:24:00","0.0","0.0","7026.0","WXPOD 7026, AF","FM-15","4","30.03","72","84","","","","","66","","","","6.21","","000","","0","","","","","","","","","","","","","","","","","","","","","","","","","","","","","","","","","","","","","","","","","","","","","","","","","","","","","","","","","","","","","","","","","","","","","","","","","","","","","","","","","","","","","","","","","","","MET090MOBOB0 METAR 7026 //008 000000 230454Z AUTO 00000KT 9999 CLR 29/22 A3003 RMK CDP03661 CLR=","","","","","","","","","",""
"00702699999","2016-06-23T09:29:00","0.0","0.0","7026.0","WXPOD 7026, AF","FM-15","4","30.03","72","84","","","","","66","","","","6.21","","000","","0","","","","","","","","","","","","","","","","","","","","","","","","","","","","","","","","","","","","","","","","","","","","","","","","","","","","","","","","","","","","","","","","","","","","","","","","","","","","","","","","","","","","","","","","","","","MET090MOBOB0 METAR 7026 //008 000000 230459Z AUTO 00000KT 9999 CLR 29/22 A3003 RMK CDP03661 CLR=","","","","","","","","","",""
"00702699999","2016-06-23T09:34:00","0.0","0.0","7026.0","WXPOD 7026, AF","FM-15","4","30.03","72","84","","","","","66","","","","6.21","","000","","0","","","","","","","","","","","","","","","","","","","","","","","","","","","","","","","","","","","","","","","","","","","","","","","","","","","","","","","","","","","","","","","","","","","","","","","","","","","","","","","","","","","","","","","","","","","MET090MOBOB0 METAR 7026 //008 000000 230504Z AUTO 00000KT 9999 CLR 29/22 A3003 RMK CDP03661 CLR=","","","","","","","","","",""
"00702699999","2016-06-23T09:39:00","0.0","0.0","7026.0","WXPOD 7026, AF","FM-15","4","30.02","72","82","","","","","70","","","","6.21","","000","","0","","","","","","","","","","","","","","","","","","","","","","","","","","","","","","","","","","","","","","","","","","","","","","","","","","","","","","","","","","","","","","","","","","","","","","","","","","","","","","","","","","","","","","","","","","","MET090MOBOB0 METAR 7026 //008 000000 230509Z AUTO 00000KT 9999 CLR 28/22 A3002 RMK CDP03661 CLR=","","","","","","","","","",""
"00702699999","2016-06-23T09:44:00","0.0","0.0","7026.0","WXPOD 7026, AF","FM-15","4","30.02","72","82","","","","","70","","","","6.21","","000","","0","","","","","","","","","","","","","","","","","","","","","","","","","","","","","","","","","","","","","","","","","","","","","","","","","","","","","","","","","","","","","","","","","","","","","","","","","","","","","","","","","","","","","","","","","","","MET090MOBOB0 METAR 7026 //008 000000 230514Z AUTO 00000KT 9999 CLR 28/22 A3002 RMK CDP03661 CLR=","","","","","","","","","",""
"00702699999","2016-06-23T09:49:00","0.0","0.0","7026.0","WXPOD 7026, AF","FM-15","4","30.02","72","82","","","","","70","","","","6.21","","000","","0","","","","","","","","","","","","","","","","","","","","","","","","","","","","","","","","","","","","","","","","","","","","","","","","","","","","","","","","","","","","","","","","","","","","","","","","","","","","","","","","","","","","","","","","","","","MET090MOBOB0 METAR 7026 //008 000000 230519Z AUTO 00000KT 9999 CLR 28/22 A3002 RMK CDP03661 CLR=","","","","","","","","","",""
"00702699999","2016-06-23T09:54:00","0.0","0.0","7026.0","WXPOD 7026, AF","FM-15","4","30.02","72","82","","","","","70","","","","6.21","","000","","0","","","","","","","","","","","","","","","","","","","","","","","","","","","","","","","","","","","","","","","","","","","","","","","","","","","","","","","","","","","","","","","","","","","","","","","","","","","","","","","","","","","","","","","","","","","MET090MOBOB0 METAR 7026 //008 000000 230524Z AUTO 00000KT 9999 CLR 28/22 A3002 RMK CDP03661 CLR=","","","","","","","","","",""
"00702699999","2016-06-23T09:59:00","0.0","0.0","7026.0","WXPOD 7026, AF","FM-15","4","30.02","72","82","","","","","70","","","","6.21","","000","","0","","","","","","","","","","","","","","","","","","","","","","","","","","","","","","","","","","","","","","","","","","","","","","","","","","","","","","","","","","","","","","","","","","","","","","","","","","","","","","","","","","","","","","","","","","","MET090MOBOB0 METAR 7026 //008 000000 230529Z AUTO 00000KT 9999 CLR 28/22 A3002 RMK CDP03661 CLR=","","","","","","","","","",""
"00702699999","2016-06-23T10:04:00","0.0","0.0","7026.0","WXPOD 7026, AF","FM-15","4","30.03","72","82","","","","","70","","","","6.21","","000","","0","","","","","","","","","","","","","","","","","","","","","","","","","","","","","","","","","","","","","","","","","","","","","","","","","","","","","","","","","","","","","","","","","","","","","","","","","","","","","","","","","","","","","","","","","","","MET090MOBOB0 METAR 7026 //008 000000 230534Z AUTO 00000KT 9999 CLR 28/22 A3003 RMK CDP03661 CLR=","","","","","","","","","",""
"00702699999","2016-06-23T10:09:00","0.0","0.0","7026.0","WXPOD 7026, AF","FM-15","4","30.03","72","82","","","","","70","","","","6.21","","000","","0","","","","","","","","","","","","","","","","","","","","","","","","","","","","","","","","","","","","","","","","","","","","","","","","","","","","","","","","","","","","","","","","","","","","","","","","","","","","","","","","","","","","","","","","","","","MET090MOBOB0 METAR 7026 //008 000000 230539Z AUTO 00000KT 9999 CLR 28/22 A3003 RMK CDP03661 CLR=","","","","","","","","","",""
"00702699999","2016-06-23T10:14:00","0.0","0.0","7026.0","WXPOD 7026, AF","FM-15","4","30.03","72","82","","","","","70","","","","6.21","","000","","0","","","","","","","","","","","","","","","","","","","","","","","","","","","","","","","","","","","","","","","","","","","","","","","","","","","","","","","","","","","","","","","","","","","","","","","","","","","","","","","","","","","","","","","","","","","MET090MOBOB0 METAR 7026 //008 000000 230544Z AUTO 00000KT 9999 CLR 28/22 A3003 RMK CDP03661 CLR=","","","","","","","","","",""
"00702699999","2016-06-23T10:19:00","0.0","0.0","7026.0","WXPOD 7026, AF","FM-15","4","30.03","72","82","","","","","70","","","","6.21","","000","","0","","","","","","","","","","","","","","","","","","","","","","","","","","","","","","","","","","","","","","","","","","","","","","","","","","","","","","","","","","","","","","","","","","","","","","","","","","","","","","","","","","","","","","","","","","","MET090MOBOB0 METAR 7026 //008 000000 230549Z AUTO 00000KT 9999 CLR 28/22 A3003 RMK CDP03661 CLR=","","","","","","","","","",""
"00702699999","2016-06-23T10:24:00","0.0","0.0","7026.0","WXPOD 7026, AF","FM-15","4","30.03","72","82","","","","","70","","","","6.21","","000","","0","","","","","","","","","","","","","","","","","","","","","","","","","","","","","","","","","","","","","","","","","","","","","","","","","","","","","","","","","","","","","","","","","","","","","","","","","","","","","","","","","","","","","","","","","","","MET090MOBOB0 METAR 7026 //008 000000 230554Z AUTO 00000KT 9999 CLR 28/22 A3003 RMK CDP03661 CLR=","","","","","","","","","",""
"00702699999","2016-06-23T10:29:00","0.0","0.0","7026.0","WXPOD 7026, AF","FM-15","4","30.03","72","82","","","","","70","","","","6.21","","000","","0","","","","","","","","","","","","","","","","","","","","","","","","","","","","","","","","","","","","","","","","","","","","","","","","","","","","","","","","","","","","","","","","","","","","","","","","","","","","","","","","","","","","","","","","","","","MET090MOBOB0 METAR 7026 //008 000000 230559Z AUTO 00000KT 9999 CLR 28/22 A3003 RMK CDP03661 CLR=","","","","","","","","","",""
"00702699999","2016-06-23T10:34:00","0.0","0.0","7026.0","WXPOD 7026, AF","FM-15","4","30.03","72","82","","","","","70","","","","6.21","","000","","0","","","","","","","","","","","","","","","","","","","","","","","","","","","","","","","","","","","","","","","","","","","","","","","","","","","","","","","","","","","","","","","","","","","","","","","","","","","","","","","","","","","","","","","","","","","MET090MOBOB0 METAR 7026 //008 000000 230604Z AUTO 00000KT 9999 CLR 28/22 A3003 RMK CDP03661 CLR=","","","","","","","","","",""
"00702699999","2016-06-23T10:39:00","0.0","0.0","7026.0","WXPOD 7026, AF","FM-15","4","30.03","72","82","","","","","70","","","","6.21","","000","","0","","","","","","","","","","","","","","","","","","","","","","","","","","","","","","","","","","","","","","","","","","","","","","","","","","","","","","","","","","","","","","","","","","","","","","","","","","","","","","","","","","","","","","","","","","","MET090MOBOB0 METAR 7026 //008 000000 230609Z AUTO 00000KT 9999 CLR 28/22 A3003 RMK CDP03661 CLR=","","","","","","","","","",""
"00702699999","2016-06-23T10:44:00","0.0","0.0","7026.0","WXPOD 7026, AF","FM-15","4","30.02","72","82","","","","","70","","","","6.21","","000","","0","","","","","","","","","","","","","","","","","","","","","","","","","","","","","","","","","","","","","","","","","","","","","","","","","","","","","","","","","","","","","","","","","","","","","","","","","","","","","","","","","","","","","","","","","","","MET090MOBOB0 METAR 7026 //008 000000 230614Z AUTO 00000KT 9999 CLR 28/22 A3002 RMK CDP03661 CLR=","","","","","","","","","",""
"00702699999","2016-06-23T10:49:00","0.0","0.0","7026.0","WXPOD 7026, AF","FM-15","4","30.02","72","82","","","","","70","","","","6.21","","000","","0","","","","","","","","","","","","","","","","","","","","","","","","","","","","","","","","","","","","","","","","","","","","","","","","","","","","","","","","","","","","","","","","","","","","","","","","","","","","","","","","","","","","","","","","","","","MET090MOBOB0 METAR 7026 //008 000000 230619Z AUTO 00000KT 9999 CLR 28/22 A3002 RMK CDP03661 CLR=","","","","","","","","","",""
"00702699999","2016-06-23T10:54:00","0.0","0.0","7026.0","WXPOD 7026, AF","FM-15","4","30.02","72","82","","","","","70","","","","6.21","","000","","0","","","","","","","","","","","","","","","","","","","","","","","","","","","","","","","","","","","","","","","","","","","","","","","","","","","","","","","","","","","","","","","","","","","","","","","","","","","","","","","","","","","","","","","","","","","MET090MOBOB0 METAR 7026 //008 000000 230624Z AUTO 00000KT 9999 CLR 28/22 A3002 RMK CDP03661 CLR=","","","","","","","","","",""
"00702699999","2016-06-23T10:59:00","0.0","0.0","7026.0","WXPOD 7026, AF","FM-15","4","30.02","72","82","","","","","70","","","","6.21","","000","","0","","","","","","","","","","","","","","","","","","","","","","","","","","","","","","","","","","","","","","","","","","","","","","","","","","","","","","","","","","","","","","","","","","","","","","","","","","","","","","","","","","","","","","","","","","","MET090MOBOB0 METAR 7026 //008 000000 230629Z AUTO 00000KT 9999 CLR 28/22 A3002 RMK CDP03661 CLR=","","","","","","","","","",""
"00702699999","2016-06-23T11:04:00","0.0","0.0","7026.0","WXPOD 7026, AF","FM-15","4","30.02","72","82","","","","","70","","","","6.21","","000","","0","","","","","","","","","","","","","","","","","","","","","","","","","","","","","","","","","","","","","","","","","","","","","","","","","","","","","","","","","","","","","","","","","","","","","","","","","","","","","","","","","","","","","","","","","","","MET090MOBOB0 METAR 7026 //008 000000 230634Z AUTO 00000KT 9999 CLR 28/22 A3002 RMK CDP03661 CLR=","","","","","","","","","",""
"00702699999","2016-06-23T11:09:00","0.0","0.0","7026.0","WXPOD 7026, AF","FM-15","4","30.02","72","82","","","","","70","","","","6.21","","000","","0","","","","","","","","","","","","","","","","","","","","","","","","","","","","","","","","","","","","","","","","","","","","","","","","","","","","","","","","","","","","","","","","","","","","","","","","","","","","","","","","","","","","","","","","","","","MET090MOBOB0 METAR 7026 //008 000000 230639Z AUTO 00000KT 9999 CLR 28/22 A3002 RMK CDP03661 CLR=","","","","","","","","","",""
"00702699999","2016-06-23T11:14:00","0.0","0.0","7026.0","WXPOD 7026, AF","FM-15","4","30.02","72","82","","","","","70","","","","6.21","","000","","0","","","","","","","","","","","","","","","","","","","","","","","","","","","","","","","","","","","","","","","","","","","","","","","","","","","","","","","","","","","","","","","","","","","","","","","","","","","","","","","","","","","","","","","","","","","MET090MOBOB0 METAR 7026 //008 000000 230644Z AUTO 00000KT 9999 CLR 28/22 A3002 RMK CDP03661 CLR=","","","","","","","","","",""
"00702699999","2016-06-23T11:19:00","0.0","0.0","7026.0","WXPOD 7026, AF","FM-15","4","30.02","72","82","","","","","70","","","","6.21","","000","","0","","","","","","","","","","","","","","","","","","","","","","","","","","","","","","","","","","","","","","","","","","","","","","","","","","","","","","","","","","","","","","","","","","","","","","","","","","","","","","","","","","","","","","","","","","","MET090MOBOB0 METAR 7026 //008 000000 230649Z AUTO 00000KT 9999 CLR 28/22 A3002 RMK CDP03661 CLR=","","","","","","","","","",""
"00702699999","2016-06-23T11:24:00","0.0","0.0","7026.0","WXPOD 7026, AF","FM-15","4","30.02","72","82","","","","","70","","","","6.21","","000","","0","","","","","","","","","","","","","","","","","","","","","","","","","","","","","","","","","","","","","","","","","","","","","","","","","","","","","","","","","","","","","","","","","","","","","","","","","","","","","","","","","","","","","","","","","","","MET090MOBOB0 METAR 7026 //008 000000 230654Z AUTO 00000KT 9999 CLR 28/22 A3002 RMK CDP03661 CLR=","","","","","","","","","",""
"00702699999","2016-06-23T11:29:00","0.0","0.0","7026.0","WXPOD 7026, AF","FM-15","4","30.02","72","82","","","","","70","","","","6.21","","000","","0","","","","","","","","","","","","","","","","","","","","","","","","","","","","","","","","","","","","","","","","","","","","","","","","","","","","","","","","","","","","","","","","","","","","","","","","","","","","","","","","","","","","","","","","","","","MET090MOBOB0 METAR 7026 //008 000000 230659Z AUTO 00000KT 9999 CLR 28/22 A3002 RMK CDP03661 CLR=","","","","","","","","","",""
"00702699999","2016-06-23T11:34:00","0.0","0.0","7026.0","WXPOD 7026, AF","FM-15","4","30.02","72","82","","","","","70","","","","6.21","","000","","0","","","","","","","","","","","","","","","","","","","","","","","","","","","","","","","","","","","","","","","","","","","","","","","","","","","","","","","","","","","","","","","","","","","","","","","","","","","","","","","","","","","","","","","","","","","MET090MOBOB0 METAR 7026 //008 000000 230704Z AUTO 00000KT 9999 CLR 28/22 A3002 RMK CDP03661 CLR=","","","","","","","","","",""
"00702699999","2016-06-23T11:39:00","0.0","0.0","7026.0","WXPOD 7026, AF","FM-15","4","30.02","70","82","","","","","66","","","","6.21","","000","","0","","","","","","","","","","","","","","","","","","","","","","","","","","","","","","","","","","","","","","","","","","","","","","","","","","","","","","","","","","","","","","","","","","","","","","","","","","","","","","","","","","","","","","","","","","","MET090MOBOB0 METAR 7026 //008 000000 230709Z AUTO 00000KT 9999 CLR 28/21 A3002 RMK CDP03661 CLR=","","","","","","","","","",""
"00702699999","2016-06-23T11:44:00","0.0","0.0","7026.0","WXPOD 7026, AF","FM-15","4","30.02","72","82","","","","","70","","","","6.21","","000","","0","","","","","","","","","","","","","","","","","","","","","","","","","","","","","","","","","","","","","","","","","","","","","","","","","","","","","","","","","","","","","","","","","","","","","","","","","","","","","","","","","","","","","","","","","","","MET090MOBOB0 METAR 7026 //008 000000 230714Z AUTO 00000KT 9999 CLR 28/22 A3002 RMK CDP03661 CLR=","","","","","","","","","",""
"00702699999","2016-06-23T11:49:00","0.0","0.0","7026.0","WXPOD 7026, AF","FM-15","4","30.01","70","82","","","","","66","","","","6.21","","000","","0","","","","","","","","","","","","","","","","","","","","","","","","","","","","","","","","","","","","","","","","","","","","","","","","","","","","","","","","","","","","","","","","","","","","","","","","","","","","","","","","","","","","","","","","","","","MET090MOBOB0 METAR 7026 //008 000000 230719Z AUTO 00000KT 9999 CLR 28/21 A3001 RMK CDP03661 CLR=","","","","","","","","","",""
"00702699999","2016-06-23T11:54:00","0.0","0.0","7026.0","WXPOD 7026, AF","FM-15","4","30.01","70","82","","","","","66","","","","6.21","","000","","0","","","","","","","","","","","","","","","","","","","","","","","","","","","","","","","","","","","","","","","","","","","","","","","","","","","","","","","","","","","","","","","","","","","","","","","","","","","","","","","","","","","","","","","","","","","MET090MOBOB0 METAR 7026 //008 000000 230724Z AUTO 00000KT 9999 CLR 28/21 A3001 RMK CDP03661 CLR=","","","","","","","","","",""
"00702699999","2016-06-23T11:59:00","0.0","0.0","7026.0","WXPOD 7026, AF","FM-15","4","30.01","70","82","","","","","66","","","","6.21","","000","","0","","","","","","","","","","","","","","","","","","","","","","","","","","","","","","","","","","","","","","","","","","","","","","","","","","","","","","","","","","","","","","","","","","","","","","","","","","","","","","","","","","","","","","","","","","","MET090MOBOB0 METAR 7026 //008 000000 230729Z AUTO 00000KT 9999 CLR 28/21 A3001 RMK CDP03661 CLR=","","","","","","","","","",""
"00702699999","2016-06-23T12:04:00","0.0","0.0","7026.0","WXPOD 7026, AF","FM-15","4","30.01","70","82","","","","","66","","","","6.21","","000","","0","","","","","","","","","","","","","","","","","","","","","","","","","","","","","","","","","","","","","","","","","","","","","","","","","","","","","","","","","","","","","","","","","","","","","","","","","","","","","","","","","","","","","","","","","","","MET090MOBOB0 METAR 7026 //008 000000 230734Z AUTO 00000KT 9999 CLR 28/21 A3001 RMK CDP03661 CLR=","","","","","","","","","",""
"00702699999","2016-06-23T12:09:00","0.0","0.0","7026.0","WXPOD 7026, AF","FM-15","4","30.01","70","82","","","","","66","","","","6.21","","000","","0","","","","","","","","","","","","","","","","","","","","","","","","","","","","","","","","","","","","","","","","","","","","","","","","","","","","","","","","","","","","","","","","","","","","","","","","","","","","","","","","","","","","","","","","","","","MET090MOBOB0 METAR 7026 //008 000000 230739Z AUTO 00000KT 9999 CLR 28/21 A3001 RMK CDP03661 CLR=","","","","","","","","","",""
"00702699999","2016-06-23T12:14:00","0.0","0.0","7026.0","WXPOD 7026, AF","FM-15","4","30.01","70","82","","","","","66","","","","6.21","","000","","0","","","","","","","","","","","","","","","","","","","","","","","","","","","","","","","","","","","","","","","","","","","","","","","","","","","","","","","","","","","","","","","","","","","","","","","","","","","","","","","","","","","","","","","","","","","MET090MOBOB0 METAR 7026 //008 000000 230744Z AUTO 00000KT 9999 CLR 28/21 A3001 RMK CDP03661 CLR=","","","","","","","","","",""
"00702699999","2016-06-23T12:19:00","0.0","0.0","7026.0","WXPOD 7026, AF","FM-15","4","30.01","70","82","","","","","66","","","","6.21","","000","","0","","","","","","","","","","","","","","","","","","","","","","","","","","","","","","","","","","","","","","","","","","","","","","","","","","","","","","","","","","","","","","","","","","","","","","","","","","","","","","","","","","","","","","","","","","","MET090MOBOB0 METAR 7026 //008 000000 230749Z AUTO 00000KT 9999 CLR 28/21 A3001 RMK CDP03661 CLR=","","","","","","","","","",""
"00702699999","2016-06-23T12:24:00","0.0","0.0","7026.0","WXPOD 7026, AF","FM-15","4","30.01","70","81","","","","","70","","","","6.21","","000","","0","","","","","","","","","","","","","","","","","","","","","","","","","","","","","","","","","","","","","","","","","","","","","","","","","","","","","","","","","","","","","","","","","","","","","","","","","","","","","","","","","","","","","","","","","","","MET090MOBOB0 METAR 7026 //008 000000 230754Z AUTO 00000KT 9999 CLR 27/21 A3001 RMK CDP03661 CLR=","","","","","","","","","",""
"00702699999","2016-06-23T12:29:00","0.0","0.0","7026.0","WXPOD 7026, AF","FM-15","4","30.01","70","81","","","","","70","","","","6.21","","000","","0","","","","","","","","","","","","","","","","","","","","","","","","","","","","","","","","","","","","","","","","","","","","","","","","","","","","","","","","","","","","","","","","","","","","","","","","","","","","","","","","","","","","","","","","","","","MET090MOBOB0 METAR 7026 //008 000000 230759Z AUTO 00000KT 9999 CLR 27/21 A3001 RMK CDP03661 CLR=","","","","","","","","","",""
"00702699999","2016-06-23T12:35:00","0.0","0.0","7026.0","WXPOD 7026, AF","FM-15","4","30.01","70","81","","","","","70","","","","6.21","","000","","0","","","","","","","","","","","","","","","","","","","","","","","","","","","","","","","","","","","","","","","","","","","","","","","","","","","","","","","","","","","","","","","","","","","","","","","","","","","","","","","","","","","","","","","","","","","MET090MOBOB0 METAR 7026 //008 000000 230805Z AUTO 00000KT 9999 CLR 27/21 A3001 RMK CDP03661 CLR=","","","","","","","","","",""
"00702699999","2016-06-23T12:39:00","0.0","0.0","7026.0","WXPOD 7026, AF","FM-15","4","30.01","70","81","","","","","70","","","","6.21","","000","","0","","","","","","","","","","","","","","","","","","","","","","","","","","","","","","","","","","","","","","","","","","","","","","","","","","","","","","","","","","","","","","","","","","","","","","","","","","","","","","","","","","","","","","","","","","","MET090MOBOB0 METAR 7026 //008 000000 230809Z AUTO 00000KT 9999 CLR 27/21 A3001 RMK CDP03661 CLR=","","","","","","","","","",""
"00702699999","2016-06-23T12:44:00","0.0","0.0","7026.0","WXPOD 7026, AF","FM-15","4","30.01","70","81","","","","","70","","","","6.21","","000","","0","","","","","","","","","","","","","","","","","","","","","","","","","","","","","","","","","","","","","","","","","","","","","","","","","","","","","","","","","","","","","","","","","","","","","","","","","","","","","","","","","","","","","","","","","","","MET090MOBOB0 METAR 7026 //008 000000 230814Z AUTO 00000KT 9999 CLR 27/21 A3001 RMK CDP03661 CLR=","","","","","","","","","",""
"00702699999","2016-06-23T12:49:00","0.0","0.0","7026.0","WXPOD 7026, AF","FM-15","4","30.01","70","81","","","","","70","","","","6.21","","000","","0","","","","","","","","","","","","","","","","","","","","","","","","","","","","","","","","","","","","","","","","","","","","","","","","","","","","","","","","","","","","","","","","","","","","","","","","","","","","","","","","","","","","","","","","","","","MET090MOBOB0 METAR 7026 //008 000000 230819Z AUTO 00000KT 9999 CLR 27/21 A3001 RMK CDP03661 CLR=","","","","","","","","","",""
"00702699999","2016-06-23T12:54:00","0.0","0.0","7026.0","WXPOD 7026, AF","FM-15","4","30.01","70","81","","","","","70","","","","6.21","","000","","0","","","","","","","","","","","","","","","","","","","","","","","","","","","","","","","","","","","","","","","","","","","","","","","","","","","","","","","","","","","","","","","","","","","","","","","","","","","","","","","","","","","","","","","","","","","MET090MOBOB0 METAR 7026 //008 000000 230824Z AUTO 00000KT 9999 CLR 27/21 A3001 RMK CDP03661 CLR=","","","","","","","","","",""
"00702699999","2016-06-23T12:59:00","0.0","0.0","7026.0","WXPOD 7026, AF","FM-15","4","30.01","70","81","","","","","70","","","","6.21","","000","","0","","","","","","","","","","","","","","","","","","","","","","","","","","","","","","","","","","","","","","","","","","","","","","","","","","","","","","","","","","","","","","","","","","","","","","","","","","","","","","","","","","","","","","","","","","","MET090MOBOB0 METAR 7026 //008 000000 230829Z AUTO 00000KT 9999 CLR 27/21 A3001 RMK CDP03661 CLR=","","","","","","","","","",""
"00702699999","2016-06-23T13:04:00","0.0","0.0","7026.0","WXPOD 7026, AF","FM-15","4","30.01","70","81","","","","","70","","","","6.21","","000","","0","","","","","","","","","","","","","","","","","","","","","","","","","","","","","","","","","","","","","","","","","","","","","","","","","","","","","","","","","","","","","","","","","","","","","","","","","","","","","","","","","","","","","","","","","","","MET090MOBOB0 METAR 7026 //008 000000 230834Z AUTO 00000KT 9999 CLR 27/21 A3001 RMK CDP03661 CLR=","","","","","","","","","",""
"00702699999","2016-06-23T13:09:00","0.0","0.0","7026.0","WXPOD 7026, AF","FM-15","4","30.02","70","81","","","","","70","","","","6.21","","000","","0","","","","","","","","","","","","","","","","","","","","","","","","","","","","","","","","","","","","","","","","","","","","","","","","","","","","","","","","","","","","","","","","","","","","","","","","","","","","","","","","","","","","","","","","","","","MET090MOBOB0 METAR 7026 //008 000000 230839Z AUTO 00000KT 9999 CLR 27/21 A3002 RMK CDP03661 CLR=","","","","","","","","","",""
"00702699999","2016-06-23T13:14:00","0.0","0.0","7026.0","WXPOD 7026, AF","FM-15","4","30.02","70","81","","","","","70","","","","6.21","","000","","0","","","","","","","","","","","","","","","","","","","","","","","","","","","","","","","","","","","","","","","","","","","","","","","","","","","","","","","","","","","","","","","","","","","","","","","","","","","","","","","","","","","","","","","","","","","MET090MOBOB0 METAR 7026 //008 000000 230844Z AUTO 00000KT 9999 CLR 27/21 A3002 RMK CDP03661 CLR=","","","","","","","","","",""
"00702699999","2016-06-23T13:19:00","0.0","0.0","7026.0","WXPOD 7026, AF","FM-15","4","30.02","70","81","","","","","70","","","","6.21","","000","","0","","","","","","","","","","","","","","","","","","","","","","","","","","","","","","","","","","","","","","","","","","","","","","","","","","","","","","","","","","","","","","","","","","","","","","","","","","","","","","","","","","","","","","","","","","","MET090MOBOB0 METAR 7026 //008 000000 230849Z AUTO 00000KT 9999 CLR 27/21 A3002 RMK CDP03661 CLR=","","","","","","","","","",""
"00702699999","2016-06-23T13:24:00","0.0","0.0","7026.0","WXPOD 7026, AF","FM-15","4","30.02","70","81","","","","","70","","","","6.21","","000","","0","","","","","","","","","","","","","","","","","","","","","","","","","","","","","","","","","","","","","","","","","","","","","","","","","","","","","","","","","","","","","","","","","","","","","","","","","","","","","","","","","","","","","","","","","","","MET090MOBOB0 METAR 7026 //008 000000 230854Z AUTO 00000KT 9999 CLR 27/21 A3002 RMK CDP03661 CLR=","","","","","","","","","",""
"00702699999","2016-06-23T13:29:00","0.0","0.0","7026.0","WXPOD 7026, AF","FM-15","4","30.02","70","81","","","","","70","","","","6.21","","000","","0","","","","","","","","","","","","","","","","","","","","","","","","","","","","","","","","","","","","","","","","","","","","","","","","","","","","","","","","","","","","","","","","","","","","","","","","","","","","","","","","","","","","","","","","","","","MET090MOBOB0 METAR 7026 //008 000000 230859Z AUTO 00000KT 9999 CLR 27/21 A3002 RMK CDP03661 CLR=","","","","","","","","","",""
"00702699999","2016-06-23T13:34:00","0.0","0.0","7026.0","WXPOD 7026, AF","FM-15","4","30.01","70","81","","","","","70","","","","6.21","","000","","0","","","","","","","","","","","","","","","","","","","","","","","","","","","","","","","","","","","","","","","","","","","","","","","","","","","","","","","","","","","","","","","","","","","","","","","","","","","","","","","","","","","","","","","","","","","MET090MOBOB0 METAR 7026 //008 000000 230904Z AUTO 00000KT 9999 CLR 27/21 A3001 RMK CDP03661 CLR=","","","","","","","","","",""
"00702699999","2016-06-23T13:40:00","0.0","0.0","7026.0","WXPOD 7026, AF","FM-15","4","30.02","70","81","","","","","70","","","","6.21","","000","","0","","","","","","","","","","","","","","","","","","","","","","","","","","","","","","","","","","","","","","","","","","","","","","","","","","","","","","","","","","","","","","","","","","","","","","","","","","","","","","","","","","","","","","","","","","","MET090MOBOB0 METAR 7026 //008 000000 230910Z AUTO 00000KT 9999 CLR 27/21 A3002 RMK CDP03661 CLR=","","","","","","","","","",""
"00702699999","2016-06-23T13:49:00","0.0","0.0","7026.0","WXPOD 7026, AF","FM-15","4","30.02","70","81","","","","","70","FEW:02 66","","","6.21","","000","","0","","","","","","","","","","","","","","","","","","","","","","","","","","","","","","","","","","","","","","","","","","","","","","","","","","","","","","","","","","","","","","","","","","","","","","","","","","","","","","","","","","","","","","","","","","","MET108MOBOB0 METAR 7026 //008 000000 230919Z AUTO 00000KT 9999 FEW066 27/21 A3002 RMK CDP03661 FEW066 CLD AVG 067=","","","","","","","","","",""
"00702699999","2016-06-23T13:54:00","0.0","0.0","7026.0","WXPOD 7026, AF","FM-15","4","30.02","70","81","","","","","70","FEW:02 66","","","6.21","","000","","0","","","","","","","","","","","","","","","","","","","","","","","","","","","","","","","","","","","","","","","","","","","","","","","","","","","","","","","","","","","","","","","","","","","","","","","","","","","","","","","","","","","","","","","","","","","MET108MOBOB0 METAR 7026 //008 000000 230924Z AUTO 00000KT 9999 FEW066 27/21 A3002 RMK CDP03661 FEW066 CLD AVG 067=","","","","","","","","","",""
"00702699999","2016-06-23T13:59:00","0.0","0.0","7026.0","WXPOD 7026, AF","FM-15","4","30.02","70","81","","","","","70","","","","6.21","","000","","0","","","","","","","","","","","","","","","","","","","","","","","","","","","","","","","","","","","","","","","","","","","","","","","","","","","","","","","","","","","","","","","","","","","","","","","","","","","","","","","","","","","","","","","","","","","MET090MOBOB0 METAR 7026 //008 000000 230929Z AUTO 00000KT 9999 CLR 27/21 A3002 RMK CDP03661 CLR=","","","","","","","","","",""
"00702699999","2016-06-23T14:04:00","0.0","0.0","7026.0","WXPOD 7026, AF","FM-15","4","30.02","70","81","","","","","70","","","","6.21","","000","","0","","","","","","","","","","","","","","","","","","","","","","","","","","","","","","","","","","","","","","","","","","","","","","","","","","","","","","","","","","","","","","","","","","","","","","","","","","","","","","","","","","","","","","","","","","","MET090MOBOB0 METAR 7026 //008 000000 230934Z AUTO 00000KT 9999 CLR 27/21 A3002 RMK CDP03661 CLR=","","","","","","","","","",""
"00702699999","2016-06-23T14:09:00","0.0","0.0","7026.0","WXPOD 7026, AF","FM-15","4","30.02","70","81","","","","","70","","","","6.21","","000","","0","","","","","","","","","","","","","","","","","","","","","","","","","","","","","","","","","","","","","","","","","","","","","","","","","","","","","","","","","","","","","","","","","","","","","","","","","","","","","","","","","","","","","","","","","","","MET090MOBOB0 METAR 7026 //008 000000 230939Z AUTO 00000KT 9999 CLR 27/21 A3002 RMK CDP03661 CLR=","","","","","","","","","",""
"00702699999","2016-06-23T14:14:00","0.0","0.0","7026.0","WXPOD 7026, AF","FM-15","4","30.02","70","81","","","","","70","","","","6.21","","000","","0","","","","","","","","","","","","","","","","","","","","","","","","","","","","","","","","","","","","","","","","","","","","","","","","","","","","","","","","","","","","","","","","","","","","","","","","","","","","","","","","","","","","","","","","","","","MET090MOBOB0 METAR 7026 //008 000000 230944Z AUTO 00000KT 9999 CLR 27/21 A3002 RMK CDP03661 CLR=","","","","","","","","","",""
"00702699999","2016-06-23T14:19:00","0.0","0.0","7026.0","WXPOD 7026, AF","FM-15","4","30.02","70","81","","","","","70","","","","6.21","","000","","0","","","","","","","","","","","","","","","","","","","","","","","","","","","","","","","","","","","","","","","","","","","","","","","","","","","","","","","","","","","","","","","","","","","","","","","","","","","","","","","","","","","","","","","","","","","MET090MOBOB0 METAR 7026 //008 000000 230949Z AUTO 00000KT 9999 CLR 27/21 A3002 RMK CDP03661 CLR=","","","","","","","","","",""
"00702699999","2016-06-23T14:24:00","0.0","0.0","7026.0","WXPOD 7026, AF","FM-15","4","30.02","70","81","","","","","70","","","","6.21","","000","","0","","","","","","","","","","","","","","","","","","","","","","","","","","","","","","","","","","","","","","","","","","","","","","","","","","","","","","","","","","","","","","","","","","","","","","","","","","","","","","","","","","","","","","","","","","","MET090MOBOB0 METAR 7026 //008 000000 230954Z AUTO 00000KT 9999 CLR 27/21 A3002 RMK CDP03661 CLR=","","","","","","","","","",""
"00702699999","2016-06-23T14:29:00","0.0","0.0","7026.0","WXPOD 7026, AF","FM-15","4","30.02","70","81","","","","","70","","","","6.21","","000","","0","","","","","","","","","","","","","","","","","","","","","","","","","","","","","","","","","","","","","","","","","","","","","","","","","","","","","","","","","","","","","","","","","","","","","","","","","","","","","","","","","","","","","","","","","","","MET090MOBOB0 METAR 7026 //008 000000 230959Z AUTO 00000KT 9999 CLR 27/21 A3002 RMK CDP03661 CLR=","","","","","","","","","",""
"00702699999","2016-06-23T14:34:00","0.0","0.0","7026.0","WXPOD 7026, AF","FM-15","4","30.02","68","81","","","","","66","FEW:02 114","","","6.21","","000","","0","","","","","","","","","","","","","","","","","","","","","","","","","","","","","","","","","","","","","","","","","","","","","","","","","","","","","","","","","","","","","","","","","","","","","","","","","","","","","","","","","","","","","","","","","","","MET108MOBOB0 METAR 7026 //008 000000 231004Z AUTO 00000KT 9999 FEW114 27/20 A3002 RMK CDP03661 FEW114 CLD AVG 114=","","","","","","","","","",""
"00702699999","2016-06-23T14:39:00","0.0","0.0","7026.0","WXPOD 7026, AF","FM-15","4","30.02","68","81","","","","","66","","","","6.21","","000","","0","","","","","","","","","","","","","","","","","","","","","","","","","","","","","","","","","","","","","","","","","","","","","","","","","","","","","","","","","","","","","","","","","","","","","","","","","","","","","","","","","","","","","","","","","","","MET090MOBOB0 METAR 7026 //008 000000 231009Z AUTO 00000KT 9999 CLR 27/20 A3002 RMK CDP03661 CLR=","","","","","","","","","",""
"00702699999","2016-06-23T14:44:00","0.0","0.0","7026.0","WXPOD 7026, AF","FM-15","4","30.02","68","81","","","","","66","","","","6.21","","000","","0","","","","","","","","","","","","","","","","","","","","","","","","","","","","","","","","","","","","","","","","","","","","","","","","","","","","","","","","","","","","","","","","","","","","","","","","","","","","","","","","","","","","","","","","","","","MET090MOBOB0 METAR 7026 //008 000000 231014Z AUTO 00000KT 9999 CLR 27/20 A3002 RMK CDP03661 CLR=","","","","","","","","","",""
"00702699999","2016-06-23T14:49:00","0.0","0.0","7026.0","WXPOD 7026, AF","FM-15","4","30.02","68","81","","","","","66","","","","6.21","","000","","0","","","","","","","","","","","","","","","","","","","","","","","","","","","","","","","","","","","","","","","","","","","","","","","","","","","","","","","","","","","","","","","","","","","","","","","","","","","","","","","","","","","","","","","","","","","MET090MOBOB0 METAR 7026 //008 000000 231019Z AUTO 00000KT 9999 CLR 27/20 A3002 RMK CDP03661 CLR=","","","","","","","","","",""
"00702699999","2016-06-23T14:54:00","0.0","0.0","7026.0","WXPOD 7026, AF","FM-15","4","30.02","68","81","","","","","66","","","","6.21","","000","","0","","","","","","","","","","","","","","","","","","","","","","","","","","","","","","","","","","","","","","","","","","","","","","","","","","","","","","","","","","","","","","","","","","","","","","","","","","","","","","","","","","","","","","","","","","","MET090MOBOB0 METAR 7026 //008 000000 231024Z AUTO 00000KT 9999 CLR 27/20 A3002 RMK CDP03661 CLR=","","","","","","","","","",""
"00702699999","2016-06-23T14:59:00","0.0","0.0","7026.0","WXPOD 7026, AF","FM-15","4","30.02","68","81","","","","","66","FEW:02 86","","","6.21","","000","","0","","","","","","","","","","","","","","","","","","","","","","","","","","","","","","","","","","","","","","","","","","","","","","","","","","","","","","","","","","","","","","","","","","","","","","","","","","","","","","","","","","","","","","","","","","","MET108MOBOB0 METAR 7026 //008 000000 231029Z AUTO 00000KT 9999 FEW086 27/20 A3002 RMK CDP03661 FEW086 CLD AVG 086=","","","","","","","","","",""
"00702699999","2016-06-23T15:04:00","0.0","0.0","7026.0","WXPOD 7026, AF","FM-15","4","30.02","68","81","","","","","66","","","","6.21","","000","","0","","","","","","","","","","","","","","","","","","","","","","","","","","","","","","","","","","","","","","","","","","","","","","","","","","","","","","","","","","","","","","","","","","","","","","","","","","","","","","","","","","","","","","","","","","","MET090MOBOB0 METAR 7026 //008 000000 231034Z AUTO 00000KT 9999 CLR 27/20 A3002 RMK CDP03661 CLR=","","","","","","","","","",""
"00702699999","2016-06-23T15:09:00","0.0","0.0","7026.0","WXPOD 7026, AF","FM-15","4","30.02","68","81","","","","","66","","","","6.21","","000","","0","","","","","","","","","","","","","","","","","","","","","","","","","","","","","","","","","","","","","","","","","","","","","","","","","","","","","","","","","","","","","","","","","","","","","","","","","","","","","","","","","","","","","","","","","","","MET090MOBOB0 METAR 7026 //008 000000 231039Z AUTO 00000KT 9999 CLR 27/20 A3002 RMK CDP03661 CLR=","","","","","","","","","",""
"00702699999","2016-06-23T15:14:00","0.0","0.0","7026.0","WXPOD 7026, AF","FM-15","4","30.02","68","79","","","","","70","","","","6.21","","000","","0","","","","","","","","","","","","","","","","","","","","","","","","","","","","","","","","","","","","","","","","","","","","","","","","","","","","","","","","","","","","","","","","","","","","","","","","","","","","","","","","","","","","","","","","","","","MET090MOBOB0 METAR 7026 //008 000000 231044Z AUTO 00000KT 9999 CLR 26/20 A3002 RMK CDP03661 CLR=","","","","","","","","","",""
"00702699999","2016-06-23T15:19:00","0.0","0.0","7026.0","WXPOD 7026, AF","FM-15","4","30.02","70","81","","","","","70","","","","6.21","","000","","0","","","","","","","","","","","","","","","","","","","","","","","","","","","","","","","","","","","","","","","","","","","","","","","","","","","","","","","","","","","","","","","","","","","","","","","","","","","","","","","","","","","","","","","","","","","MET090MOBOB0 METAR 7026 //008 000000 231049Z AUTO 00000KT 9999 CLR 27/21 A3002 RMK CDP03661 CLR=","","","","","","","","","",""
"00702699999","2016-06-23T15:24:00","0.0","0.0","7026.0","WXPOD 7026, AF","FM-15","4","30.02","68","79","","","","","70","","","","6.21","","000","","0","","","","","","","","","","","","","","","","","","","","","","","","","","","","","","","","","","","","","","","","","","","","","","","","","","","","","","","","","","","","","","","","","","","","","","","","","","","","","","","","","","","","","","","","","","","MET090MOBOB0 METAR 7026 //008 000000 231054Z AUTO 00000KT 9999 CLR 26/20 A3002 RMK CDP03661 CLR=","","","","","","","","","",""
"00702699999","2016-06-23T15:29:00","0.0","0.0","7026.0","WXPOD 7026, AF","FM-15","4","30.02","70","79","","","","","74","","","","6.21","","000","","0","","","","","","","","","","","","","","","","","","","","","","","","","","","","","","","","","","","","","","","","","","","","","","","","","","","","","","","","","","","","","","","","","","","","","","","","","","","","","","","","","","","","","","","","","","","MET090MOBOB0 METAR 7026 //008 000000 231059Z AUTO 00000KT 9999 CLR 26/21 A3002 RMK CDP03661 CLR=","","","","","","","","","",""
"00702699999","2016-06-23T15:34:00","0.0","0.0","7026.0","WXPOD 7026, AF","FM-15","4","30.02","68","79","","","","","70","","","","6.21","","000","","0","","","","","","","","","","","","","","","","","","","","","","","","","","","","","","","","","","","","","","","","","","","","","","","","","","","","","","","","","","","","","","","","","","","","","","","","","","","","","","","","","","","","","","","","","","","MET090MOBOB0 METAR 7026 //008 000000 231104Z AUTO 00000KT 9999 CLR 26/20 A3002 RMK CDP03661 CLR=","","","","","","","","","",""
"00702699999","2016-06-23T15:39:00","0.0","0.0","7026.0","WXPOD 7026, AF","FM-15","4","30.02","68","81","","","","","66","","","","6.21","","000","","0","","","","","","","","","","","","","","","","","","","","","","","","","","","","","","","","","","","","","","","","","","","","","","","","","","","","","","","","","","","","","","","","","","","","","","","","","","","","","","","","","","","","","","","","","","","MET090MOBOB0 METAR 7026 //008 000000 231109Z AUTO 00000KT 9999 CLR 27/20 A3002 RMK CDP03661 CLR=","","","","","","","","","",""
"00702699999","2016-06-23T15:44:00","0.0","0.0","7026.0","WXPOD 7026, AF","FM-15","4","30.02","68","81","","","","","66","","","","6.21","","000","","0","","","","","","","","","","","","","","","","","","","","","","","","","","","","","","","","","","","","","","","","","","","","","","","","","","","","","","","","","","","","","","","","","","","","","","","","","","","","","","","","","","","","","","","","","","","MET090MOBOB0 METAR 7026 //008 000000 231114Z AUTO 00000KT 9999 CLR 27/20 A3002 RMK CDP03661 CLR=","","","","","","","","","",""
"00702699999","2016-06-23T15:49:00","0.0","0.0","7026.0","WXPOD 7026, AF","FM-15","4","30.02","70","81","","","","","70","","","","6.21","","000","","0","","","","","","","","","","","","","","","","","","","","","","","","","","","","","","","","","","","","","","","","","","","","","","","","","","","","","","","","","","","","","","","","","","","","","","","","","","","","","","","","","","","","","","","","","","","MET090MOBOB0 METAR 7026 //008 000000 231119Z AUTO 00000KT 9999 CLR 27/21 A3002 RMK CDP03661 CLR=","","","","","","","","","",""
"00702699999","2016-06-23T15:54:00","0.0","0.0","7026.0","WXPOD 7026, AF","FM-15","4","30.02","68","81","","","","","66","","","","6.21","","000","","0","","","","","","","","","","","","","","","","","","","","","","","","","","","","","","","","","","","","","","","","","","","","","","","","","","","","","","","","","","","","","","","","","","","","","","","","","","","","","","","","","","","","","","","","","","","MET090MOBOB0 METAR 7026 //008 000000 231124Z AUTO 00000KT 9999 CLR 27/20 A3002 RMK CDP03661 CLR=","","","","","","","","","",""
"00702699999","2016-06-23T15:59:00","0.0","0.0","7026.0","WXPOD 7026, AF","FM-15","4","30.02","68","81","","","","","66","","","","6.21","","000","","0","","","","","","","","","","","","","","","","","","","","","","","","","","","","","","","","","","","","","","","","","","","","","","","","","","","","","","","","","","","","","","","","","","","","","","","","","","","","","","","","","","","","","","","","","","","MET090MOBOB0 METAR 7026 //008 000000 231129Z AUTO 00000KT 9999 CLR 27/20 A3002 RMK CDP03661 CLR=","","","","","","","","","",""
"00702699999","2016-06-23T16:04:00","0.0","0.0","7026.0","WXPOD 7026, AF","FM-15","4","30.02","68","81","","","","","66","","","","6.21","","000","","0","","","","","","","","","","","","","","","","","","","","","","","","","","","","","","","","","","","","","","","","","","","","","","","","","","","","","","","","","","","","","","","","","","","","","","","","","","","","","","","","","","","","","","","","","","","MET090MOBOB0 METAR 7026 //008 000000 231134Z AUTO 00000KT 9999 CLR 27/20 A3002 RMK CDP03661 CLR=","","","","","","","","","",""
"00702699999","2016-06-23T16:09:00","0.0","0.0","7026.0","WXPOD 7026, AF","FM-15","4","30.02","68","81","","","","","66","","","","6.21","","000","","0","","","","","","","","","","","","","","","","","","","","","","","","","","","","","","","","","","","","","","","","","","","","","","","","","","","","","","","","","","","","","","","","","","","","","","","","","","","","","","","","","","","","","","","","","","","MET090MOBOB0 METAR 7026 //008 000000 231139Z AUTO 00000KT 9999 CLR 27/20 A3002 RMK CDP03661 CLR=","","","","","","","","","",""
"00702699999","2016-06-23T16:14:00","0.0","0.0","7026.0","WXPOD 7026, AF","FM-15","4","30.02","68","81","","","","","66","","","","6.21","","000","","0","","","","","","","","","","","","","","","","","","","","","","","","","","","","","","","","","","","","","","","","","","","","","","","","","","","","","","","","","","","","","","","","","","","","","","","","","","","","","","","","","","","","","","","","","","","MET090MOBOB0 METAR 7026 //008 000000 231144Z AUTO 00000KT 9999 CLR 27/20 A3002 RMK CDP03661 CLR=","","","","","","","","","",""
"00702699999","2016-06-23T16:19:00","0.0","0.0","7026.0","WXPOD 7026, AF","FM-15","4","30.02","68","81","","","","","66","","","","6.21","","000","","0","","","","","","","","","","","","","","","","","","","","","","","","","","","","","","","","","","","","","","","","","","","","","","","","","","","","","","","","","","","","","","","","","","","","","","","","","","","","","","","","","","","","","","","","","","","MET090MOBOB0 METAR 7026 //008 000000 231149Z AUTO 00000KT 9999 CLR 27/20 A3002 RMK CDP03661 CLR=","","","","","","","","","",""
"00702699999","2016-06-23T16:24:00","0.0","0.0","7026.0","WXPOD 7026, AF","FM-15","4","30.02","68","81","","","","","66","","","","6.21","","000","","0","","","","","","","","","","","","","","","","","","","","","","","","","","","","","","","","","","","","","","","","","","","","","","","","","","","","","","","","","","","","","","","","","","","","","","","","","","","","","","","","","","","","","","","","","","","MET090MOBOB0 METAR 7026 //008 000000 231154Z AUTO 00000KT 9999 CLR 27/20 A3002 RMK CDP03661 CLR=","","","","","","","","","",""
"00702699999","2016-06-23T16:29:00","0.0","0.0","7026.0","WXPOD 7026, AF","FM-15","4","30.02","68","81","","","","","66","FEW:02 68","","","6.21","","000","","0","","","","","","","","","","","","","","","","","","","","","","","","","","","","","","","","","","","","","","","","","","","","","","","","","","","","","","","","","","","","","","","","","","","","","","","","","","","","","","","","","","","","","","","","","","","MET108MOBOB0 METAR 7026 //008 000000 231159Z AUTO 00000KT 9999 FEW068 27/20 A3002 RMK CDP03661 FEW068 CLD AVG 068=","","","","","","","","","",""
"00702699999","2016-06-23T16:34:00","0.0","0.0","7026.0","WXPOD 7026, AF","FM-15","4","30.02","68","82","","","","","62","","","","6.21","","000","","0","","","","","","","","","","","","","","","","","","","","","","","","","","","","","","","","","","","","","","","","","","","","","","","","","","","","","","","","","","","","","","","","","","","","","","","","","","","","","","","","","","","","","","","","","","","MET090MOBOB0 METAR 7026 //008 000000 231204Z AUTO 00000KT 9999 CLR 28/20 A3002 RMK CDP03661 CLR=","","","","","","","","","",""
"00702699999","2016-06-23T16:44:00","0.0","0.0","7026.0","WXPOD 7026, AF","FM-15","4","30.02","68","82","","","","","62","","","","6.21","","000","","0","","","","","","","","","","","","","","","","","","","","","","","","","","","","","","","","","","","","","","","","","","","","","","","","","","","","","","","","","","","","","","","","","","","","","","","","","","","","","","","","","","","","","","","","","","","MET090MOBOB0 METAR 7026 //008 000000 231214Z AUTO 00000KT 9999 CLR 28/20 A3002 RMK CDP03661 CLR=","","","","","","","","","",""
"00702699999","2016-06-23T16:59:00","0.0","0.0","7026.0","WXPOD 7026, AF","FM-15","4","30.03","68","82","","","","","62","","","","6.21","","000","","0","","","","","","","","","","","","","","","","","","","","","","","","","","","","","","","","","","","","","","","","","","","","","","","","","","","","","","","","","","","","","","","","","","","","","","","","","","","","","","","","","","","","","","","","","","","MET090MOBOB0 METAR 7026 //008 000000 231229Z AUTO 00000KT 9999 CLR 28/20 A3003 RMK CDP03661 CLR=","","","","","","","","","",""
"00702699999","2016-06-23T17:14:00","0.0","0.0","7026.0","WXPOD 7026, AF","FM-15","4","30.04","68","82","","","","","62","","","","6.21","","000","","0","","","","","","","","","","","","","","","","","","","","","","","","","","","","","","","","","","","","","","","","","","","","","","","","","","","","","","","","","","","","","","","","","","","","","","","","","","","","","","","","","","","","","","","","","","","MET090MOBOB0 METAR 7026 //008 000000 231244Z AUTO 00000KT 9999 CLR 28/20 A3004 RMK CDP03661 CLR=","","","","","","","","","",""
"00702699999","2016-06-23T17:29:00","0.0","0.0","7026.0","WXPOD 7026, AF","FM-15","4","30.05","68","84","","","","","58","","","","6.21","","000","","0","","","","","","","","","","","","","","","","","","","","","","","","","","","","","","","","","","","","","","","","","","","","","","","","","","","","","","","","","","","","","","","","","","","","","","","","","","","","","","","","","","","","","","","","","","","MET090MOBOB0 METAR 7026 //008 000000 231259Z AUTO 00000KT 9999 CLR 29/20 A3005 RMK CDP03661 CLR=","","","","","","","","","",""
"00702699999","2016-06-23T17:44:00","0.0","0.0","7026.0","WXPOD 7026, AF","FM-15","4","30.06","68","86","","","","","55","","","","6.21","","000","","0","","","","","","","","","","","","","","","","","","","","","","","","","","","","","","","","","","","","","","","","","","","","","","","","","","","","","","","","","","","","","","","","","","","","","","","","","","","","","","","","","","","","","","","","","","","MET090MOBOB0 METAR 7026 //008 000000 231314Z AUTO 00000KT 9999 CLR 30/20 A3006 RMK CDP03661 CLR=","","","","","","","","","",""
"00702699999","2016-06-23T17:59:00","0.0","0.0","7026.0","WXPOD 7026, AF","FM-15","4","30.06","68","86","","","","","55","","","","6.21","","000","","0","","","","","","","","","","","","","","","","","","","","","","","","","","","","","","","","","","","","","","","","","","","","","","","","","","","","","","","","","","","","","","","","","","","","","","","","","","","","","","","","","","","","","","","","","","","MET090MOBOB0 METAR 7026 //008 000000 231329Z AUTO 00000KT 9999 CLR 30/20 A3006 RMK CDP03661 CLR=","","","","","","","","","",""
"00702699999","2016-06-23T18:14:00","0.0","0.0","7026.0","WXPOD 7026, AF","FM-15","4","30.06","68","88","","","","","52","","","","6.21","","000","","0","","","","","","","","","","","","","","","","","","","","","","","","","","","","","","","","","","","","","","","","","","","","","","","","","","","","","","","","","","","","","","","","","","","","","","","","","","","","","","","","","","","","","","","","","","","MET090MOBOB0 METAR 7026 //008 000000 231344Z AUTO 00000KT 9999 CLR 31/20 A3006 RMK CDP03661 CLR=","","","","","","","","","",""
"00702699999","2016-06-23T18:29:00","0.0","0.0","7026.0","WXPOD 7026, AF","FM-15","4","30.06","70","88","","","","","55","","","","6.21","","000","","0","","","","","","","","","","","","","","","","","","","","","","","","","","","","","","","","","","","","","","","","","","","","","","","","","","","","","","","","","","","","","","","","","","","","","","","","","","","","","","","","","","","","","","","","","","","MET090MOBOB0 METAR 7026 //008 000000 231359Z AUTO 00000KT 9999 CLR 31/21 A3006 RMK CDP03661 CLR=","","","","","","","","","",""
"00702699999","2016-06-23T18:44:00","0.0","0.0","7026.0","WXPOD 7026, AF","FM-15","4","30.06","68","88","","","","","52","","","","","","000","","0","","","","","","","","","","","","","","","","","","","","","","","","","","","","","","","","","","","","","","","","","","","","","","","","","","","","","","","","","","","","","","","","","","","","","","","","","","","","","","","","","","","","","","","","","","","MET090MOBOB0 METAR 7026 //008 000000 231414Z AUTO 00000KT //// CLR 31/20 A3006 RMK CDP03661 CLR=","","","","","","","","","",""
"00702699999","2016-06-23T18:59:00","0.0","0.0","7026.0","WXPOD 7026, AF","FM-15","4","30.07","68","90","","","","","49","","","","6.21","","000","","0","","","","","","","","","","","","","","","","","","","","","","","","","","","","","","","","","","","","","","","","","","","","","","","","","","","","","","","","","","","","","","","","","","","","","","","","","","","","","","","","","","","","","","","","","","","MET090MOBOB0 METAR 7026 //008 000000 231429Z AUTO 00000KT 9999 CLR 32/20 A3007 RMK CDP03661 CLR=","","","","","","","","","",""
"00702699999","2016-06-23T19:14:00","0.0","0.0","7026.0","WXPOD 7026, AF","FM-15","4","30.07","70","91","","","","","49","","","","6.21","","000","","0","","","","","","","","","","","","","","","","","","","","","","","","","","","","","","","","","","","","","","","","","","","","","","","","","","","","","","","","","","","","","","","","","","","","","","","","","","","","","","","","","","","","","","","","","","","MET090MOBOB0 METAR 7026 //008 000000 231444Z AUTO 00000KT 9999 CLR 33/21 A3007 RMK CDP03661 CLR=","","","","","","","","","",""
"00702699999","2016-06-23T19:29:00","0.0","0.0","7026.0","WXPOD 7026, AF","FM-15","4","30.07","70","93","","","","","47","","","","6.21","","000","","0","","","","","","","","","","","","","","","","","","","","","","","","","","","","","","","","","","","","","","","","","","","","","","","","","","","","","","","","","","","","","","","","","","","","","","","","","","","","","","","","","","","","","","","","","","","MET090MOBOB0 METAR 7026 //008 000000 231459Z AUTO 00000KT 9999 CLR 34/21 A3007 RMK CDP03661 CLR=","","","","","","","","","",""
"00702699999","2016-06-23T19:44:00","0.0","0.0","7026.0","WXPOD 7026, AF","FM-15","4","30.06","68","93","","","","","44","","","","","","000","","0","","","","","","","","","","","","","","","","","","","","","","","","","","","","","","","","","","","","","","","","","","","","","","","","","","","","","","","","","","","","","","","","","","","","","","","","","","","","","","","","","","","","","","","","","","","MET090MOBOB0 METAR 7026 //008 000000 231514Z AUTO 00000KT //// CLR 34/20 A3006 RMK CDP03661 CLR=","","","","","","","","","",""
"00702699999","2016-06-23T19:59:00","0.0","0.0","7026.0","WXPOD 7026, AF","FM-15","4","30.05","70","95","","","","","44","","","","6.21","","000","","0","","","","","","","","","","","","","","","","","","","","","","","","","","","","","","","","","","","","","","","","","","","","","","","","","","","","","","","","","","","","","","","","","","","","","","","","","","","","","","","","","","","","","","","","","","","MET090MOBOB0 METAR 7026 //008 000000 231529Z AUTO 00000KT 9999 CLR 35/21 A3005 RMK CDP03661 CLR=","","","","","","","","","",""
"00702699999","2016-06-23T20:14:00","0.0","0.0","7026.0","WXPOD 7026, AF","FM-15","4","30.04","70","93","","","","","47","","","","6.21","","000","","0","","","","","","","","","","","","","","","","","","","","","","","","","","","","","","","","","","","","","","","","","","","","","","","","","","","","","","","","","","","","","","","","","","","","","","","","","","","","","","","","","","","","","","","","","","","MET090MOBOB0 METAR 7026 //008 000000 231544Z AUTO 00000KT 9999 CLR 34/21 A3004 RMK CDP03661 CLR=","","","","","","","","","",""
"00702699999","2016-06-23T20:29:00","0.0","0.0","7026.0","WXPOD 7026, AF","FM-15","4","30.02","70","93","","","","","47","","","","","","000","","0","","","","","","","","","","","","","","","","","","","","","","","","","","","","","","","","","","","","","","","","","","","","","","","","","","","","","","","","","","","","","","","","","","","","","","","","","","","","","","","","","","","","","","","","","","","MET090MOBOB0 METAR 7026 //008 000000 231559Z AUTO 00000KT //// CLR 34/21 A3002 RMK CDP03661 CLR=","","","","","","","","","",""
"00702699999","2016-06-23T20:44:00","0.0","0.0","7026.0","WXPOD 7026, AF","FM-15","4","30.01","70","95","","","","","44","","","","6.21","","000","","0","","","","","","","","","","","","","","","","","","","","","","","","","","","","","","","","","","","","","","","","","","","","","","","","","","","","","","","","","","","","","","","","","","","","","","","","","","","","","","","","","","","","","","","","","","","MET090MOBOB0 METAR 7026 //008 000000 231614Z AUTO 00000KT 9999 CLR 35/21 A3001 RMK CDP03661 CLR=","","","","","","","","","",""
"00702699999","2016-06-23T20:59:00","0.0","0.0","7026.0","WXPOD 7026, AF","FM-15","4","30.01","70","95","","","","","44","","","","6.21","","000","","0","","","","","","","","","","","","","","","","","","","","","","","","","","","","","","","","","","","","","","","","","","","","","","","","","","","","","","","","","","","","","","","","","","","","","","","","","","","","","","","","","","","","","","","","","","","MET090MOBOB0 METAR 7026 //008 000000 231629Z AUTO 00000KT 9999 CLR 35/21 A3001 RMK CDP03661 CLR=","","","","","","","","","",""
"00702699999","2016-06-23T21:14:00","0.0","0.0","7026.0","WXPOD 7026, AF","FM-15","4","30.00","70","97","","","","","42","","","","6.21","","000","","0","","","","","","","","","","","","","","","","","","","","","","","","","","","","","","","","","","","","","","","","","","","","","","","","","","","","","","","","","","","","","","","","","","","","","","","","","","","","","","","","","","","","","","","","","","","MET090MOBOB0 METAR 7026 //008 000000 231644Z AUTO 00000KT 9999 CLR 36/21 A3000 RMK CDP03661 CLR=","","","","","","","","","",""
"00702699999","2016-06-23T21:29:00","0.0","0.0","7026.0","WXPOD 7026, AF","FM-15","4","30.00","68","95","","","","","41","","","","6.21","","000","","0","","","","","","","","","","","","","","","","","","","","","","","","","","","","","","","","","","","","","","","","","","","","","","","","","","","","","","","","","","","","","","","","","","","","","","","","","","","","","","","","","","","","","","","","","","","MET090MOBOB0 METAR 7026 //008 000000 231659Z AUTO 00000KT 9999 CLR 35/20 A3000 RMK CDP03661 CLR=","","","","","","","","","",""
"00702699999","2016-06-23T21:44:00","0.0","0.0","7026.0","WXPOD 7026, AF","FM-15","4","29.99","70","97","","","","","42","","","","6.21","","000","","0","","","","","","","","","","","","","","","","","","","","","","","","","","","","","","","","","","","","","","","","","","","","","","","","","","","","","","","","","","","","","","","","","","","","","","","","","","","","","","","","","","","","","","","","","","","MET090MOBOB0 METAR 7026 //008 000000 231714Z AUTO 00000KT 9999 CLR 36/21 A2999 RMK CDP03661 CLR=","","","","","","","","","",""
"00702699999","2016-06-23T21:59:00","0.0","0.0","7026.0","WXPOD 7026, AF","FM-15","4","29.98","68","97","","","","","39","","","","","","000","","0","","","","","","","","","","","","","","","","","","","","","","","","","","","","","","","","","","","","","","","","","","","","","","","","","","","","","","","","","","","","","","","","","","","","","","","","","","","","","","","","","","","","","","","","","","","MET090MOBOB0 METAR 7026 //008 000000 231729Z AUTO 00000KT //// CLR 36/20 A2998 RMK CDP03661 CLR=","","","","","","","","","",""
"00702699999","2016-06-23T22:14:00","0.0","0.0","7026.0","WXPOD 7026, AF","FM-15","4","29.98","68","97","","","","","39","","","","6.21","","000","","0","","","","","","","","","","","","","","","","","","","","","","","","","","","","","","","","","","","","","","","","","","","","","","","","","","","","","","","","","","","","","","","","","","","","","","","","","","","","","","","","","","","","","","","","","","","MET090MOBOB0 METAR 7026 //008 000000 231744Z AUTO 00000KT 9999 CLR 36/20 A2998 RMK CDP03661 CLR=","","","","","","","","","",""
"00702699999","2016-06-23T22:29:00","0.0","0.0","7026.0","WXPOD 7026, AF","FM-15","4","29.98","68","97","","","","","39","","","","6.21","","000","","0","","","","","","","","","","","","","","","","","","","","","","","","","","","","","","","","","","","","","","","","","","","","","","","","","","","","","","","","","","","","","","","","","","","","","","","","","","","","","","","","","","","","","","","","","","","MET090MOBOB0 METAR 7026 //008 000000 231759Z AUTO 00000KT 9999 CLR 36/20 A2998 RMK CDP03661 CLR=","","","","","","","","","",""
"00702699999","2016-06-23T22:44:00","0.0","0.0","7026.0","WXPOD 7026, AF","FM-15","4","29.97","70","97","","","","","42","SCT:04 67","","","6.21","","000","","0","","","","","","","","","","","","","","","","","","","","","","","","","","","","","","","","","","","","","","","","","","","","","","","","","","","","","","","","","","","","","","","","","","","","","","","","","","","","","","","","","","","","","","","","","","","MET108MOBOB0 METAR 7026 //008 000000 231814Z AUTO 00000KT 9999 SCT067 36/21 A2997 RMK CDP03661 SCT067 CLD AVG 069=","","","","","","","","","",""
"00702699999","2016-06-23T22:59:00","0.0","0.0","7026.0","WXPOD 7026, AF","FM-15","4","29.97","70","97","","","","","42","FEW:02 63","","","6.21","","000","","0","","","","","","","","","","","","","","","","","","","","","","","","","","","","","","","","","","","","","","","","","","","","","","","","","","","","","","","","","","","","","","","","","","","","","","","","","","","","","","","","","","","","","","","","","","","MET108MOBOB0 METAR 7026 //008 000000 231829Z AUTO 00000KT 9999 FEW063 36/21 A2997 RMK CDP03661 FEW063 CLD AVG 063=","","","","","","","","","",""
"00702699999","2016-06-23T23:14:00","0.0","0.0","7026.0","WXPOD 7026, AF","FM-15","4","29.96","72","99","","","","","42","FEW:02 59","","","6.21","","000","","0","","","","","","","","","","","","","","","","","","","","","","","","","","","","","","","","","","","","","","","","","","","","","","","","","","","","","","","","","","","","","","","","","","","","","","","","","","","","","","","","","","","","","","","","","","","MET108MOBOB0 METAR 7026 //008 000000 231844Z AUTO 00000KT 9999 FEW059 37/22 A2996 RMK CDP03661 FEW059 CLD AVG 060=","","","","","","","","","",""
"00702699999","2016-06-23T23:29:00","0.0","0.0","7026.0","WXPOD 7026, AF","FM-15","4","29.97","70","99","","","","","39","","","","6.21","","000","","0","","","","","","","","","","","","","","","","","","","","","","","","","","","","","","","","","","","","","","","","","","","","","","","","","","","","","","","","","","","","","","","","","","","","","","","","","","","","","","","","","","","","","","","","","","","MET090MOBOB0 METAR 7026 //008 000000 231859Z AUTO 00000KT 9999 CLR 37/21 A2997 RMK CDP03661 CLR=","","","","","","","","","",""
"00702699999","2016-06-23T23:44:00","0.0","0.0","7026.0","WXPOD 7026, AF","FM-15","4","29.97","70","99","","","","","39","","","","6.21","","000","","0","","","","","","","","","","","","","","","","","","","","","","","","","","","","","","","","","","","","","","","","","","","","","","","","","","","","","","","","","","","","","","","","","","","","","","","","","","","","","","","","","","","","","","","","","","","MET090MOBOB0 METAR 7026 //008 000000 231914Z AUTO 00000KT 9999 CLR 37/21 A2997 RMK CDP03661 CLR=","","","","","","","","","",""
"00702699999","2016-06-23T23:59:00","0.0","0.0","7026.0","WXPOD 7026, AF","FM-15","4","29.96","68","99","","","","","37","","","","6.21","","000","","0","","","","","","","","","","","","","","","","","","","","","","","","","","","","","","","","","","","","","","","","","","","","","","","","","","","","","","","","","","","","","","","","","","","","","","","","","","","","","","","","","","","","","","","","","","","MET090MOBOB0 METAR 7026 //008 000000 231929Z AUTO 00000KT 9999 CLR 37/20 A2996 RMK CDP03661 CLR=","","","","","","","","","",""
"00702699999","2016-06-24T00:14:00","0.0","0.0","7026.0","WXPOD 7026, AF","FM-15","4","29.96","70","99","","","","","39","","","","6.21","","000","","0","","","","","","","","","","","","","","","","","","","","","","","","","","","","","","","","","","","","","","","","","","","","","","","","","","","","","","","","","","","","","","","","","","","","","","","","","","","","","","","","","","","","","","","","","","","MET090MOBOB0 METAR 7026 //008 000000 231944Z AUTO 00000KT 9999 CLR 37/21 A2996 RMK CDP03661 CLR=","","","","","","","","","",""
"00702699999","2016-06-24T00:29:00","0.0","0.0","7026.0","WXPOD 7026, AF","FM-15","4","29.95","68","97","","","","","39","","","","6.21","","000","","0","","","","","","","","","","","","","","","","","","","","","","","","","","","","","","","","","","","","","","","","","","","","","","","","","","","","","","","","","","","","","","","","","","","","","","","","","","","","","","","","","","","","","","","","","","","MET090MOBOB0 METAR 7026 //008 000000 231959Z AUTO 00000KT 9999 CLR 36/20 A2995 RMK CDP03661 CLR=","","","","","","","","","",""
"00702699999","2016-06-24T00:44:00","0.0","0.0","7026.0","WXPOD 7026, AF","FM-15","4","29.95","70","97","","","","","42","","","","6.21","","000","","0","","","","","","","","","","","","","","","","","","","","","","","","","","","","","","","","","","","","","","","","","","","","","","","","","","","","","","","","","","","","","","","","","","","","","","","","","","","","","","","","","","","","","","","","","","","MET090MOBOB0 METAR 7026 //008 000000 232014Z AUTO 00000KT 9999 CLR 36/21 A2995 RMK CDP03661 CLR=","","","","","","","","","",""
"00702699999","2016-06-24T00:59:00","0.0","0.0","7026.0","WXPOD 7026, AF","FM-15","4","29.94","70","97","","","","","42","","","","6.21","","000","","0","","","","","","","","","","","","","","","","","","","","","","","","","","","","","","","","","","","","","","","","","","","","","","","","","","","","","","","","","","","","","","","","","","","","","","","","","","","","","","","","","","","","","","","","","","","MET090MOBOB0 METAR 7026 //008 000000 232029Z AUTO 00000KT 9999 CLR 36/21 A2994 RMK CDP03661 CLR=","","","","","","","","","",""
"00702699999","2016-06-24T01:14:00","0.0","0.0","7026.0","WXPOD 7026, AF","FM-15","4","29.94","68","97","","","","","39","","","","6.21","","000","","0","","","","","","","","","","","","","","","","","","","","","","","","","","","","","","","","","","","","","","","","","","","","","","","","","","","","","","","","","","","","","","","","","","","","","","","","","","","","","","","","","","","","","","","","","","","MET090MOBOB0 METAR 7026 //008 000000 232044Z AUTO 00000KT 9999 CLR 36/20 A2994 RMK CDP03661 CLR=","","","","","","","","","",""
"00702699999","2016-06-24T01:29:00","0.0","0.0","7026.0","WXPOD 7026, AF","FM-15","4","29.95","68","97","","","","","39","","","","6.21","","000","","0","","","","","","","","","","","","","","","","","","","","","","","","","","","","","","","","","","","","","","","","","","","","","","","","","","","","","","","","","","","","","","","","","","","","","","","","","","","","","","","","","","","","","","","","","","","MET090MOBOB0 METAR 7026 //008 000000 232059Z AUTO 00000KT 9999 CLR 36/20 A2995 RMK CDP03661 CLR=","","","","","","","","","",""
"00702699999","2016-06-24T01:44:00","0.0","0.0","7026.0","WXPOD 7026, AF","FM-15","4","29.94","70","97","","","","","42","","","","6.21","","000","","0","","","","","","","","","","","","","","","","","","","","","","","","","","","","","","","","","","","","","","","","","","","","","","","","","","","","","","","","","","","","","","","","","","","","","","","","","","","","","","","","","","","","","","","","","","","MET090MOBOB0 METAR 7026 //008 000000 232114Z AUTO 00000KT 9999 CLR 36/21 A2994 RMK CDP03661 CLR=","","","","","","","","","",""
"00702699999","2016-06-24T01:59:00","0.0","0.0","7026.0","WXPOD 7026, AF","FM-15","4","29.92","70","97","","","","","42","","","","6.21","","000","","0","","","","","","","","","","","","","","","","","","","","","","","","","","","","","","","","","","","","","","","","","","","","","","","","","","","","","","","","","","","","","","","","","","","","","","","","","","","","","","","","","","","","","","","","","","","MET090MOBOB0 METAR 7026 //008 000000 232129Z AUTO 00000KT 9999 CLR 36/21 A2992 RMK CDP03661 CLR=","","","","","","","","","",""
"00702699999","2016-06-24T02:14:00","0.0","0.0","7026.0","WXPOD 7026, AF","FM-15","4","29.92","68","97","","","","","39","","","","6.21","","000","","0","","","","","","","","","","","","","","","","","","","","","","","","","","","","","","","","","","","","","","","","","","","","","","","","","","","","","","","","","","","","","","","","","","","","","","","","","","","","","","","","","","","","","","","","","","","MET090MOBOB0 METAR 7026 //008 000000 232144Z AUTO 00000KT 9999 CLR 36/20 A2992 RMK CDP03661 CLR=","","","","","","","","","",""
"00702699999","2016-06-24T02:29:00","0.0","0.0","7026.0","WXPOD 7026, AF","FM-15","4","29.91","70","97","","","","","42","","","","6.21","","000","","0","","","","","","","","","","","","","","","","","","","","","","","","","","","","","","","","","","","","","","","","","","","","","","","","","","","","","","","","","","","","","","","","","","","","","","","","","","","","","","","","","","","","","","","","","","","MET090MOBOB0 METAR 7026 //008 000000 232159Z AUTO 00000KT 9999 CLR 36/21 A2991 RMK CDP03661 CLR=","","","","","","","","","",""
"00702699999","2016-06-24T02:44:00","0.0","0.0","7026.0","WXPOD 7026, AF","FM-15","4","29.91","68","95","","","","","41","","","","6.21","","000","","0","","","","","","","","","","","","","","","","","","","","","","","","","","","","","","","","","","","","","","","","","","","","","","","","","","","","","","","","","","","","","","","","","","","","","","","","","","","","","","","","","","","","","","","","","","","MET090MOBOB0 METAR 7026 //008 000000 232214Z AUTO 00000KT 9999 CLR 35/20 A2991 RMK CDP03661 CLR=","","","","","","","","","",""
"00702699999","2016-06-24T02:59:00","0.0","0.0","7026.0","WXPOD 7026, AF","FM-15","4","29.92","68","95","","","","","41","","","","6.21","","000","","0","","","","","","","","","","","","","","","","","","","","","","","","","","","","","","","","","","","","","","","","","","","","","","","","","","","","","","","","","","","","","","","","","","","","","","","","","","","","","","","","","","","","","","","","","","","MET090MOBOB0 METAR 7026 //008 000000 232229Z AUTO 00000KT 9999 CLR 35/20 A2992 RMK CDP03661 CLR=","","","","","","","","","",""
"00702699999","2016-06-24T03:14:00","0.0","0.0","7026.0","WXPOD 7026, AF","FM-15","4","29.91","68","95","","","","","41","","","","6.21","","000","","0","","","","","","","","","","","","","","","","","","","","","","","","","","","","","","","","","","","","","","","","","","","","","","","","","","","","","","","","","","","","","","","","","","","","","","","","","","","","","","","","","","","","","","","","","","","MET090MOBOB0 METAR 7026 //008 000000 232244Z AUTO 00000KT 9999 CLR 35/20 A2991 RMK CDP03661 CLR=","","","","","","","","","",""
"00702699999","2016-06-24T03:29:00","0.0","0.0","7026.0","WXPOD 7026, AF","FM-15","4","29.92","68","95","","","","","41","","","","6.21","","000","","0","","","","","","","","","","","","","","","","","","","","","","","","","","","","","","","","","","","","","","","","","","","","","","","","","","","","","","","","","","","","","","","","","","","","","","","","","","","","","","","","","","","","","","","","","","","MET090MOBOB0 METAR 7026 //008 000000 232259Z AUTO 00000KT 9999 CLR 35/20 A2992 RMK CDP03661 CLR=","","","","","","","","","",""
"00702699999","2016-06-24T03:44:00","0.0","0.0","7026.0","WXPOD 7026, AF","FM-15","4","29.92","68","95","","","","","41","","","","6.21","","000","","0","","","","","","","","","","","","","","","","","","","","","","","","","","","","","","","","","","","","","","","","","","","","","","","","","","","","","","","","","","","","","","","","","","","","","","","","","","","","","","","","","","","","","","","","","","","MET090MOBOB0 METAR 7026 //008 000000 232314Z AUTO 00000KT 9999 CLR 35/20 A2992 RMK CDP03661 CLR=","","","","","","","","","",""
"00702699999","2016-06-24T03:59:00","0.0","0.0","7026.0","WXPOD 7026, AF","FM-15","4","29.93","68","93","","","","","44","","","","6.21","","000","","0","","","","","","","","","","","","","","","","","","","","","","","","","","","","","","","","","","","","","","","","","","","","","","","","","","","","","","","","","","","","","","","","","","","","","","","","","","","","","","","","","","","","","","","","","","","MET090MOBOB0 METAR 7026 //008 000000 232329Z AUTO 00000KT 9999 CLR 34/20 A2993 RMK CDP03661 CLR=","","","","","","","","","",""
"00702699999","2016-06-24T04:14:00","0.0","0.0","7026.0","WXPOD 7026, AF","FM-15","4","29.93","68","93","","","","","44","","","","6.21","","000","","0","","","","","","","","","","","","","","","","","","","","","","","","","","","","","","","","","","","","","","","","","","","","","","","","","","","","","","","","","","","","","","","","","","","","","","","","","","","","","","","","","","","","","","","","","","","MET090MOBOB0 METAR 7026 //008 000000 232344Z AUTO 00000KT 9999 CLR 34/20 A2993 RMK CDP03661 CLR=","","","","","","","","","",""
"00702699999","2016-06-24T04:29:00","0.0","0.0","7026.0","WXPOD 7026, AF","FM-15","4","29.94","68","91","","","","","46","","","","6.21","","000","","0","","","","","","","","","","","","","","","","","","","","","","","","","","","","","","","","","","","","","","","","","","","","","","","","","","","","","","","","","","","","","","","","","","","","","","","","","","","","","","","","","","","","","","","","","","","MET090MOBOB0 METAR 7026 //008 000000 232359Z AUTO 00000KT 9999 CLR 33/20 A2994 RMK CDP03661 CLR=","","","","","","","","","",""
"00702699999","2016-06-24T04:44:00","0.0","0.0","7026.0","WXPOD 7026, AF","FM-15","4","29.94","68","91","","","","","46","","","","6.21","","000","","0","","","","","","","","","","","","","","","","","","","","","","","","","","","","","","","","","","","","","","","","","","","","","","","","","","","","","","","","","","","","","","","","","","","","","","","","","","","","","","","","","","","","","","","","","","","MET090MOBOB0 METAR 7026 //008 000000 240014Z AUTO 00000KT 9999 CLR 33/20 A2994 RMK CDP03661 CLR=","","","","","","","","","",""
"00702699999","2016-06-24T04:59:00","0.0","0.0","7026.0","WXPOD 7026, AF","FM-15","4","29.94","68","91","","","","","46","","","","6.21","","000","","0","","","","","","","","","","","","","","","","","","","","","","","","","","","","","","","","","","","","","","","","","","","","","","","","","","","","","","","","","","","","","","","","","","","","","","","","","","","","","","","","","","","","","","","","","","","MET090MOBOB0 METAR 7026 //008 000000 240029Z AUTO 00000KT 9999 CLR 33/20 A2994 RMK CDP03661 CLR=","","","","","","","","","",""
"00702699999","2016-06-24T05:14:00","0.0","0.0","7026.0","WXPOD 7026, AF","FM-15","4","29.95","68","90","","","","","49","","","","6.21","","000","","0","","","","","","","","","","","","","","","","","","","","","","","","","","","","","","","","","","","","","","","","","","","","","","","","","","","","","","","","","","","","","","","","","","","","","","","","","","","","","","","","","","","","","","","","","","","MET090MOBOB0 METAR 7026 //008 000000 240044Z AUTO 00000KT 9999 CLR 32/20 A2995 RMK CDP03661 CLR=","","","","","","","","","",""
"00702699999","2016-06-24T05:29:00","0.0","0.0","7026.0","WXPOD 7026, AF","FM-15","4","29.96","68","90","","","","","49","","","","6.21","","000","","0","","","","","","","","","","","","","","","","","","","","","","","","","","","","","","","","","","","","","","","","","","","","","","","","","","","","","","","","","","","","","","","","","","","","","","","","","","","","","","","","","","","","","","","","","","","MET090MOBOB0 METAR 7026 //008 000000 240059Z AUTO 00000KT 9999 CLR 32/20 A2996 RMK CDP03661 CLR=","","","","","","","","","",""
"00702699999","2016-06-24T05:44:00","0.0","0.0","7026.0","WXPOD 7026, AF","FM-15","4","29.96","68","90","","","","","49","","","","6.21","","000","","0","","","","","","","","","","","","","","","","","","","","","","","","","","","","","","","","","","","","","","","","","","","","","","","","","","","","","","","","","","","","","","","","","","","","","","","","","","","","","","","","","","","","","","","","","","","MET090MOBOB0 METAR 7026 //008 000000 240114Z AUTO 00000KT 9999 CLR 32/20 A2996 RMK CDP03661 CLR=","","","","","","","","","",""
"00702699999","2016-06-24T05:59:00","0.0","0.0","7026.0","WXPOD 7026, AF","FM-15","4","29.96","68","90","","","","","49","","","","6.21","","000","","0","","","","","","","","","","","","","","","","","","","","","","","","","","","","","","","","","","","","","","","","","","","","","","","","","","","","","","","","","","","","","","","","","","","","","","","","","","","","","","","","","","","","","","","","","","","MET090MOBOB0 METAR 7026 //008 000000 240129Z AUTO 00000KT 9999 CLR 32/20 A2996 RMK CDP03661 CLR=","","","","","","","","","",""
"00702699999","2016-06-24T06:14:00","0.0","0.0","7026.0","WXPOD 7026, AF","FM-15","4","29.95","68","88","","","","","52","","","","6.21","","000","","0","","","","","","","","","","","","","","","","","","","","","","","","","","","","","","","","","","","","","","","","","","","","","","","","","","","","","","","","","","","","","","","","","","","","","","","","","","","","","","","","","","","","","","","","","","","MET090MOBOB0 METAR 7026 //008 000000 240144Z AUTO 00000KT 9999 CLR 31/20 A2995 RMK CDP03661 CLR=","","","","","","","","","",""
"00702699999","2016-06-24T06:29:00","0.0","0.0","7026.0","WXPOD 7026, AF","FM-15","4","29.97","68","88","","","","","52","","","","6.21","","000","","0","","","","","","","","","","","","","","","","","","","","","","","","","","","","","","","","","","","","","","","","","","","","","","","","","","","","","","","","","","","","","","","","","","","","","","","","","","","","","","","","","","","","","","","","","","","MET090MOBOB0 METAR 7026 //008 000000 240159Z AUTO 00000KT 9999 CLR 31/20 A2997 RMK CDP03661 CLR=","","","","","","","","","",""
"00702699999","2016-06-24T06:44:00","0.0","0.0","7026.0","WXPOD 7026, AF","FM-15","4","30.00","66","88","","","","","49","","","","6.21","","000","","0","","","","","","","","","","","","","","","","","","","","","","","","","","","","","","","","","","","","","","","","","","","","","","","","","","","","","","","","","","","","","","","","","","","","","","","","","","","","","","","","","","","","","","","","","","","MET090MOBOB0 METAR 7026 //008 000000 240214Z AUTO 00000KT 9999 CLR 31/19 A3000 RMK CDP03661 CLR=","","","","","","","","","",""
"00702699999","2016-06-24T06:59:00","0.0","0.0","7026.0","WXPOD 7026, AF","FM-15","4","30.01","66","88","","","","","49","","","","","","000","","0","","","","","","","","","","","","","","","","","","","","","","","","","","","","","","","","","","","","","","","","","","","","","","","","","","","","","","","","","","","","","","","","","","","","","","","","","","","","","","","","","","","","","","","","","","","MET090MOBOB0 METAR 7026 //008 000000 240229Z AUTO 00000KT //// CLR 31/19 A3001 RMK CDP03661 CLR=","","","","","","","","","",""
"00702699999","2016-06-24T07:14:00","0.0","0.0","7026.0","WXPOD 7026, AF","FM-15","4","30.03","68","84","","","","","58","","","","6.21","","000","","0","","","","","","","","","","","","","","","","","","","","","","","","","","","","","","","","","","","","","","","","","","","","","","","","","","","","","","","","","","","","","","","","","","","","","","","","","","","","","","","","","","","","","","","","","","","MET090MOBOB0 METAR 7026 //008 000000 240244Z AUTO 00000KT 9999 CLR 29/20 A3003 RMK CDP03661 CLR=","","","","","","","","","",""
"00702699999","2016-06-24T07:29:00","0.0","0.0","7026.0","WXPOD 7026, AF","FM-15","4","30.03","66","84","","","","","55","","","","6.21","","000","","0","","","","","","","","","","","","","","","","","","","","","","","","","","","","","","","","","","","","","","","","","","","","","","","","","","","","","","","","","","","","","","","","","","","","","","","","","","","","","","","","","","","","","","","","","","","MET090MOBOB0 METAR 7026 //008 000000 240259Z AUTO 00000KT 9999 CLR 29/19 A3003 RMK CDP03661 CLR=","","","","","","","","","",""
"00702699999","2016-06-24T07:44:00","0.0","0.0","7026.0","WXPOD 7026, AF","FM-15","4","30.03","64","79","","","","","61","","","","6.21","","000","","0","","","","","","","","","","","","","","","","","","","","","","","","","","","","","","","","","","","","","","","","","","","","","","","","","","","","","","","","","","","","","","","","","","","","","","","","","","","","","","","","","","","","","","","","","","","MET090MOBOB0 METAR 7026 //008 000000 240314Z AUTO 00000KT 9999 CLR 26/18 A3003 RMK CDP03661 CLR=","","","","","","","","","",""
"00702699999","2016-06-24T07:59:00","0.0","0.0","7026.0","WXPOD 7026, AF","FM-15","4","30.05","64","79","","","","","61","","","","6.21","","000","","0","","","","","","","","","","","","","","","","","","","","","","","","","","","","","","","","","","","","","","","","","","","","","","","","","","","","","","","","","","","","","","","","","","","","","","","","","","","","","","","","","","","","","","","","","","","MET090MOBOB0 METAR 7026 //008 000000 240329Z AUTO 00000KT 9999 CLR 26/18 A3005 RMK CDP03661 CLR=","","","","","","","","","",""
"00702699999","2016-06-24T08:14:00","0.0","0.0","7026.0","WXPOD 7026, AF","FM-15","4","30.06","64","79","","","","","61","","","","","","000","","0","","","","","","","","","","","","","","","","","","","","","","","","","","","","","","","","","","","","","","","","","","","","","","","","","","","","","","","","","","","","","","","","","","","","","","","","","","","","","","","","","","","","","","","","","","","MET090MOBOB0 METAR 7026 //008 000000 240344Z AUTO 00000KT //// CLR 26/18 A3006 RMK CDP03661 CLR=","","","","","","","","","",""
"00702699999","2016-06-24T08:29:00","0.0","0.0","7026.0","WXPOD 7026, AF","FM-15","4","30.05","63","77","","","","","61","","","","","","000","","0","","","","","","","","","","","","","","","","","","","","","","","","","","","","","","","","","","","","","","","","","","","","","","","","","","","","","","","","","","","","","","","","","","","","","","","","","","","","","","","","","","","","","","","","","","","MET090MOBOB0 METAR 7026 //008 000000 240359Z AUTO 00000KT //// CLR 25/17 A3005 RMK CDP03661 CLR=","","","","","","","","","",""
"00702699999","2016-06-24T08:44:00","0.0","0.0","7026.0","WXPOD 7026, AF","FM-15","4","30.06","64","77","","","","","65","FEW:02 109","","","6.21","","000","","0","","","","","","","","","","","","","","","","","","","","","","","","","","","","","","","","","","","","","","","","","","","","","","","","","","","","","","","","","","","","","","","","","","","","","","","","","","","","","","","","","","","","","","","","","","","MET108MOBOB0 METAR 7026 //008 000000 240414Z AUTO 00000KT 9999 FEW109 25/18 A3006 RMK CDP03661 FEW109 CLD AVG 109=","","","","","","","","","",""
"00702699999","2016-06-24T08:59:00","0.0","0.0","7026.0","WXPOD 7026, AF","FM-15","4","30.09","64","77","","","","","65","","","","","","000","","0","","","","","","","","","","","","","","","","","","","","","","","","","","","","","","","","","","","","","","","","","","","","","","","","","","","","","","","","","","","","","","","","","","","","","","","","","","","","","","","","","","","","","","","","","","","MET090MOBOB0 METAR 7026 //008 000000 240429Z AUTO 00000KT //// CLR 25/18 A3009 RMK CDP03661 CLR=","","","","","","","","","",""
"00702699999","2016-06-24T09:14:00","0.0","0.0","7026.0","WXPOD 7026, AF","FM-15","4","30.10","70","73","","|RA |","","","89","","","","1.24","","000","","0","","","","","","","","","","","","","","","","","","","","","","","","","","","","","","","","","","","","","","","","","","","","","","","","","","","","","","","","","","","","","","","","","","","","","","","","","","","","","","","","","","","","","","","","","","","MET093MOBOB0 METAR 7026 //008 000000 240444Z AUTO 00000KT 2000 RA CLR 23/21 A3010 RMK CDP03661 CLR=","","","","","","","","","",""
"00702699999","2016-06-24T09:29:00","0.0","0.0","7026.0","WXPOD 7026, AF","FM-15","4","30.11","70","70","","|RA |","","","100","","","","1.12","","000","","0","","","","","","","","","","","","","","","","","","","","","","","","","","","","","","","","","","","","","","","","","","","","","","","","","","","","","","","","","","","","","","","","","","","","","","","","","","","","","","","","","","","","","","","","","","","MET094MOBOB0 METAR 7026 //008 000000 240459Z AUTO 00000KT 1800 +RA CLR 21/21 A3011 RMK CDP03661 CLR=","","","","","","","","","",""
"00702699999","2016-06-24T09:44:00","0.0","0.0","7026.0","WXPOD 7026, AF","FM-15","4","30.09","70","70","","|DZ |","","","100","FEW:02 86","","","4.97","","000","","0","","","","","","","","","","","","","","","","","","","","","","","","","","","","","","","","","","","","","","","","","","","","","","","","","","","","","","","","","","","","","","","","","","","","","","","","","","","","","","","","","","","","","","","","","","","MET112MOBOB0 METAR 7026 //008 000000 240514Z AUTO 00000KT 8000 -DZ FEW086 21/21 A3009 RMK CDP03661 FEW086 CLD AVG 086=","","","","","","","","","",""
"00702699999","2016-06-24T09:59:00","0.0","0.0","7026.0","WXPOD 7026, AF","FM-15","4","30.10","70","70","","|RA |","","","100","","","","3.73","","000","","0","","","","","","","","","","","","","","","","","","","","","","","","","","","","","","","","","","","","","","","","","","","","","","","","","","","","","","","","","","","","","","","","","","","","","","","","","","","","","","","","","","","","","","","","","","","MET094MOBOB0 METAR 7026 //008 000000 240529Z AUTO 00000KT 6000 -RA CLR 21/21 A3010 RMK CDP03661 CLR=","","","","","","","","","",""
"00702699999","2016-06-24T10:14:00","0.0","0.0","7026.0","WXPOD 7026, AF","FM-15","4","30.09","70","70","","|RA |","","","100","","","","3.73","","000","","0","","","","","","","","","","","","","","","","","","","","","","","","","","","","","","","","","","","","","","","","","","","","","","","","","","","","","","","","","","","","","","","","","","","","","","","","","","","","","","","","","","","","","","","","","","","MET094MOBOB0 METAR 7026 //008 000000 240544Z AUTO 00000KT 6000 -RA CLR 21/21 A3009 RMK CDP03661 CLR=","","","","","","","","","",""
"00702699999","2016-06-24T10:29:00","0.0","0.0","7026.0","WXPOD 7026, AF","FM-15","4","30.08","70","70","","","","","100","FEW:02 87","","","","","000","","0","","","","","","","","","","","","","","","","","","","","","","","","","","","","","","","","","","","","","","","","","","","","","","","","","","","","","","","","","","","","","","","","","","","","","","","","","","","","","","","","","","","","","","","","","","","MET108MOBOB0 METAR 7026 //008 000000 240559Z AUTO 00000KT //// FEW087 21/21 A3008 RMK CDP03661 FEW087 CLD AVG 087=","","","","","","","","","",""
"00702699999","2016-06-24T10:44:00","0.0","0.0","7026.0","WXPOD 7026, AF","FM-15","4","30.07","70","70","","|FU |","","","100","","","","6.21","","000","","0","","","","","","","","","","","","","","","","","","","","","","","","","","","","","","","","","","","","","","","","","","","","","","","","","","","","","","","","","","","","","","","","","","","","","","","","","","","","","","","","","","","","","","","","","","","MET093MOBOB0 METAR 7026 //008 000000 240614Z AUTO 00000KT 9999 HZ CLR 21/21 A3007 RMK CDP03661 CLR=","","","","","","","","","",""
"00702699999","2016-06-24T10:59:00","0.0","0.0","7026.0","WXPOD 7026, AF","FM-15","4","30.05","70","70","","|FU |","","","100","FEW:02 82","","","6.21","","000","","0","","","","","","","","","","","","","","","","","","","","","","","","","","","","","","","","","","","","","","","","","","","","","","","","","","","","","","","","","","","","","","","","","","","","","","","","","","","","","","","","","","","","","","","","","","","MET111MOBOB0 METAR 7026 //008 000000 240629Z AUTO 00000KT 9999 HZ FEW082 21/21 A3005 RMK CDP03661 FEW082 CLD AVG 082=","","","","","","","","","",""
"00702699999","2016-06-24T11:14:00","0.0","0.0","7026.0","WXPOD 7026, AF","FM-15","4","30.05","68","72","","|FU |","","","88","","","","6.21","","000","","0","","","","","","","","","","","","","","","","","","","","","","","","","","","","","","","","","","","","","","","","","","","","","","","","","","","","","","","","","","","","","","","","","","","","","","","","","","","","","","","","","","","","","","","","","","","MET093MOBOB0 METAR 7026 //008 000000 240644Z AUTO 00000KT 9999 HZ CLR 22/20 A3005 RMK CDP03661 CLR=","","","","","","","","","",""
"00702699999","2016-06-24T11:29:00","0.0","0.0","7026.0","WXPOD 7026, AF","FM-15","4","30.02","68","72","","","","","88","","","","","","000","","0","","","","","","","","","","","","","","","","","","","","","","","","","","","","","","","","","","","","","","","","","","","","","","","","","","","","","","","","","","","","","","","","","","","","","","","","","","","","","","","","","","","","","","","","","","","MET090MOBOB0 METAR 7026 //008 000000 240659Z AUTO 00000KT //// CLR 22/20 A3002 RMK CDP03661 CLR=","","","","","","","","","",""
"00702699999","2016-06-24T11:44:00","0.0","0.0","7026.0","WXPOD 7026, AF","FM-15","4","30.01","70","70","","|DZ |","","","100","","","","4.97","","000","","0","","","","","","","","","","","","","","","","","","","","","","","","","","","","","","","","","","","","","","","","","","","","","","","","","","","","","","","","","","","","","","","","","","","","","","","","","","","","","","","","","","","","","","","","","","","MET094MOBOB0 METAR 7026 //008 000000 240714Z AUTO 00000KT 8000 -DZ CLR 21/21 A3001 RMK CDP03661 CLR=","","","","","","","","","",""
"00702699999","2016-06-24T11:59:00","0.0","0.0","7026.0","WXPOD 7026, AF","FM-15","4","29.99","68","70","","|FU |","","","94","","","","6.21","","000","","0","","","","","","","","","","","","","","","","","","","","","","","","","","","","","","","","","","","","","","","","","","","","","","","","","","","","","","","","","","","","","","","","","","","","","","","","","","","","","","","","","","","","","","","","","","","MET093MOBOB0 METAR 7026 //008 000000 240729Z AUTO 00000KT 9999 HZ CLR 21/20 A2999 RMK CDP03661 CLR=","","","","","","","","","",""
"00702699999","2016-06-24T12:14:00","0.0","0.0","7026.0","WXPOD 7026, AF","FM-15","4","29.98","68","70","","|FU |","","","94","","","","5.59","","000","","0","","","","","","","","","","","","","","","","","","","","","","","","","","","","","","","","","","","","","","","","","","","","","","","","","","","","","","","","","","","","","","","","","","","","","","","","","","","","","","","","","","","","","","","","","","","MET093MOBOB0 METAR 7026 //008 000000 240744Z AUTO 00000KT 9000 HZ CLR 21/20 A2998 RMK CDP03661 CLR=","","","","","","","","","",""
"00702699999","2016-06-24T12:29:00","0.0","0.0","7026.0","WXPOD 7026, AF","FM-15","4","29.97","70","70","","|FU |","","","100","","","","6.21","","000","","0","","","","","","","","","","","","","","","","","","","","","","","","","","","","","","","","","","","","","","","","","","","","","","","","","","","","","","","","","","","","","","","","","","","","","","","","","","","","","","","","","","","","","","","","","","","MET093MOBOB0 METAR 7026 //008 000000 240759Z AUTO 00000KT 9999 HZ CLR 21/21 A2997 RMK CDP03661 CLR=","","","","","","","","","",""
"00702699999","2016-06-24T12:44:00","0.0","0.0","7026.0","WXPOD 7026, AF","FM-15","4","29.96","68","72","","|FU |","","","88","","","","6.21","","000","","0","","","","","","","","","","","","","","","","","","","","","","","","","","","","","","","","","","","","","","","","","","","","","","","","","","","","","","","","","","","","","","","","","","","","","","","","","","","","","","","","","","","","","","","","","","","MET093MOBOB0 METAR 7026 //008 000000 240814Z AUTO 00000KT 9999 HZ CLR 22/20 A2996 RMK CDP03661 CLR=","","","","","","","","","",""
"00702699999","2016-06-24T12:59:00","0.0","0.0","7026.0","WXPOD 7026, AF","FM-15","4","29.95","68","72","","|FU |","","","88","","","","6.21","","000","","0","","","","","","","","","","","","","","","","","","","","","","","","","","","","","","","","","","","","","","","","","","","","","","","","","","","","","","","","","","","","","","","","","","","","","","","","","","","","","","","","","","","","","","","","","","","MET093MOBOB0 METAR 7026 //008 000000 240829Z AUTO 00000KT 9999 HZ CLR 22/20 A2995 RMK CDP03661 CLR=","","","","","","","","","",""
"00702699999","2016-06-24T13:14:00","0.0","0.0","7026.0","WXPOD 7026, AF","FM-15","4","29.96","68","72","","|FU |","","","88","","","","6.21","","000","","0","","","","","","","","","","","","","","","","","","","","","","","","","","","","","","","","","","","","","","","","","","","","","","","","","","","","","","","","","","","","","","","","","","","","","","","","","","","","","","","","","","","","","","","","","","","MET093MOBOB0 METAR 7026 //008 000000 240844Z AUTO 00000KT 9999 HZ CLR 22/20 A2996 RMK CDP03661 CLR=","","","","","","","","","",""
"00702699999","2016-06-24T13:29:00","0.0","0.0","7026.0","WXPOD 7026, AF","FM-15","4","29.98","68","72","","","","","88","","","","6.21","","000","","0","","","","","","","","","","","","","","","","","","","","","","","","","","","","","","","","","","","","","","","","","","","","","","","","","","","","","","","","","","","","","","","","","","","","","","","","","","","","","","","","","","","","","","","","","","","MET090MOBOB0 METAR 7026 //008 000000 240859Z AUTO 00000KT 9999 CLR 22/20 A2998 RMK CDP03661 CLR=","","","","","","","","","",""
"00702699999","2016-06-24T13:44:00","0.0","0.0","7026.0","WXPOD 7026, AF","FM-15","4","29.97","70","72","","|FU |","","","94","","","","6.21","","000","","0","","","","","","","","","","","","","","","","","","","","","","","","","","","","","","","","","","","","","","","","","","","","","","","","","","","","","","","","","","","","","","","","","","","","","","","","","","","","","","","","","","","","","","","","","","","MET093MOBOB0 METAR 7026 //008 000000 240914Z AUTO 00000KT 9999 HZ CLR 22/21 A2997 RMK CDP03661 CLR=","","","","","","","","","",""
"00702699999","2016-06-24T13:59:00","0.0","0.0","7026.0","WXPOD 7026, AF","FM-15","4","29.97","68","70","","|FU |","","","94","","","","6.21","","000","","0","","","","","","","","","","","","","","","","","","","","","","","","","","","","","","","","","","","","","","","","","","","","","","","","","","","","","","","","","","","","","","","","","","","","","","","","","","","","","","","","","","","","","","","","","","","MET093MOBOB0 METAR 7026 //008 000000 240929Z AUTO 00000KT 9999 HZ CLR 21/20 A2997 RMK CDP03661 CLR=","","","","","","","","","",""
"00702699999","2016-06-24T14:14:00","0.0","0.0","7026.0","WXPOD 7026, AF","FM-15","4","29.96","68","72","","|FU |","","","88","","","","6.21","","000","","0","","","","","","","","","","","","","","","","","","","","","","","","","","","","","","","","","","","","","","","","","","","","","","","","","","","","","","","","","","","","","","","","","","","","","","","","","","","","","","","","","","","","","","","","","","","MET093MOBOB0 METAR 7026 //008 000000 240944Z AUTO 00000KT 9999 HZ CLR 22/20 A2996 RMK CDP03661 CLR=","","","","","","","","","",""
"00702699999","2016-06-24T14:29:00","0.0","0.0","7026.0","WXPOD 7026, AF","FM-15","4","29.97","66","72","","|FU |","","","83","","","","6.21","","000","","0","","","","","","","","","","","","","","","","","","","","","","","","","","","","","","","","","","","","","","","","","","","","","","","","","","","","","","","","","","","","","","","","","","","","","","","","","","","","","","","","","","","","","","","","","","","MET093MOBOB0 METAR 7026 //008 000000 240959Z AUTO 00000KT 9999 HZ CLR 22/19 A2997 RMK CDP03661 CLR=","","","","","","","","","",""
"00702699999","2016-06-24T14:44:00","0.0","0.0","7026.0","WXPOD 7026, AF","FM-15","4","29.97","68","72","","","","","88","","","","6.21","","000","","0","","","","","","","","","","","","","","","","","","","","","","","","","","","","","","","","","","","","","","","","","","","","","","","","","","","","","","","","","","","","","","","","","","","","","","","","","","","","","","","","","","","","","","","","","","","MET090MOBOB0 METAR 7026 //008 000000 241014Z AUTO 00000KT 9999 CLR 22/20 A2997 RMK CDP03661 CLR=","","","","","","","","","",""
"00702699999","2016-06-24T14:59:00","0.0","0.0","7026.0","WXPOD 7026, AF","FM-15","4","29.98","68","72","","","","","88","","","","6.21","","000","","0","","","","","","","","","","","","","","","","","","","","","","","","","","","","","","","","","","","","","","","","","","","","","","","","","","","","","","","","","","","","","","","","","","","","","","","","","","","","","","","","","","","","","","","","","","","MET090MOBOB0 METAR 7026 //008 000000 241029Z AUTO 00000KT 9999 CLR 22/20 A2998 RMK CDP03661 CLR=","","","","","","","","","",""
"00702699999","2016-06-24T15:14:00","0.0","0.0","7026.0","WXPOD 7026, AF","FM-15","4","29.99","68","72","","","","","88","","","","6.21","","000","","0","","","","","","","","","","","","","","","","","","","","","","","","","","","","","","","","","","","","","","","","","","","","","","","","","","","","","","","","","","","","","","","","","","","","","","","","","","","","","","","","","","","","","","","","","","","MET090MOBOB0 METAR 7026 //008 000000 241044Z AUTO 00000KT 9999 CLR 22/20 A2999 RMK CDP03661 CLR=","","","","","","","","","",""
"00702699999","2016-06-24T15:29:00","0.0","0.0","7026.0","WXPOD 7026, AF","FM-15","4","30.00","68","72","","","","","88","","","","","","000","","0","","","","","","","","","","","","","","","","","","","","","","","","","","","","","","","","","","","","","","","","","","","","","","","","","","","","","","","","","","","","","","","","","","","","","","","","","","","","","","","","","","","","","","","","","","","MET090MOBOB0 METAR 7026 //008 000000 241059Z AUTO 00000KT //// CLR 22/20 A3000 RMK CDP03661 CLR=","","","","","","","","","",""
"00702699999","2016-06-24T15:44:00","0.0","0.0","7026.0","WXPOD 7026, AF","FM-15","4","29.99","68","72","","","","","88","","","","","","000","","0","","","","","","","","","","","","","","","","","","","","","","","","","","","","","","","","","","","","","","","","","","","","","","","","","","","","","","","","","","","","","","","","","","","","","","","","","","","","","","","","","","","","","","","","","","","MET090MOBOB0 METAR 7026 //008 000000 241114Z AUTO 00000KT //// CLR 22/20 A2999 RMK CDP03661 CLR=","","","","","","","","","",""
"00702699999","2016-06-24T15:59:00","0.0","0.0","7026.0","WXPOD 7026, AF","FM-15","4","29.99","68","72","","","","","88","","","","6.21","","000","","0","","","","","","","","","","","","","","","","","","","","","","","","","","","","","","","","","","","","","","","","","","","","","","","","","","","","","","","","","","","","","","","","","","","","","","","","","","","","","","","","","","","","","","","","","","","MET090MOBOB0 METAR 7026 //008 000000 241129Z AUTO 00000KT 9999 CLR 22/20 A2999 RMK CDP03661 CLR=","","","","","","","","","",""
"00702699999","2016-06-24T16:14:00","0.0","0.0","7026.0","WXPOD 7026, AF","FM-15","4","29.99","68","72","","","","","88","","","","6.21","","000","","0","","","","","","","","","","","","","","","","","","","","","","","","","","","","","","","","","","","","","","","","","","","","","","","","","","","","","","","","","","","","","","","","","","","","","","","","","","","","","","","","","","","","","","","","","","","MET090MOBOB0 METAR 7026 //008 000000 241144Z AUTO 00000KT 9999 CLR 22/20 A2999 RMK CDP03661 CLR=","","","","","","","","","",""
"00702699999","2016-06-24T16:29:00","0.0","0.0","7026.0","WXPOD 7026, AF","FM-15","4","30.00","68","73","","","","","83","","","","6.21","","000","","0","","","","","","","","","","","","","","","","","","","","","","","","","","","","","","","","","","","","","","","","","","","","","","","","","","","","","","","","","","","","","","","","","","","","","","","","","","","","","","","","","","","","","","","","","","","MET090MOBOB0 METAR 7026 //008 000000 241159Z AUTO 00000KT 9999 CLR 23/20 A3000 RMK CDP03661 CLR=","","","","","","","","","",""
"00702699999","2016-06-24T16:44:00","0.0","0.0","7026.0","WXPOD 7026, AF","FM-15","4","30.00","68","75","","","","","78","","","","6.21","","000","","0","","","","","","","","","","","","","","","","","","","","","","","","","","","","","","","","","","","","","","","","","","","","","","","","","","","","","","","","","","","","","","","","","","","","","","","","","","","","","","","","","","","","","","","","","","","MET090MOBOB0 METAR 7026 //008 000000 241214Z AUTO 00000KT 9999 CLR 24/20 A3000 RMK CDP03661 CLR=","","","","","","","","","",""
"00702699999","2016-06-24T16:59:00","0.0","0.0","7026.0","WXPOD 7026, AF","FM-15","4","30.00","68","75","","","","","78","","","","","","000","","0","","","","","","","","","","","","","","","","","","","","","","","","","","","","","","","","","","","","","","","","","","","","","","","","","","","","","","","","","","","","","","","","","","","","","","","","","","","","","","","","","","","","","","","","","","","MET090MOBOB0 METAR 7026 //008 000000 241229Z AUTO 00000KT //// CLR 24/20 A3000 RMK CDP03661 CLR=","","","","","","","","","",""
"00702699999","2016-06-24T17:14:00","0.0","0.0","7026.0","WXPOD 7026, AF","FM-15","4","30.01","70","75","","","","","83","","","","6.21","","000","","0","","","","","","","","","","","","","","","","","","","","","","","","","","","","","","","","","","","","","","","","","","","","","","","","","","","","","","","","","","","","","","","","","","","","","","","","","","","","","","","","","","","","","","","","","","","MET090MOBOB0 METAR 7026 //008 000000 241244Z AUTO 00000KT 9999 CLR 24/21 A3001 RMK CDP03661 CLR=","","","","","","","","","",""
"00702699999","2016-06-24T17:29:00","0.0","0.0","7026.0","WXPOD 7026, AF","FM-15","4","30.00","68","75","","","","","78","","","","6.21","","000","","0","","","","","","","","","","","","","","","","","","","","","","","","","","","","","","","","","","","","","","","","","","","","","","","","","","","","","","","","","","","","","","","","","","","","","","","","","","","","","","","","","","","","","","","","","","","MET090MOBOB0 METAR 7026 //008 000000 241259Z AUTO 00000KT 9999 CLR 24/20 A3000 RMK CDP03661 CLR=","","","","","","","","","",""
"00702699999","2016-06-24T17:44:00","0.0","0.0","7026.0","WXPOD 7026, AF","FM-15","4","30.01","70","77","","","","","79","","","","6.21","","000","","0","","","","","","","","","","","","","","","","","","","","","","","","","","","","","","","","","","","","","","","","","","","","","","","","","","","","","","","","","","","","","","","","","","","","","","","","","","","","","","","","","","","","","","","","","","","MET090MOBOB0 METAR 7026 //008 000000 241314Z AUTO 00000KT 9999 CLR 25/21 A3001 RMK CDP03661 CLR=","","","","","","","","","",""
"00702699999","2016-06-24T17:59:00","0.0","0.0","7026.0","WXPOD 7026, AF","FM-15","4","30.01","70","77","","","","","79","","","","6.21","","000","","0","","","","","","","","","","","","","","","","","","","","","","","","","","","","","","","","","","","","","","","","","","","","","","","","","","","","","","","","","","","","","","","","","","","","","","","","","","","","","","","","","","","","","","","","","","","MET090MOBOB0 METAR 7026 //008 000000 241329Z AUTO 00000KT 9999 CLR 25/21 A3001 RMK CDP03661 CLR=","","","","","","","","","",""
"00702699999","2016-06-24T18:14:00","0.0","0.0","7026.0","WXPOD 7026, AF","FM-15","4","30.02","70","77","","","","","79","","","","6.21","","000","","0","","","","","","","","","","","","","","","","","","","","","","","","","","","","","","","","","","","","","","","","","","","","","","","","","","","","","","","","","","","","","","","","","","","","","","","","","","","","","","","","","","","","","","","","","","","MET090MOBOB0 METAR 7026 //008 000000 241344Z AUTO 00000KT 9999 CLR 25/21 A3002 RMK CDP03661 CLR=","","","","","","","","","",""
"00702699999","2016-06-24T18:29:00","0.0","0.0","7026.0","WXPOD 7026, AF","FM-15","4","30.01","70","79","","","","","74","","","","6.21","","000","","0","","","","","","","","","","","","","","","","","","","","","","","","","","","","","","","","","","","","","","","","","","","","","","","","","","","","","","","","","","","","","","","","","","","","","","","","","","","","","","","","","","","","","","","","","","","MET090MOBOB0 METAR 7026 //008 000000 241359Z AUTO 00000KT 9999 CLR 26/21 A3001 RMK CDP03661 CLR=","","","","","","","","","",""
"00702699999","2016-06-24T18:44:00","0.0","0.0","7026.0","WXPOD 7026, AF","FM-15","4","30.02","72","79","","","","","79","","","","6.21","","000","","0","","","","","","","","","","","","","","","","","","","","","","","","","","","","","","","","","","","","","","","","","","","","","","","","","","","","","","","","","","","","","","","","","","","","","","","","","","","","","","","","","","","","","","","","","","","MET090MOBOB0 METAR 7026 //008 000000 241414Z AUTO 00000KT 9999 CLR 26/22 A3002 RMK CDP03661 CLR=","","","","","","","","","",""
"00702699999","2016-06-24T18:59:00","0.0","0.0","7026.0","WXPOD 7026, AF","FM-15","4","30.01","70","79","","","","","74","","","","6.21","","000","","0","","","","","","","","","","","","","","","","","","","","","","","","","","","","","","","","","","","","","","","","","","","","","","","","","","","","","","","","","","","","","","","","","","","","","","","","","","","","","","","","","","","","","","","","","","","MET090MOBOB0 METAR 7026 //008 000000 241429Z AUTO 00000KT 9999 CLR 26/21 A3001 RMK CDP03661 CLR=","","","","","","","","","",""
"00702699999","2016-06-24T19:14:00","0.0","0.0","7026.0","WXPOD 7026, AF","FM-15","4","30.01","72","81","","","","","74","","","","6.21","","000","","0","","","","","","","","","","","","","","","","","","","","","","","","","","","","","","","","","","","","","","","","","","","","","","","","","","","","","","","","","","","","","","","","","","","","","","","","","","","","","","","","","","","","","","","","","","","MET090MOBOB0 METAR 7026 //008 000000 241444Z AUTO 00000KT 9999 CLR 27/22 A3001 RMK CDP03661 CLR=","","","","","","","","","",""
"00702699999","2016-06-24T19:29:00","0.0","0.0","7026.0","WXPOD 7026, AF","FM-15","4","30.02","72","81","","","","","74","","","","6.21","","000","","0","","","","","","","","","","","","","","","","","","","","","","","","","","","","","","","","","","","","","","","","","","","","","","","","","","","","","","","","","","","","","","","","","","","","","","","","","","","","","","","","","","","","","","","","","","","MET090MOBOB0 METAR 7026 //008 000000 241459Z AUTO 00000KT 9999 CLR 27/22 A3002 RMK CDP03661 CLR=","","","","","","","","","",""
"00702699999","2016-06-24T19:44:00","0.0","0.0","7026.0","WXPOD 7026, AF","FM-15","4","30.02","72","81","","","","","74","FEW:02 118","","","6.21","","000","","0","","","","","","","","","","","","","","","","","","","","","","","","","","","","","","","","","","","","","","","","","","","","","","","","","","","","","","","","","","","","","","","","","","","","","","","","","","","","","","","","","","","","","","","","","","","MET108MOBOB0 METAR 7026 //008 000000 241514Z AUTO 00000KT 9999 FEW118 27/22 A3002 RMK CDP03661 FEW118 CLD AVG 118=","","","","","","","","","",""
"00702699999","2016-06-24T19:59:00","0.0","0.0","7026.0","WXPOD 7026, AF","FM-15","4","30.02","72","81","","","","","74","","","","","","000","","0","","","","","","","","","","","","","","","","","","","","","","","","","","","","","","","","","","","","","","","","","","","","","","","","","","","","","","","","","","","","","","","","","","","","","","","","","","","","","","","","","","","","","","","","","","","MET090MOBOB0 METAR 7026 //008 000000 241529Z AUTO 00000KT //// CLR 27/22 A3002 RMK CDP03661 CLR=","","","","","","","","","",""
"00702699999","2016-06-24T20:14:00","0.0","0.0","7026.0","WXPOD 7026, AF","FM-15","4","30.03","72","79","","","","","79","FEW:02 107","","","6.21","","000","","0","","","","","","","","","","","","","","","","","","","","","","","","","","","","","","","","","","","","","","","","","","","","","","","","","","","","","","","","","","","","","","","","","","","","","","","","","","","","","","","","","","","","","","","","","","","MET108MOBOB0 METAR 7026 //008 000000 241544Z AUTO 00000KT 9999 FEW107 26/22 A3003 RMK CDP03661 FEW107 CLD AVG 107=","","","","","","","","","",""
"00702699999","2016-06-24T20:29:00","0.0","0.0","7026.0","WXPOD 7026, AF","FM-15","4","30.02","72","81","","","","","74","","","","6.21","","000","","0","","","","","","","","","","","","","","","","","","","","","","","","","","","","","","","","","","","","","","","","","","","","","","","","","","","","","","","","","","","","","","","","","","","","","","","","","","","","","","","","","","","","","","","","","","","MET090MOBOB0 METAR 7026 //008 000000 241559Z AUTO 00000KT 9999 CLR 27/22 A3002 RMK CDP03661 CLR=","","","","","","","","","",""
"00702699999","2016-06-24T20:44:00","0.0","0.0","7026.0","WXPOD 7026, AF","FM-15","4","30.02","72","82","","","","","70","","","","6.21","","000","","0","","","","","","","","","","","","","","","","","","","","","","","","","","","","","","","","","","","","","","","","","","","","","","","","","","","","","","","","","","","","","","","","","","","","","","","","","","","","","","","","","","","","","","","","","","","MET090MOBOB0 METAR 7026 //008 000000 241614Z AUTO 00000KT 9999 CLR 28/22 A3002 RMK CDP03661 CLR=","","","","","","","","","",""
"00702699999","2016-06-24T20:59:00","0.0","0.0","7026.0","WXPOD 7026, AF","FM-15","4","30.02","72","82","","","","","70","","","","6.21","","000","","0","","","","","","","","","","","","","","","","","","","","","","","","","","","","","","","","","","","","","","","","","","","","","","","","","","","","","","","","","","","","","","","","","","","","","","","","","","","","","","","","","","","","","","","","","","","MET090MOBOB0 METAR 7026 //008 000000 241629Z AUTO 00000KT 9999 CLR 28/22 A3002 RMK CDP03661 CLR=","","","","","","","","","",""
"00702699999","2016-06-24T21:15:00","0.0","0.0","7026.0","WXPOD 7026, AF","FM-15","4","30.02","72","82","","","","","70","","","","6.21","","000","","0","","","","","","","","","","","","","","","","","","","","","","","","","","","","","","","","","","","","","","","","","","","","","","","","","","","","","","","","","","","","","","","","","","","","","","","","","","","","","","","","","","","","","","","","","","","MET090MOBOB0 METAR 7026 //008 000000 241645Z AUTO 00000KT 9999 CLR 28/22 A3002 RMK CDP03661 CLR=","","","","","","","","","",""
"00702699999","2016-06-24T21:44:00","0.0","0.0","7026.0","WXPOD 7026, AF","FM-15","4","30.02","72","84","","","","","66","","","","","","000","","0","","","","","","","","","","","","","","","","","","","","","","","","","","","","","","","","","","","","","","","","","","","","","","","","","","","","","","","","","","","","","","","","","","","","","","","","","","","","","","","","","","","","","","","","","","","MET069MOBOB0 METAR 7026 //008 000000 241714Z AUTO 00000KT //// 29/22 A3002=","","","","","","","","","",""
"00702699999","2016-06-24T21:59:00","0.0","0.0","7026.0","WXPOD 7026, AF","FM-15","4","30.02","72","86","","","","","62","","","","","","000","","0","","","","","","","","","","","","","","","","","","","","","","","","","","","","","","","","","","","","","","","","","","","","","","","","","","","","","","","","","","","","","","","","","","","","","","","","","","","","","","","","","","","","","","","","","","","MET090MOBOB0 METAR 7026 //008 000000 241729Z AUTO 00000KT //// CLR 30/22 A3002 RMK CDP03661 CLR=","","","","","","","","","",""
"00702699999","2016-06-24T22:14:00","0.0","0.0","7026.0","WXPOD 7026, AF","FM-15","4","30.02","72","86","","","","","62","","","","6.21","","000","","0","","","","","","","","","","","","","","","","","","","","","","","","","","","","","","","","","","","","","","","","","","","","","","","","","","","","","","","","","","","","","","","","","","","","","","","","","","","","","","","","","","","","","","","","","","","MET090MOBOB0 METAR 7026 //008 000000 241744Z AUTO 00000KT 9999 CLR 30/22 A3002 RMK CDP03661 CLR=","","","","","","","","","",""
"00702699999","2016-06-24T22:29:00","0.0","0.0","7026.0","WXPOD 7026, AF","FM-15","4","30.01","72","88","","","","","59","","","","","","000","","0","","","","","","","","","","","","","","","","","","","","","","","","","","","","","","","","","","","","","","","","","","","","","","","","","","","","","","","","","","","","","","","","","","","","","","","","","","","","","","","","","","","","","","","","","","","MET090MOBOB0 METAR 7026 //008 000000 241759Z AUTO 00000KT //// CLR 31/22 A3001 RMK CDP03661 CLR=","","","","","","","","","",""
"00702699999","2016-06-24T22:44:00","0.0","0.0","7026.0","WXPOD 7026, AF","FM-15","4","30.01","70","88","","","","","55","","","","6.21","","000","","0","","","","","","","","","","","","","","","","","","","","","","","","","","","","","","","","","","","","","","","","","","","","","","","","","","","","","","","","","","","","","","","","","","","","","","","","","","","","","","","","","","","","","","","","","","","MET090MOBOB0 METAR 7026 //008 000000 241814Z AUTO 00000KT 9999 CLR 31/21 A3001 RMK CDP03661 CLR=","","","","","","","","","",""
"00702699999","2016-06-24T22:59:00","0.0","0.0","7026.0","WXPOD 7026, AF","FM-15","4","30.01","72","88","","","","","59","","","","6.21","","000","","0","","","","","","","","","","","","","","","","","","","","","","","","","","","","","","","","","","","","","","","","","","","","","","","","","","","","","","","","","","","","","","","","","","","","","","","","","","","","","","","","","","","","","","","","","","","MET090MOBOB0 METAR 7026 //008 000000 241829Z AUTO 00000KT 9999 CLR 31/22 A3001 RMK CDP03661 CLR=","","","","","","","","","",""
"00702699999","2016-06-24T23:14:00","0.0","0.0","7026.0","WXPOD 7026, AF","FM-15","4","30.01","72","88","","","","","59","","","","6.21","","000","","0","","","","","","","","","","","","","","","","","","","","","","","","","","","","","","","","","","","","","","","","","","","","","","","","","","","","","","","","","","","","","","","","","","","","","","","","","","","","","","","","","","","","","","","","","","","MET090MOBOB0 METAR 7026 //008 000000 241844Z AUTO 00000KT 9999 CLR 31/22 A3001 RMK CDP03661 CLR=","","","","","","","","","",""
"00702699999","2016-06-24T23:29:00","0.0","0.0","7026.0","WXPOD 7026, AF","FM-15","4","30.00","72","88","","","","","59","","","","6.21","","000","","0","","","","","","","","","","","","","","","","","","","","","","","","","","","","","","","","","","","","","","","","","","","","","","","","","","","","","","","","","","","","","","","","","","","","","","","","","","","","","","","","","","","","","","","","","","","MET090MOBOB0 METAR 7026 //008 000000 241859Z AUTO 00000KT 9999 CLR 31/22 A3000 RMK CDP03661 CLR=","","","","","","","","","",""
"00702699999","2016-06-24T23:44:00","0.0","0.0","7026.0","WXPOD 7026, AF","FM-15","4","30.01","72","88","","","","","59","","","","6.21","","000","","0","","","","","","","","","","","","","","","","","","","","","","","","","","","","","","","","","","","","","","","","","","","","","","","","","","","","","","","","","","","","","","","","","","","","","","","","","","","","","","","","","","","","","","","","","","","MET090MOBOB0 METAR 7026 //008 000000 241914Z AUTO 00000KT 9999 CLR 31/22 A3001 RMK CDP03661 CLR=","","","","","","","","","",""
"00702699999","2016-06-24T23:59:00","0.0","0.0","7026.0","WXPOD 7026, AF","FM-15","4","30.00","73","90","","","","","59","","","","6.21","","000","","0","","","","","","","","","","","","","","","","","","","","","","","","","","","","","","","","","","","","","","","","","","","","","","","","","","","","","","","","","","","","","","","","","","","","","","","","","","","","","","","","","","","","","","","","","","","MET090MOBOB0 METAR 7026 //008 000000 241929Z AUTO 00000KT 9999 CLR 32/23 A3000 RMK CDP03661 CLR=","","","","","","","","","",""
"00702699999","2016-06-25T00:14:00","0.0","0.0","7026.0","WXPOD 7026, AF","FM-15","4","30.00","72","88","","","","","59","","","","6.21","","000","","0","","","","","","","","","","","","","","","","","","","","","","","","","","","","","","","","","","","","","","","","","","","","","","","","","","","","","","","","","","","","","","","","","","","","","","","","","","","","","","","","","","","","","","","","","","","MET090MOBOB0 METAR 7026 //008 000000 241944Z AUTO 00000KT 9999 CLR 31/22 A3000 RMK CDP03661 CLR=","","","","","","","","","",""
"00702699999","2016-06-25T00:29:00","0.0","0.0","7026.0","WXPOD 7026, AF","FM-15","4","30.01","72","88","","","","","59","","","","","","000","","0","","","","","","","","","","","","","","","","","","","","","","","","","","","","","","","","","","","","","","","","","","","","","","","","","","","","","","","","","","","","","","","","","","","","","","","","","","","","","","","","","","","","","","","","","","","MET090MOBOB0 METAR 7026 //008 000000 241959Z AUTO 00000KT //// CLR 31/22 A3001 RMK CDP03661 CLR=","","","","","","","","","",""
"00702699999","2016-06-25T00:44:00","0.0","0.0","7026.0","WXPOD 7026, AF","FM-15","4","29.99","72","90","","","","","55","","","","6.21","","000","","0","","","","","","","","","","","","","","","","","","","","","","","","","","","","","","","","","","","","","","","","","","","","","","","","","","","","","","","","","","","","","","","","","","","","","","","","","","","","","","","","","","","","","","","","","","","MET090MOBOB0 METAR 7026 //008 000000 242014Z AUTO 00000KT 9999 CLR 32/22 A2999 RMK CDP03661 CLR=","","","","","","","","","",""
"00702699999","2016-06-25T00:59:00","0.0","0.0","7026.0","WXPOD 7026, AF","FM-15","4","29.98","73","90","","","","","59","","","","6.21","","000","","0","","","","","","","","","","","","","","","","","","","","","","","","","","","","","","","","","","","","","","","","","","","","","","","","","","","","","","","","","","","","","","","","","","","","","","","","","","","","","","","","","","","","","","","","","","","MET090MOBOB0 METAR 7026 //008 000000 242029Z AUTO 00000KT 9999 CLR 32/23 A2998 RMK CDP03661 CLR=","","","","","","","","","",""
"00702699999","2016-06-25T01:14:00","0.0","0.0","7026.0","WXPOD 7026, AF","FM-15","4","29.98","72","90","","","","","55","","","","6.21","","000","","0","","","","","","","","","","","","","","","","","","","","","","","","","","","","","","","","","","","","","","","","","","","","","","","","","","","","","","","","","","","","","","","","","","","","","","","","","","","","","","","","","","","","","","","","","","","MET090MOBOB0 METAR 7026 //008 000000 242044Z AUTO 00000KT 9999 CLR 32/22 A2998 RMK CDP03661 CLR=","","","","","","","","","",""
"00702699999","2016-06-25T01:29:00","0.0","0.0","7026.0","WXPOD 7026, AF","FM-15","4","29.98","70","90","","","","","52","","","","6.21","","000","","0","","","","","","","","","","","","","","","","","","","","","","","","","","","","","","","","","","","","","","","","","","","","","","","","","","","","","","","","","","","","","","","","","","","","","","","","","","","","","","","","","","","","","","","","","","","MET090MOBOB0 METAR 7026 //008 000000 242059Z AUTO 00000KT 9999 CLR 32/21 A2998 RMK CDP03661 CLR=","","","","","","","","","",""
"00702699999","2016-06-25T01:44:00","0.0","0.0","7026.0","WXPOD 7026, AF","FM-15","4","29.99","70","91","","","","","49","","","","","","000","","0","","","","","","","","","","","","","","","","","","","","","","","","","","","","","","","","","","","","","","","","","","","","","","","","","","","","","","","","","","","","","","","","","","","","","","","","","","","","","","","","","","","","","","","","","","","MET090MOBOB0 METAR 7026 //008 000000 242114Z AUTO 00000KT //// CLR 33/21 A2999 RMK CDP03661 CLR=","","","","","","","","","",""
"00702699999","2016-06-25T01:59:00","0.0","0.0","7026.0","WXPOD 7026, AF","FM-15","4","29.99","70","91","","","","","49","","","","6.21","","000","","0","","","","","","","","","","","","","","","","","","","","","","","","","","","","","","","","","","","","","","","","","","","","","","","","","","","","","","","","","","","","","","","","","","","","","","","","","","","","","","","","","","","","","","","","","","","MET090MOBOB0 METAR 7026 //008 000000 242129Z AUTO 00000KT 9999 CLR 33/21 A2999 RMK CDP03661 CLR=","","","","","","","","","",""
"00702699999","2016-06-25T02:14:00","0.0","0.0","7026.0","WXPOD 7026, AF","FM-15","4","29.98","70","91","","","","","49","","","","","","000","","0","","","","","","","","","","","","","","","","","","","","","","","","","","","","","","","","","","","","","","","","","","","","","","","","","","","","","","","","","","","","","","","","","","","","","","","","","","","","","","","","","","","","","","","","","","","MET090MOBOB0 METAR 7026 //008 000000 242144Z AUTO 00000KT //// CLR 33/21 A2998 RMK CDP03661 CLR=","","","","","","","","","",""
"00702699999","2016-06-25T02:29:00","0.0","0.0","7026.0","WXPOD 7026, AF","FM-15","4","29.98","70","91","","","","","49","","","","6.21","","000","","0","","","","","","","","","","","","","","","","","","","","","","","","","","","","","","","","","","","","","","","","","","","","","","","","","","","","","","","","","","","","","","","","","","","","","","","","","","","","","","","","","","","","","","","","","","","MET090MOBOB0 METAR 7026 //008 000000 242159Z AUTO 00000KT 9999 CLR 33/21 A2998 RMK CDP03661 CLR=","","","","","","","","","",""
"00702699999","2016-06-25T02:44:00","0.0","0.0","7026.0","WXPOD 7026, AF","FM-15","4","29.98","70","91","","","","","49","","","","","","000","","0","","","","","","","","","","","","","","","","","","","","","","","","","","","","","","","","","","","","","","","","","","","","","","","","","","","","","","","","","","","","","","","","","","","","","","","","","","","","","","","","","","","","","","","","","","","MET090MOBOB0 METAR 7026 //008 000000 242214Z AUTO 00000KT //// CLR 33/21 A2998 RMK CDP03661 CLR=","","","","","","","","","",""
"00702699999","2016-06-25T02:59:00","0.0","0.0","7026.0","WXPOD 7026, AF","FM-15","4","29.98","70","91","","","","","49","","","","6.21","","000","","0","","","","","","","","","","","","","","","","","","","","","","","","","","","","","","","","","","","","","","","","","","","","","","","","","","","","","","","","","","","","","","","","","","","","","","","","","","","","","","","","","","","","","","","","","","","MET090MOBOB0 METAR 7026 //008 000000 242229Z AUTO 00000KT 9999 CLR 33/21 A2998 RMK CDP03661 CLR=","","","","","","","","","",""
"00702699999","2016-06-25T03:14:00","0.0","0.0","7026.0","WXPOD 7026, AF","FM-15","4","29.98","70","93","","","","","47","","","","6.21","","000","","0","","","","","","","","","","","","","","","","","","","","","","","","","","","","","","","","","","","","","","","","","","","","","","","","","","","","","","","","","","","","","","","","","","","","","","","","","","","","","","","","","","","","","","","","","","","MET090MOBOB0 METAR 7026 //008 000000 242244Z AUTO 00000KT 9999 CLR 34/21 A2998 RMK CDP03661 CLR=","","","","","","","","","",""
"00702699999","2016-06-25T03:29:00","0.0","0.0","7026.0","WXPOD 7026, AF","FM-15","4","29.98","70","91","","","","","49","","","","6.21","","000","","0","","","","","","","","","","","","","","","","","","","","","","","","","","","","","","","","","","","","","","","","","","","","","","","","","","","","","","","","","","","","","","","","","","","","","","","","","","","","","","","","","","","","","","","","","","","MET090MOBOB0 METAR 7026 //008 000000 242259Z AUTO 00000KT 9999 CLR 33/21 A2998 RMK CDP03661 CLR=","","","","","","","","","",""
"00702699999","2016-06-25T03:44:00","0.0","0.0","7026.0","WXPOD 7026, AF","FM-15","4","29.98","70","91","","","","","49","","","","6.21","","000","","0","","","","","","","","","","","","","","","","","","","","","","","","","","","","","","","","","","","","","","","","","","","","","","","","","","","","","","","","","","","","","","","","","","","","","","","","","","","","","","","","","","","","","","","","","","","MET090MOBOB0 METAR 7026 //008 000000 242314Z AUTO 00000KT 9999 CLR 33/21 A2998 RMK CDP03661 CLR=","","","","","","","","","",""
"00702699999","2016-06-25T03:59:00","0.0","0.0","7026.0","WXPOD 7026, AF","FM-15","4","29.98","70","90","","","","","52","","","","6.21","","000","","0","","","","","","","","","","","","","","","","","","","","","","","","","","","","","","","","","","","","","","","","","","","","","","","","","","","","","","","","","","","","","","","","","","","","","","","","","","","","","","","","","","","","","","","","","","","MET090MOBOB0 METAR 7026 //008 000000 242329Z AUTO 00000KT 9999 CLR 32/21 A2998 RMK CDP03661 CLR=","","","","","","","","","",""
"00702699999","2016-06-25T04:14:00","0.0","0.0","7026.0","WXPOD 7026, AF","FM-15","4","29.99","72","90","","","","","55","","","","","","000","","0","","","","","","","","","","","","","","","","","","","","","","","","","","","","","","","","","","","","","","","","","","","","","","","","","","","","","","","","","","","","","","","","","","","","","","","","","","","","","","","","","","","","","","","","","","","MET090MOBOB0 METAR 7026 //008 000000 242344Z AUTO 00000KT //// CLR 32/22 A2999 RMK CDP03661 CLR=","","","","","","","","","",""
"00702699999","2016-06-25T04:29:00","0.0","0.0","7026.0","WXPOD 7026, AF","FM-15","4","30.00","72","88","","","","","59","","","","6.21","","000","","0","","","","","","","","","","","","","","","","","","","","","","","","","","","","","","","","","","","","","","","","","","","","","","","","","","","","","","","","","","","","","","","","","","","","","","","","","","","","","","","","","","","","","","","","","","","MET090MOBOB0 METAR 7026 //008 000000 242359Z AUTO 00000KT 9999 CLR 31/22 A3000 RMK CDP03661 CLR=","","","","","","","","","",""
"00702699999","2016-06-25T04:44:00","0.0","0.0","7026.0","WXPOD 7026, AF","FM-15","4","30.01","73","86","","","","","66","","","","6.21","","000","","0","","","","","","","","","","","","","","","","","","","","","","","","","","","","","","","","","","","","","","","","","","","","","","","","","","","","","","","","","","","","","","","","","","","","","","","","","","","","","","","","","","","","","","","","","","","MET090MOBOB0 METAR 7026 //008 000000 250014Z AUTO 00000KT 9999 CLR 30/23 A3001 RMK CDP03661 CLR=","","","","","","","","","",""
"00702699999","2016-06-25T04:59:00","0.0","0.0","7026.0","WXPOD 7026, AF","FM-15","4","30.00","73","86","","|FU |","","","66","","","","6.21","","000","","0","","","","","","","","","","","","","","","","","","","","","","","","","","","","","","","","","","","","","","","","","","","","","","","","","","","","","","","","","","","","","","","","","","","","","","","","","","","","","","","","","","","","","","","","","","","MET093MOBOB0 METAR 7026 //008 000000 250029Z AUTO 00000KT 9999 HZ CLR 30/23 A3000 RMK CDP03661 CLR=","","","","","","","","","",""
"00702699999","2016-06-25T05:14:00","0.0","0.0","7026.0","WXPOD 7026, AF","FM-15","4","30.00","73","84","","|FU |","","","70","","","","6.21","","000","","0","","","","","","","","","","","","","","","","","","","","","","","","","","","","","","","","","","","","","","","","","","","","","","","","","","","","","","","","","","","","","","","","","","","","","","","","","","","","","","","","","","","","","","","","","","","MET093MOBOB0 METAR 7026 //008 000000 250044Z AUTO 00000KT 9999 HZ CLR 29/23 A3000 RMK CDP03661 CLR=","","","","","","","","","",""
"00702699999","2016-06-25T05:29:00","0.0","0.0","7026.0","WXPOD 7026, AF","FM-15","4","30.00","73","84","","|FU |","","","70","","","","6.21","","000","","0","","","","","","","","","","","","","","","","","","","","","","","","","","","","","","","","","","","","","","","","","","","","","","","","","","","","","","","","","","","","","","","","","","","","","","","","","","","","","","","","","","","","","","","","","","","MET093MOBOB0 METAR 7026 //008 000000 250059Z AUTO 00000KT 9999 HZ CLR 29/23 A3000 RMK CDP03661 CLR=","","","","","","","","","",""
"00702699999","2016-06-25T05:44:00","0.0","0.0","7026.0","WXPOD 7026, AF","FM-15","4","30.02","73","84","","","","","70","FEW:02 93","","","6.21","","000","","0","","","","","","","","","","","","","","","","","","","","","","","","","","","","","","","","","","","","","","","","","","","","","","","","","","","","","","","","","","","","","","","","","","","","","","","","","","","","","","","","","","","","","","","","","","","MET108MOBOB0 METAR 7026 //008 000000 250114Z AUTO 00000KT 9999 FEW093 29/23 A3002 RMK CDP03661 FEW093 CLD AVG 093=","","","","","","","","","",""
"00702699999","2016-06-25T05:59:00","0.0","0.0","7026.0","WXPOD 7026, AF","FM-15","4","30.03","72","82","","|FU |","","","70","","","","6.21","","000","","0","","","","","","","","","","","","","","","","","","","","","","","","","","","","","","","","","","","","","","","","","","","","","","","","","","","","","","","","","","","","","","","","","","","","","","","","","","","","","","","","","","","","","","","","","","","MET093MOBOB0 METAR 7026 //008 000000 250129Z AUTO 00000KT 9999 HZ CLR 28/22 A3003 RMK CDP03661 CLR=","","","","","","","","","",""
"00702699999","2016-06-25T06:14:00","0.0","0.0","7026.0","WXPOD 7026, AF","FM-15","4","30.03","73","82","","","","","74","","","","","","000","","0","","","","","","","","","","","","","","","","","","","","","","","","","","","","","","","","","","","","","","","","","","","","","","","","","","","","","","","","","","","","","","","","","","","","","","","","","","","","","","","","","","","","","","","","","","","MET090MOBOB0 METAR 7026 //008 000000 250144Z AUTO 00000KT //// CLR 28/23 A3003 RMK CDP03661 CLR=","","","","","","","","","",""
"00702699999","2016-06-25T06:29:00","0.0","0.0","7026.0","WXPOD 7026, AF","FM-15","4","30.03","73","81","","","","","79","FEW:02 30","","","6.21","","000","","0","","","","","","","","","","","","","","","","","","","","","","","","","","","","","","","","","","","","","","","","","","","","","","","","","","","","","","","","","","","","","","","","","","","","","","","","","","","","","","","","","","","","","","","","","","","MET108MOBOB0 METAR 7026 //008 000000 250159Z AUTO 00000KT 9999 FEW030 27/23 A3003 RMK CDP03661 FEW030 CLD AVG 031=","","","","","","","","","",""
"00702699999","2016-06-25T06:44:00","0.0","0.0","7026.0","WXPOD 7026, AF","FM-15","4","30.03","73","81","","","","","79","FEW:02 94","","","","","000","","0","","","","","","","","","","","","","","","","","","","","","","","","","","","","","","","","","","","","","","","","","","","","","","","","","","","","","","","","","","","","","","","","","","","","","","","","","","","","","","","","","","","","","","","","","","","MET108MOBOB0 METAR 7026 //008 000000 250214Z AUTO 00000KT //// FEW094 27/23 A3003 RMK CDP03661 FEW094 CLD AVG 094=","","","","","","","","","",""
"00702699999","2016-06-25T06:59:00","0.0","0.0","7026.0","WXPOD 7026, AF","FM-15","4","30.03","73","81","","|FU |","","","79","FEW:02 109","","","6.21","","000","","0","","","","","","","","","","","","","","","","","","","","","","","","","","","","","","","","","","","","","","","","","","","","","","","","","","","","","","","","","","","","","","","","","","","","","","","","","","","","","","","","","","","","","","","","","","","MET111MOBOB0 METAR 7026 //008 000000 250229Z AUTO 00000KT 9999 HZ FEW109 27/23 A3003 RMK CDP03661 FEW109 CLD AVG 109=","","","","","","","","","",""
"00702699999","2016-06-25T07:14:00","0.0","0.0","7026.0","WXPOD 7026, AF","FM-15","4","30.02","73","81","","","","","79","","","","6.21","","000","","0","","","","","","","","","","","","","","","","","","","","","","","","","","","","","","","","","","","","","","","","","","","","","","","","","","","","","","","","","","","","","","","","","","","","","","","","","","","","","","","","","","","","","","","","","","","MET090MOBOB0 METAR 7026 //008 000000 250244Z AUTO 00000KT 9999 CLR 27/23 A3002 RMK CDP03661 CLR=","","","","","","","","","",""
"00702699999","2016-06-25T07:29:00","0.0","0.0","7026.0","WXPOD 7026, AF","FM-15","4","30.02","73","81","","","","","79","FEW:02 108","","","6.21","","000","","0","","","","","","","","","","","","","","","","","","","","","","","","","","","","","","","","","","","","","","","","","","","","","","","","","","","","","","","","","","","","","","","","","","","","","","","","","","","","","","","","","","","","","","","","","","","MET108MOBOB0 METAR 7026 //008 000000 250259Z AUTO 00000KT 9999 FEW108 27/23 A3002 RMK CDP03661 FEW108 CLD AVG 108=","","","","","","","","","",""
"00702699999","2016-06-25T07:44:00","0.0","0.0","7026.0","WXPOD 7026, AF","FM-15","4","30.02","73","81","","|FU |","","","79","FEW:02 110","","","6.21","","000","","0","","","","","","","","","","","","","","","","","","","","","","","","","","","","","","","","","","","","","","","","","","","","","","","","","","","","","","","","","","","","","","","","","","","","","","","","","","","","","","","","","","","","","","","","","","","MET111MOBOB0 METAR 7026 //008 000000 250314Z AUTO 00000KT 9999 HZ FEW110 27/23 A3002 RMK CDP03661 FEW110 CLD AVG 110=","","","","","","","","","",""
"00702699999","2016-06-25T07:59:00","0.0","0.0","7026.0","WXPOD 7026, AF","FM-15","4","30.02","73","81","","","","","79","","","","","","000","","0","","","","","","","","","","","","","","","","","","","","","","","","","","","","","","","","","","","","","","","","","","","","","","","","","","","","","","","","","","","","","","","","","","","","","","","","","","","","","","","","","","","","","","","","","","","MET090MOBOB0 METAR 7026 //008 000000 250329Z AUTO 00000KT //// CLR 27/23 A3002 RMK CDP03661 CLR=","","","","","","","","","",""
"00702699999","2016-06-25T08:14:00","0.0","0.0","7026.0","WXPOD 7026, AF","FM-15","4","30.02","72","79","","","","","79","","","","6.21","","000","","0","","","","","","","","","","","","","","","","","","","","","","","","","","","","","","","","","","","","","","","","","","","","","","","","","","","","","","","","","","","","","","","","","","","","","","","","","","","","","","","","","","","","","","","","","","","MET090MOBOB0 METAR 7026 //008 000000 250344Z AUTO 00000KT 9999 CLR 26/22 A3002 RMK CDP03661 CLR=","","","","","","","","","",""
"00702699999","2016-06-25T08:29:00","0.0","0.0","7026.0","WXPOD 7026, AF","FM-15","4","30.02","72","79","","","","","79","","","","","","000","","0","","","","","","","","","","","","","","","","","","","","","","","","","","","","","","","","","","","","","","","","","","","","","","","","","","","","","","","","","","","","","","","","","","","","","","","","","","","","","","","","","","","","","","","","","","","MET090MOBOB0 METAR 7026 //008 000000 250359Z AUTO 00000KT //// CLR 26/22 A3002 RMK CDP03661 CLR=","","","","","","","","","",""
"00702699999","2016-06-25T08:44:00","0.0","0.0","7026.0","WXPOD 7026, AF","FM-15","4","30.02","73","79","","","","","84","","","","6.21","","000","","0","","","","","","","","","","","","","","","","","","","","","","","","","","","","","","","","","","","","","","","","","","","","","","","","","","","","","","","","","","","","","","","","","","","","","","","","","","","","","","","","","","","","","","","","","","","MET090MOBOB0 METAR 7026 //008 000000 250414Z AUTO 00000KT 9999 CLR 26/23 A3002 RMK CDP03661 CLR=","","","","","","","","","",""
"00702699999","2016-06-25T08:59:00","0.0","0.0","7026.0","WXPOD 7026, AF","FM-15","4","30.02","73","79","","","","","84","","","","","","000","","0","","","","","","","","","","","","","","","","","","","","","","","","","","","","","","","","","","","","","","","","","","","","","","","","","","","","","","","","","","","","","","","","","","","","","","","","","","","","","","","","","","","","","","","","","","","MET090MOBOB0 METAR 7026 //008 000000 250429Z AUTO 00000KT //// CLR 26/23 A3002 RMK CDP03661 CLR=","","","","","","","","","",""
"00702699999","2016-06-25T09:14:00","0.0","0.0","7026.0","WXPOD 7026, AF","FM-15","4","30.02","73","79","","|FU |","","","84","","","","6.21","","000","","0","","","","","","","","","","","","","","","","","","","","","","","","","","","","","","","","","","","","","","","","","","","","","","","","","","","","","","","","","","","","","","","","","","","","","","","","","","","","","","","","","","","","","","","","","","","MET093MOBOB0 METAR 7026 //008 000000 250444Z AUTO 00000KT 9999 HZ CLR 26/23 A3002 RMK CDP03661 CLR=","","","","","","","","","",""
"00702699999","2016-06-25T09:29:00","0.0","0.0","7026.0","WXPOD 7026, AF","FM-15","4","30.02","72","77","","|FU |","","","83","","","","6.21","","000","","0","","","","","","","","","","","","","","","","","","","","","","","","","","","","","","","","","","","","","","","","","","","","","","","","","","","","","","","","","","","","","","","","","","","","","","","","","","","","","","","","","","","","","","","","","","","MET093MOBOB0 METAR 7026 //008 000000 250459Z AUTO 00000KT 9999 HZ CLR 25/22 A3002 RMK CDP03661 CLR=","","","","","","","","","",""
"00702699999","2016-06-25T09:44:00","0.0","0.0","7026.0","WXPOD 7026, AF","FM-15","4","30.02","72","77","","|FU |","","","83","","","","6.21","","000","","0","","","","","","","","","","","","","","","","","","","","","","","","","","","","","","","","","","","","","","","","","","","","","","","","","","","","","","","","","","","","","","","","","","","","","","","","","","","","","","","","","","","","","","","","","","","MET093MOBOB0 METAR 7026 //008 000000 250514Z AUTO 00000KT 9999 HZ CLR 25/22 A3002 RMK CDP03661 CLR=","","","","","","","","","",""
"00702699999","2016-06-25T09:59:00","0.0","0.0","7026.0","WXPOD 7026, AF","FM-15","4","30.02","72","77","","|FU |","","","83","","","","6.21","","000","","0","","","","","","","","","","","","","","","","","","","","","","","","","","","","","","","","","","","","","","","","","","","","","","","","","","","","","","","","","","","","","","","","","","","","","","","","","","","","","","","","","","","","","","","","","","","MET093MOBOB0 METAR 7026 //008 000000 250529Z AUTO 00000KT 9999 HZ CLR 25/22 A3002 RMK CDP03661 CLR=","","","","","","","","","",""
"00702699999","2016-06-25T10:14:00","0.0","0.0","7026.0","WXPOD 7026, AF","FM-15","4","30.02","72","77","","|FU |","","","83","","","","6.21","","000","","0","","","","","","","","","","","","","","","","","","","","","","","","","","","","","","","","","","","","","","","","","","","","","","","","","","","","","","","","","","","","","","","","","","","","","","","","","","","","","","","","","","","","","","","","","","","MET093MOBOB0 METAR 7026 //008 000000 250544Z AUTO 00000KT 9999 HZ CLR 25/22 A3002 RMK CDP03661 CLR=","","","","","","","","","",""
"00702699999","2016-06-25T10:29:00","0.0","0.0","7026.0","WXPOD 7026, AF","FM-15","4","30.02","72","77","","|FU |","","","83","","","","6.21","","000","","0","","","","","","","","","","","","","","","","","","","","","","","","","","","","","","","","","","","","","","","","","","","","","","","","","","","","","","","","","","","","","","","","","","","","","","","","","","","","","","","","","","","","","","","","","","","MET093MOBOB0 METAR 7026 //008 000000 250559Z AUTO 00000KT 9999 HZ CLR 25/22 A3002 RMK CDP03661 CLR=","","","","","","","","","",""
"00702699999","2016-06-25T10:44:00","0.0","0.0","7026.0","WXPOD 7026, AF","FM-15","4","30.02","72","77","","|FU |","","","83","","","","6.21","","000","","0","","","","","","","","","","","","","","","","","","","","","","","","","","","","","","","","","","","","","","","","","","","","","","","","","","","","","","","","","","","","","","","","","","","","","","","","","","","","","","","","","","","","","","","","","","","MET093MOBOB0 METAR 7026 //008 000000 250614Z AUTO 00000KT 9999 HZ CLR 25/22 A3002 RMK CDP03661 CLR=","","","","","","","","","",""
"00702699999","2016-06-25T10:59:00","0.0","0.0","7026.0","WXPOD 7026, AF","FM-15","4","30.02","72","77","","|FU |","","","83","","","","6.21","","000","","0","","","","","","","","","","","","","","","","","","","","","","","","","","","","","","","","","","","","","","","","","","","","","","","","","","","","","","","","","","","","","","","","","","","","","","","","","","","","","","","","","","","","","","","","","","","MET093MOBOB0 METAR 7026 //008 000000 250629Z AUTO 00000KT 9999 HZ CLR 25/22 A3002 RMK CDP03661 CLR=","","","","","","","","","",""
"00702699999","2016-06-25T11:14:00","0.0","0.0","7026.0","WXPOD 7026, AF","FM-15","4","30.02","73","75","","|FU |","","","94","","","","6.21","","000","","0","","","","","","","","","","","","","","","","","","","","","","","","","","","","","","","","","","","","","","","","","","","","","","","","","","","","","","","","","","","","","","","","","","","","","","","","","","","","","","","","","","","","","","","","","","","MET093MOBOB0 METAR 7026 //008 000000 250644Z AUTO 00000KT 9999 HZ CLR 24/23 A3002 RMK CDP03661 CLR=","","","","","","","","","",""
"00702699999","2016-06-25T11:29:00","0.0","0.0","7026.0","WXPOD 7026, AF","FM-15","4","30.02","72","75","","|FU |","","","89","","","","5.59","","000","","0","","","","","","","","","","","","","","","","","","","","","","","","","","","","","","","","","","","","","","","","","","","","","","","","","","","","","","","","","","","","","","","","","","","","","","","","","","","","","","","","","","","","","","","","","","","MET093MOBOB0 METAR 7026 //008 000000 250659Z AUTO 00000KT 9000 HZ CLR 24/22 A3002 RMK CDP03661 CLR=","","","","","","","","","",""
"00702699999","2016-06-25T11:44:00","0.0","0.0","7026.0","WXPOD 7026, AF","FM-15","4","30.02","72","75","","","","","89","","","","","","000","","0","","","","","","","","","","","","","","","","","","","","","","","","","","","","","","","","","","","","","","","","","","","","","","","","","","","","","","","","","","","","","","","","","","","","","","","","","","","","","","","","","","","","","","","","","","","MET090MOBOB0 METAR 7026 //008 000000 250714Z AUTO 00000KT //// CLR 24/22 A3002 RMK CDP03661 CLR=","","","","","","","","","",""
"00702699999","2016-06-25T11:59:00","0.0","0.0","7026.0","WXPOD 7026, AF","FM-15","4","30.02","72","75","","|FU |","","","89","","","","4.97","","000","","0","","","","","","","","","","","","","","","","","","","","","","","","","","","","","","","","","","","","","","","","","","","","","","","","","","","","","","","","","","","","","","","","","","","","","","","","","","","","","","","","","","","","","","","","","","","MET093MOBOB0 METAR 7026 //008 000000 250729Z AUTO 00000KT 8000 HZ CLR 24/22 A3002 RMK CDP03661 CLR=","","","","","","","","","",""
"00702699999","2016-06-25T12:14:00","0.0","0.0","7026.0","WXPOD 7026, AF","FM-15","4","30.02","72","75","","|FU |","","","89","","","","4.97","","000","","0","","","","","","","","","","","","","","","","","","","","","","","","","","","","","","","","","","","","","","","","","","","","","","","","","","","","","","","","","","","","","","","","","","","","","","","","","","","","","","","","","","","","","","","","","","","MET093MOBOB0 METAR 7026 //008 000000 250744Z AUTO 00000KT 8000 HZ CLR 24/22 A3002 RMK CDP03661 CLR=","","","","","","","","","",""
"00702699999","2016-06-25T12:29:00","0.0","0.0","7026.0","WXPOD 7026, AF","FM-15","4","30.02","73","75","","|FU |","","","94","","","","3.73","","000","","0","","","","","","","","","","","","","","","","","","","","","","","","","","","","","","","","","","","","","","","","","","","","","","","","","","","","","","","","","","","","","","","","","","","","","","","","","","","","","","","","","","","","","","","","","","","MET093MOBOB0 METAR 7026 //008 000000 250759Z AUTO 00000KT 6000 HZ CLR 24/23 A3002 RMK CDP03661 CLR=","","","","","","","","","",""
"00702699999","2016-06-25T12:44:00","0.0","0.0","7026.0","WXPOD 7026, AF","FM-15","4","30.01","72","75","","|FU |","","","89","","","","3.73","","000","","0","","","","","","","","","","","","","","","","","","","","","","","","","","","","","","","","","","","","","","","","","","","","","","","","","","","","","","","","","","","","","","","","","","","","","","","","","","","","","","","","","","","","","","","","","","","MET093MOBOB0 METAR 7026 //008 000000 250814Z AUTO 00000KT 6000 HZ CLR 24/22 A3001 RMK CDP03661 CLR=","","","","","","","","","",""
"00702699999","2016-06-25T12:59:00","0.0","0.0","7026.0","WXPOD 7026, AF","FM-15","4","30.02","72","75","","|FU |","","","89","","","","2.98","","000","","0","","","","","","","","","","","","","","","","","","","","","","","","","","","","","","","","","","","","","","","","","","","","","","","","","","","","","","","","","","","","","","","","","","","","","","","","","","","","","","","","","","","","","","","","","","","MET093MOBOB0 METAR 7026 //008 000000 250829Z AUTO 00000KT 4800 HZ CLR 24/22 A3002 RMK CDP03661 CLR=","","","","","","","","","",""
"00702699999","2016-06-25T13:14:00","0.0","0.0","7026.0","WXPOD 7026, AF","FM-15","4","30.03","72","75","","|FU |","","","89","","","","2.98","","000","","0","","","","","","","","","","","","","","","","","","","","","","","","","","","","","","","","","","","","","","","","","","","","","","","","","","","","","","","","","","","","","","","","","","","","","","","","","","","","","","","","","","","","","","","","","","","MET093MOBOB0 METAR 7026 //008 000000 250844Z AUTO 00000KT 4800 HZ CLR 24/22 A3003 RMK CDP03661 CLR=","","","","","","","","","",""
"00702699999","2016-06-25T13:29:00","0.0","0.0","7026.0","WXPOD 7026, AF","FM-15","4","30.03","72","73","","|FU |","","","94","","","","3.73","","000","","0","","","","","","","","","","","","","","","","","","","","","","","","","","","","","","","","","","","","","","","","","","","","","","","","","","","","","","","","","","","","","","","","","","","","","","","","","","","","","","","","","","","","","","","","","","","MET093MOBOB0 METAR 7026 //008 000000 250859Z AUTO 00000KT 6000 HZ CLR 23/22 A3003 RMK CDP03661 CLR=","","","","","","","","","",""
"00702699999","2016-06-25T13:44:00","0.0","0.0","7026.0","WXPOD 7026, AF","FM-15","4","30.03","72","73","","|FU |","","","94","","","","2.73","","000","","0","","","","","","","","","","","","","","","","","","","","","","","","","","","","","","","","","","","","","","","","","","","","","","","","","","","","","","","","","","","","","","","","","","","","","","","","","","","","","","","","","","","","","","","","","","","MET093MOBOB0 METAR 7026 //008 000000 250914Z AUTO 00000KT 4400 HZ CLR 23/22 A3003 RMK CDP03661 CLR=","","","","","","","","","",""
"00702699999","2016-06-25T13:59:00","0.0","0.0","7026.0","WXPOD 7026, AF","FM-15","4","30.04","72","73","","|FU |","","","94","FEW:02 36","","","3.73","","000","","0","","","","","","","","","","","","","","","","","","","","","","","","","","","","","","","","","","","","","","","","","","","","","","","","","","","","","","","","","","","","","","","","","","","","","","","","","","","","","","","","","","","","","","","","","","","MET111MOBOB0 METAR 7026 //008 000000 250929Z AUTO 00000KT 6000 HZ FEW036 23/22 A3004 RMK CDP03661 FEW036 CLD AVG 036=","","","","","","","","","",""
"00702699999","2016-06-25T14:14:00","0.0","0.0","7026.0","WXPOD 7026, AF","FM-15","4","30.04","72","73","","|FU |","","","94","","","","2.98","","000","","0","","","","","","","","","","","","","","","","","","","","","","","","","","","","","","","","","","","","","","","","","","","","","","","","","","","","","","","","","","","","","","","","","","","","","","","","","","","","","","","","","","","","","","","","","","","MET093MOBOB0 METAR 7026 //008 000000 250944Z AUTO 00000KT 4800 HZ CLR 23/22 A3004 RMK CDP03661 CLR=","","","","","","","","","",""
"00702699999","2016-06-25T14:29:00","0.0","0.0","7026.0","WXPOD 7026, AF","FM-15","4","30.05","72","73","","|FU |","","","94","","","","2.98","","000","","0","","","","","","","","","","","","","","","","","","","","","","","","","","","","","","","","","","","","","","","","","","","","","","","","","","","","","","","","","","","","","","","","","","","","","","","","","","","","","","","","","","","","","","","","","","","MET093MOBOB0 METAR 7026 //008 000000 250959Z AUTO 00000KT 4800 HZ CLR 23/22 A3005 RMK CDP03661 CLR=","","","","","","","","","",""
"00702699999","2016-06-25T14:44:00","0.0","0.0","7026.0","WXPOD 7026, AF","FM-15","4","30.05","72","73","","|FU |","","","94","","","","3.73","","000","","0","","","","","","","","","","","","","","","","","","","","","","","","","","","","","","","","","","","","","","","","","","","","","","","","","","","","","","","","","","","","","","","","","","","","","","","","","","","","","","","","","","","","","","","","","","","MET093MOBOB0 METAR 7026 //008 000000 251014Z AUTO 00000KT 6000 HZ CLR 23/22 A3005 RMK CDP03661 CLR=","","","","","","","","","",""
"00702699999","2016-06-25T14:59:00","0.0","0.0","7026.0","WXPOD 7026, AF","FM-15","4","30.05","72","73","","|FU |","","","94","","","","4.97","","000","","0","","","","","","","","","","","","","","","","","","","","","","","","","","","","","","","","","","","","","","","","","","","","","","","","","","","","","","","","","","","","","","","","","","","","","","","","","","","","","","","","","","","","","","","","","","","MET093MOBOB0 METAR 7026 //008 000000 251029Z AUTO 00000KT 8000 HZ CLR 23/22 A3005 RMK CDP03661 CLR=","","","","","","","","","",""
"00702699999","2016-06-25T15:14:00","0.0","0.0","7026.0","WXPOD 7026, AF","FM-15","4","30.06","72","75","","|FU |","","","89","","","","5.59","","000","","0","","","","","","","","","","","","","","","","","","","","","","","","","","","","","","","","","","","","","","","","","","","","","","","","","","","","","","","","","","","","","","","","","","","","","","","","","","","","","","","","","","","","","","","","","","","MET093MOBOB0 METAR 7026 //008 000000 251044Z AUTO 00000KT 9000 HZ CLR 24/22 A3006 RMK CDP03661 CLR=","","","","","","","","","",""
"00702699999","2016-06-25T15:29:00","0.0","0.0","7026.0","WXPOD 7026, AF","FM-15","4","30.06","72","75","","","","","89","","","","","","000","","0","","","","","","","","","","","","","","","","","","","","","","","","","","","","","","","","","","","","","","","","","","","","","","","","","","","","","","","","","","","","","","","","","","","","","","","","","","","","","","","","","","","","","","","","","","","MET090MOBOB0 METAR 7026 //008 000000 251059Z AUTO 00000KT //// CLR 24/22 A3006 RMK CDP03661 CLR=","","","","","","","","","",""
"00702699999","2016-06-25T15:44:00","0.0","0.0","7026.0","WXPOD 7026, AF","FM-15","4","30.06","72","77","","|FU |","","","83","","","","6.21","","000","","0","","","","","","","","","","","","","","","","","","","","","","","","","","","","","","","","","","","","","","","","","","","","","","","","","","","","","","","","","","","","","","","","","","","","","","","","","","","","","","","","","","","","","","","","","","","MET093MOBOB0 METAR 7026 //008 000000 251114Z AUTO 00000KT 9999 HZ CLR 25/22 A3006 RMK CDP03661 CLR=","","","","","","","","","",""
"00702699999","2016-06-25T15:59:00","0.0","0.0","7026.0","WXPOD 7026, AF","FM-15","4","30.06","72","77","","","","","83","","","","","","000","","0","","","","","","","","","","","","","","","","","","","","","","","","","","","","","","","","","","","","","","","","","","","","","","","","","","","","","","","","","","","","","","","","","","","","","","","","","","","","","","","","","","","","","","","","","","","MET090MOBOB0 METAR 7026 //008 000000 251129Z AUTO 00000KT //// CLR 25/22 A3006 RMK CDP03661 CLR=","","","","","","","","","",""
"00702699999","2016-06-25T16:14:00","0.0","0.0","7026.0","WXPOD 7026, AF","FM-15","4","30.07","72","77","","|FU |","","","83","","","","6.21","","000","","0","","","","","","","","","","","","","","","","","","","","","","","","","","","","","","","","","","","","","","","","","","","","","","","","","","","","","","","","","","","","","","","","","","","","","","","","","","","","","","","","","","","","","","","","","","","MET093MOBOB0 METAR 7026 //008 000000 251144Z AUTO 00000KT 9999 HZ CLR 25/22 A3007 RMK CDP03661 CLR=","","","","","","","","","",""
"00702699999","2016-06-25T16:29:00","0.0","0.0","7026.0","WXPOD 7026, AF","FM-15","4","30.07","72","79","","|FU |","","","79","FEW:02 104","","","6.21","","000","","0","","","","","","","","","","","","","","","","","","","","","","","","","","","","","","","","","","","","","","","","","","","","","","","","","","","","","","","","","","","","","","","","","","","","","","","","","","","","","","","","","","","","","","","","","","","MET111MOBOB0 METAR 7026 //008 000000 251159Z AUTO 00000KT 9999 HZ FEW104 26/22 A3007 RMK CDP03661 FEW104 CLD AVG 104=","","","","","","","","","",""
"00702699999","2016-06-25T16:44:00","0.0","0.0","7026.0","WXPOD 7026, AF","FM-15","4","30.07","72","79","","","","","79","FEW:02 79","","","","","000","","0","","","","","","","","","","","","","","","","","","","","","","","","","","","","","","","","","","","","","","","","","","","","","","","","","","","","","","","","","","","","","","","","","","","","","","","","","","","","","","","","","","","","","","","","","","","MET108MOBOB0 METAR 7026 //008 000000 251214Z AUTO 00000KT //// FEW079 26/22 A3007 RMK CDP03661 FEW079 CLD AVG 079=","","","","","","","","","",""
"00702699999","2016-06-25T16:59:00","0.0","0.0","7026.0","WXPOD 7026, AF","FM-15","4","30.08","72","81","","","","","74","FEW:02 106","","","6.21","","000","","0","","","","","","","","","","","","","","","","","","","","","","","","","","","","","","","","","","","","","","","","","","","","","","","","","","","","","","","","","","","","","","","","","","","","","","","","","","","","","","","","","","","","","","","","","","","MET108MOBOB0 METAR 7026 //008 000000 251229Z AUTO 00000KT 9999 FEW106 27/22 A3008 RMK CDP03661 FEW106 CLD AVG 107=","","","","","","","","","",""
"00702699999","2016-06-25T17:14:00","0.0","0.0","7026.0","WXPOD 7026, AF","FM-15","4","30.08","72","81","","|FU |","","","74","FEW:02 75","","","6.21","","000","","0","","","","","","","","","","","","","","","","","","","","","","","","","","","","","","","","","","","","","","","","","","","","","","","","","","","","","","","","","","","","","","","","","","","","","","","","","","","","","","","","","","","","","","","","","","","MET111MOBOB0 METAR 7026 //008 000000 251244Z AUTO 00000KT 9999 HZ FEW075 27/22 A3008 RMK CDP03661 FEW075 CLD AVG 075=","","","","","","","","","",""
"00702699999","2016-06-25T17:29:00","0.0","0.0","7026.0","WXPOD 7026, AF","FM-15","4","30.08","70","82","","","","","66","FEW:02 77","","","6.21","","000","","0","","","","","","","","","","","","","","","","","","","","","","","","","","","","","","","","","","","","","","","","","","","","","","","","","","","","","","","","","","","","","","","","","","","","","","","","","","","","","","","","","","","","","","","","","","","MET108MOBOB0 METAR 7026 //008 000000 251259Z AUTO 00000KT 9999 FEW077 28/21 A3008 RMK CDP03661 FEW077 CLD AVG 077=","","","","","","","","","",""
"00702699999","2016-06-25T17:44:00","0.0","0.0","7026.0","WXPOD 7026, AF","FM-15","4","30.09","72","82","","","","","70","","","","6.21","","000","","0","","","","","","","","","","","","","","","","","","","","","","","","","","","","","","","","","","","","","","","","","","","","","","","","","","","","","","","","","","","","","","","","","","","","","","","","","","","","","","","","","","","","","","","","","","","MET090MOBOB0 METAR 7026 //008 000000 251314Z AUTO 00000KT 9999 CLR 28/22 A3009 RMK CDP03661 CLR=","","","","","","","","","",""
"00702699999","2016-06-25T17:59:00","0.0","0.0","7026.0","WXPOD 7026, AF","FM-15","4","30.09","72","84","","","","","66","","","","","","000","","0","","","","","","","","","","","","","","","","","","","","","","","","","","","","","","","","","","","","","","","","","","","","","","","","","","","","","","","","","","","","","","","","","","","","","","","","","","","","","","","","","","","","","","","","","","","MET090MOBOB0 METAR 7026 //008 000000 251329Z AUTO 00000KT //// CLR 29/22 A3009 RMK CDP03661 CLR=","","","","","","","","","",""
"00702699999","2016-06-25T18:15:00","0.0","0.0","7026.0","WXPOD 7026, AF","FM-15","4","30.08","72","86","","","","","62","","","","6.21","","000","","0","","","","","","","","","","","","","","","","","","","","","","","","","","","","","","","","","","","","","","","","","","","","","","","","","","","","","","","","","","","","","","","","","","","","","","","","","","","","","","","","","","","","","","","","","","","MET090MOBOB0 METAR 7026 //008 000000 251345Z AUTO 00000KT 9999 CLR 30/22 A3008 RMK CDP03661 CLR=","","","","","","","","","",""
"00702699999","2016-06-25T18:44:00","0.0","0.0","7026.0","WXPOD 7026, AF","FM-15","4","30.09","73","86","","","","","66","","","","","","000","","0","","","","","","","","","","","","","","","","","","","","","","","","","","","","","","","","","","","","","","","","","","","","","","","","","","","","","","","","","","","","","","","","","","","","","","","","","","","","","","","","","","","","","","","","","","","MET090MOBOB0 METAR 7026 //008 000000 251414Z AUTO 00000KT //// CLR 30/23 A3009 RMK CDP03661 CLR=","","","","","","","","","",""
"00702699999","2016-06-25T18:59:00","0.0","0.0","7026.0","WXPOD 7026, AF","FM-15","4","30.10","73","84","","","","","70","","","","6.21","","000","","0","","","","","","","","","","","","","","","","","","","","","","","","","","","","","","","","","","","","","","","","","","","","","","","","","","","","","","","","","","","","","","","","","","","","","","","","","","","","","","","","","","","","","","","","","","","MET090MOBOB0 METAR 7026 //008 000000 251429Z AUTO 00000KT 9999 CLR 29/23 A3010 RMK CDP03661 CLR=","","","","","","","","","",""
"00702699999","2016-06-25T19:14:00","0.0","0.0","7026.0","WXPOD 7026, AF","FM-15","4","30.11","73","84","","","","","70","SCT:04 21","","","","","000","","0","","","","","","","","","","","","","","","","","","","","","","","","","","","","","","","","","","","","","","","","","","","","","","","","","","","","","","","","","","","","","","","","","","","","","","","","","","","","","","","","","","","","","","","","","","","MET108MOBOB0 METAR 7026 //008 000000 251444Z AUTO 00000KT //// SCT021 29/23 A3011 RMK CDP03661 SCT021 CLD AVG 022=","","","","","","","","","",""
"00702699999","2016-06-25T19:29:00","0.0","0.0","7026.0","WXPOD 7026, AF","FM-15","4","30.12","72","82","","","","","70","SCT:04 18","","","6.21","","000","","0","","","","","","","","","","","","","","","","","","","","","","","","","","","","","","","","","","","","","","","","","","","","","","","","","","","","","","","","","","","","","","","","","","","","","","","","","","","","","","","","","","","","","","","","","","","MET108MOBOB0 METAR 7026 //008 000000 251459Z AUTO 00000KT 9999 SCT018 28/22 A3012 RMK CDP03661 SCT018 CLD AVG 028=","","","","","","","","","",""
"00702699999","2016-06-25T19:44:00","0.0","0.0","7026.0","WXPOD 7026, AF","FM-15","4","30.12","73","82","","","","","74","OVC:08 16","","","6.21","","000","","0","","","","","","","","","","","","","","","","","","","","","","","","","","","","","","","","","","","","","","","","","","","","","","","","","","","","","","","","","","","","","","","","","","","","","","","","","","","","","","","","","","","","","","","","","","","MET108MOBOB0 METAR 7026 //008 000000 251514Z AUTO 00000KT 9999 OVC016 28/23 A3012 RMK CDP03661 OVC016 CLD AVG 019=","","","","","","","","","",""
"00702699999","2016-06-25T19:59:00","0.0","0.0","7026.0","WXPOD 7026, AF","FM-15","4","30.12","73","81","","|FU |","","","79","OVC:08 16","","","6.21","","000","","0","","","","","","","","","","","","","","","","","","","","","","","","","","","","","","","","","","","","","","","","","","","","","","","","","","","","","","","","","","","","","","","","","","","","","","","","","","","","","","","","","","","","","","","","","","","MET111MOBOB0 METAR 7026 //008 000000 251529Z AUTO 00000KT 9999 HZ OVC016 27/23 A3012 RMK CDP03661 OVC016 CLD AVG 017=","","","","","","","","","",""
"00702699999","2016-06-25T20:14:00","0.0","0.0","7026.0","WXPOD 7026, AF","FM-15","4","30.12","72","82","","|FU |","","","70","OVC:08 17","","","6.21","","000","","0","","","","","","","","","","","","","","","","","","","","","","","","","","","","","","","","","","","","","","","","","","","","","","","","","","","","","","","","","","","","","","","","","","","","","","","","","","","","","","","","","","","","","","","","","","","MET111MOBOB0 METAR 7026 //008 000000 251544Z AUTO 00000KT 9999 HZ OVC017 28/22 A3012 RMK CDP03661 OVC017 CLD AVG 020=","","","","","","","","","",""
"00702699999","2016-06-25T20:29:00","0.0","0.0","7026.0","WXPOD 7026, AF","FM-15","4","30.11","72","82","","|FU |","","","70","OVC:08 19","","","6.21","","000","","0","","","","","","","","","","","","","","","","","","","","","","","","","","","","","","","","","","","","","","","","","","","","","","","","","","","","","","","","","","","","","","","","","","","","","","","","","","","","","","","","","","","","","","","","","","","MET111MOBOB0 METAR 7026 //008 000000 251559Z AUTO 00000KT 9999 HZ OVC019 28/22 A3011 RMK CDP03661 OVC019 CLD AVG 022=","","","","","","","","","",""
"00702699999","2016-06-25T20:44:00","0.0","0.0","7026.0","WXPOD 7026, AF","FM-15","4","30.11","73","82","","","","","74","OVC:08 19","","","","","000","","0","","","","","","","","","","","","","","","","","","","","","","","","","","","","","","","","","","","","","","","","","","","","","","","","","","","","","","","","","","","","","","","","","","","","","","","","","","","","","","","","","","","","","","","","","","","MET108MOBOB0 METAR 7026 //008 000000 251614Z AUTO 00000KT //// OVC019 28/23 A3011 RMK CDP03661 OVC019 CLD AVG 022=","","","","","","","","","",""
"00702699999","2016-06-25T20:59:00","0.0","0.0","7026.0","WXPOD 7026, AF","FM-15","4","30.12","72","82","","","","","70","OVC:08 18","","","","","000","","0","","","","","","","","","","","","","","","","","","","","","","","","","","","","","","","","","","","","","","","","","","","","","","","","","","","","","","","","","","","","","","","","","","","","","","","","","","","","","","","","","","","","","","","","","","","MET108MOBOB0 METAR 7026 //008 000000 251629Z AUTO 00000KT //// OVC018 28/22 A3012 RMK CDP03661 OVC018 CLD AVG 021=","","","","","","","","","",""
"00702699999","2016-06-25T21:14:00","0.0","0.0","7026.0","WXPOD 7026, AF","FM-15","4","30.12","72","82","","","","","70","OVC:08 19","","","6.21","","000","","0","","","","","","","","","","","","","","","","","","","","","","","","","","","","","","","","","","","","","","","","","","","","","","","","","","","","","","","","","","","","","","","","","","","","","","","","","","","","","","","","","","","","","","","","","","","MET108MOBOB0 METAR 7026 //008 000000 251644Z AUTO 00000KT 9999 OVC019 28/22 A3012 RMK CDP03661 OVC019 CLD AVG 021=","","","","","","","","","",""
"00702699999","2016-06-25T21:29:00","0.0","0.0","7026.0","WXPOD 7026, AF","FM-15","4","30.12","72","82","","","","","70","OVC:08 24","","","6.21","","000","","0","","","","","","","","","","","","","","","","","","","","","","","","","","","","","","","","","","","","","","","","","","","","","","","","","","","","","","","","","","","","","","","","","","","","","","","","","","","","","","","","","","","","","","","","","","","MET108MOBOB0 METAR 7026 //008 000000 251659Z AUTO 00000KT 9999 OVC024 28/22 A3012 RMK CDP03661 OVC024 CLD AVG 025=","","","","","","","","","",""
"00702699999","2016-06-25T21:44:00","0.0","0.0","7026.0","WXPOD 7026, AF","FM-15","4","30.12","72","82","","","","","70","OVC:08 18","","","","","000","","0","","","","","","","","","","","","","","","","","","","","","","","","","","","","","","","","","","","","","","","","","","","","","","","","","","","","","","","","","","","","","","","","","","","","","","","","","","","","","","","","","","","","","","","","","","","MET108MOBOB0 METAR 7026 //008 000000 251714Z AUTO 00000KT //// OVC018 28/22 A3012 RMK CDP03661 OVC018 CLD AVG 021=","","","","","","","","","",""
"00702699999","2016-06-25T21:59:00","0.0","0.0","7026.0","WXPOD 7026, AF","FM-15","4","30.12","72","82","","","","","70","OVC:08 21","","","6.21","","000","","0","","","","","","","","","","","","","","","","","","","","","","","","","","","","","","","","","","","","","","","","","","","","","","","","","","","","","","","","","","","","","","","","","","","","","","","","","","","","","","","","","","","","","","","","","","","MET108MOBOB0 METAR 7026 //008 000000 251729Z AUTO 00000KT 9999 OVC021 28/22 A3012 RMK CDP03661 OVC021 CLD AVG 023=","","","","","","","","","",""
"00702699999","2016-06-25T22:14:00","0.0","0.0","7026.0","WXPOD 7026, AF","FM-15","4","30.12","72","84","","","","","66","OVC:08 27","","","6.21","","000","","0","","","","","","","","","","","","","","","","","","","","","","","","","","","","","","","","","","","","","","","","","","","","","","","","","","","","","","","","","","","","","","","","","","","","","","","","","","","","","","","","","","","","","","","","","","","MET108MOBOB0 METAR 7026 //008 000000 251744Z AUTO 00000KT 9999 OVC027 29/22 A3012 RMK CDP03661 OVC027 CLD AVG 030=","","","","","","","","","",""
"00702699999","2016-06-25T22:29:00","0.0","0.0","7026.0","WXPOD 7026, AF","FM-15","4","30.12","72","84","","","","","66","OVC:08 22","","","6.21","","000","","0","","","","","","","","","","","","","","","","","","","","","","","","","","","","","","","","","","","","","","","","","","","","","","","","","","","","","","","","","","","","","","","","","","","","","","","","","","","","","","","","","","","","","","","","","","","MET108MOBOB0 METAR 7026 //008 000000 251759Z AUTO 00000KT 9999 OVC022 29/22 A3012 RMK CDP03661 OVC022 CLD AVG 023=","","","","","","","","","",""
"00702699999","2016-06-25T22:44:00","0.0","0.0","7026.0","WXPOD 7026, AF","FM-15","4","30.12","72","84","","","","","66","OVC:08 27","","","6.21","","000","","0","","","","","","","","","","","","","","","","","","","","","","","","","","","","","","","","","","","","","","","","","","","","","","","","","","","","","","","","","","","","","","","","","","","","","","","","","","","","","","","","","","","","","","","","","","","MET108MOBOB0 METAR 7026 //008 000000 251814Z AUTO 00000KT 9999 OVC027 29/22 A3012 RMK CDP03661 OVC027 CLD AVG 031=","","","","","","","","","",""
"00702699999","2016-06-25T22:59:00","0.0","0.0","7026.0","WXPOD 7026, AF","FM-15","4","30.11","72","86","","","","","62","BKN:07 34","","","6.21","","000","","0","","","","","","","","","","","","","","","","","","","","","","","","","","","","","","","","","","","","","","","","","","","","","","","","","","","","","","","","","","","","","","","","","","","","","","","","","","","","","","","","","","","","","","","","","","","MET108MOBOB0 METAR 7026 //008 000000 251829Z AUTO 00000KT 9999 BKN034 30/22 A3011 RMK CDP03661 BKN034 CLD AVG 035=","","","","","","","","","",""
"00702699999","2016-06-25T23:14:00","0.0","0.0","7026.0","WXPOD 7026, AF","FM-15","4","30.10","72","86","","","","","62","OVC:08 23","","","6.21","","000","","0","","","","","","","","","","","","","","","","","","","","","","","","","","","","","","","","","","","","","","","","","","","","","","","","","","","","","","","","","","","","","","","","","","","","","","","","","","","","","","","","","","","","","","","","","","","MET108MOBOB0 METAR 7026 //008 000000 251844Z AUTO 00000KT 9999 OVC023 30/22 A3010 RMK CDP03661 OVC023 CLD AVG 026=","","","","","","","","","",""
"00702699999","2016-06-25T23:29:00","0.0","0.0","7026.0","WXPOD 7026, AF","FM-15","4","30.10","73","86","","|FU |","","","66","BKN:07 35","","","6.21","","000","","0","","","","","","","","","","","","","","","","","","","","","","","","","","","","","","","","","","","","","","","","","","","","","","","","","","","","","","","","","","","","","","","","","","","","","","","","","","","","","","","","","","","","","","","","","","","MET111MOBOB0 METAR 7026 //008 000000 251859Z AUTO 00000KT 9999 HZ BKN035 30/23 A3010 RMK CDP03661 BKN035 CLD AVG 036=","","","","","","","","","",""
"00702699999","2016-06-25T23:44:00","0.0","0.0","7026.0","WXPOD 7026, AF","FM-15","4","30.10","72","86","","","","","62","BKN:07 24","","","6.21","","000","","0","","","","","","","","","","","","","","","","","","","","","","","","","","","","","","","","","","","","","","","","","","","","","","","","","","","","","","","","","","","","","","","","","","","","","","","","","","","","","","","","","","","","","","","","","","","MET108MOBOB0 METAR 7026 //008 000000 251914Z AUTO 00000KT 9999 BKN024 30/22 A3010 RMK CDP03661 BKN024 CLD AVG 028=","","","","","","","","","",""
"00702699999","2016-06-25T23:59:00","0.0","0.0","7026.0","WXPOD 7026, AF","FM-15","4","30.11","70","86","","","","","59","OVC:08 33","","","","","000","","0","","","","","","","","","","","","","","","","","","","","","","","","","","","","","","","","","","","","","","","","","","","","","","","","","","","","","","","","","","","","","","","","","","","","","","","","","","","","","","","","","","","","","","","","","","","MET108MOBOB0 METAR 7026 //008 000000 251929Z AUTO 00000KT //// OVC033 30/21 A3011 RMK CDP03661 OVC033 CLD AVG 033=","","","","","","","","","",""
"00702699999","2016-06-26T00:14:00","0.0","0.0","7026.0","WXPOD 7026, AF","FM-15","4","30.11","70","86","","","","","59","SCT:04 29","","","6.21","","000","","0","","","","","","","","","","","","","","","","","","","","","","","","","","","","","","","","","","","","","","","","","","","","","","","","","","","","","","","","","","","","","","","","","","","","","","","","","","","","","","","","","","","","","","","","","","","MET108MOBOB0 METAR 7026 //008 000000 251944Z AUTO 00000KT 9999 SCT029 30/21 A3011 RMK CDP03661 SCT029 CLD AVG 032=","","","","","","","","","",""
"00702699999","2016-06-26T00:29:00","0.0","0.0","7026.0","WXPOD 7026, AF","FM-15","4","30.11","72","88","","","","","59","BKN:07 30","","","6.21","","000","","0","","","","","","","","","","","","","","","","","","","","","","","","","","","","","","","","","","","","","","","","","","","","","","","","","","","","","","","","","","","","","","","","","","","","","","","","","","","","","","","","","","","","","","","","","","","MET108MOBOB0 METAR 7026 //008 000000 251959Z AUTO 00000KT 9999 BKN030 31/22 A3011 RMK CDP03661 BKN030 CLD AVG 032=","","","","","","","","","",""
"00702699999","2016-06-26T00:44:00","0.0","0.0","7026.0","WXPOD 7026, AF","FM-15","4","30.11","70","88","","","","","55","SCT:04 31","","","","","000","","0","","","","","","","","","","","","","","","","","","","","","","","","","","","","","","","","","","","","","","","","","","","","","","","","","","","","","","","","","","","","","","","","","","","","","","","","","","","","","","","","","","","","","","","","","","","MET108MOBOB0 METAR 7026 //008 000000 252014Z AUTO 00000KT //// SCT031 31/21 A3011 RMK CDP03661 SCT031 CLD AVG 036=","","","","","","","","","",""
"00702699999","2016-06-26T00:59:00","0.0","0.0","7026.0","WXPOD 7026, AF","FM-15","4","30.10","70","88","","","","","55","SCT:04 33","","","6.21","","000","","0","","","","","","","","","","","","","","","","","","","","","","","","","","","","","","","","","","","","","","","","","","","","","","","","","","","","","","","","","","","","","","","","","","","","","","","","","","","","","","","","","","","","","","","","","","","MET108MOBOB0 METAR 7026 //008 000000 252029Z AUTO 00000KT 9999 SCT033 31/21 A3010 RMK CDP03661 SCT033 CLD AVG 034=","","","","","","","","","",""
"00702699999","2016-06-26T01:14:00","0.0","0.0","7026.0","WXPOD 7026, AF","FM-15","4","30.10","70","86","","","","","59","FEW:02 52","","","6.21","","000","","0","","","","","","","","","","","","","","","","","","","","","","","","","","","","","","","","","","","","","","","","","","","","","","","","","","","","","","","","","","","","","","","","","","","","","","","","","","","","","","","","","","","","","","","","","","","MET108MOBOB0 METAR 7026 //008 000000 252044Z AUTO 00000KT 9999 FEW052 30/21 A3010 RMK CDP03661 FEW052 CLD AVG 052=","","","","","","","","","",""
"00702699999","2016-06-26T01:29:00","0.0","0.0","7026.0","WXPOD 7026, AF","FM-15","4","30.10","72","86","","","","","62","","","","","","000","","0","","","","","","","","","","","","","","","","","","","","","","","","","","","","","","","","","","","","","","","","","","","","","","","","","","","","","","","","","","","","","","","","","","","","","","","","","","","","","","","","","","","","","","","","","","","MET090MOBOB0 METAR 7026 //008 000000 252059Z AUTO 00000KT //// CLR 30/22 A3010 RMK CDP03661 CLR=","","","","","","","","","",""
"00702699999","2016-06-26T01:44:00","0.0","0.0","7026.0","WXPOD 7026, AF","FM-15","4","30.11","72","88","","","","","59","OVC:08 33","","","6.21","","000","","0","","","","","","","","","","","","","","","","","","","","","","","","","","","","","","","","","","","","","","","","","","","","","","","","","","","","","","","","","","","","","","","","","","","","","","","","","","","","","","","","","","","","","","","","","","","MET108MOBOB0 METAR 7026 //008 000000 252114Z AUTO 00000KT 9999 OVC033 31/22 A3011 RMK CDP03661 OVC033 CLD AVG 041=","","","","","","","","","",""
"00702699999","2016-06-26T01:59:00","0.0","0.0","7026.0","WXPOD 7026, AF","FM-15","4","30.11","72","90","","","","","55","","","","6.21","","000","","0","","","","","","","","","","","","","","","","","","","","","","","","","","","","","","","","","","","","","","","","","","","","","","","","","","","","","","","","","","","","","","","","","","","","","","","","","","","","","","","","","","","","","","","","","","","MET090MOBOB0 METAR 7026 //008 000000 252129Z AUTO 00000KT 9999 CLR 32/22 A3011 RMK CDP03661 CLR=","","","","","","","","","",""
"00702699999","2016-06-26T02:14:00","0.0","0.0","7026.0","WXPOD 7026, AF","FM-15","4","30.11","70","90","","","","","52","","","","6.21","","000","","0","","","","","","","","","","","","","","","","","","","","","","","","","","","","","","","","","","","","","","","","","","","","","","","","","","","","","","","","","","","","","","","","","","","","","","","","","","","","","","","","","","","","","","","","","","","MET090MOBOB0 METAR 7026 //008 000000 252144Z AUTO 00000KT 9999 CLR 32/21 A3011 RMK CDP03661 CLR=","","","","","","","","","",""
"00702699999","2016-06-26T02:29:00","0.0","0.0","7026.0","WXPOD 7026, AF","FM-15","4","30.11","70","90","","","","","52","","","","6.21","","000","","0","","","","","","","","","","","","","","","","","","","","","","","","","","","","","","","","","","","","","","","","","","","","","","","","","","","","","","","","","","","","","","","","","","","","","","","","","","","","","","","","","","","","","","","","","","","MET090MOBOB0 METAR 7026 //008 000000 252159Z AUTO 00000KT 9999 CLR 32/21 A3011 RMK CDP03661 CLR=","","","","","","","","","",""
"00702699999","2016-06-26T02:44:00","0.0","0.0","7026.0","WXPOD 7026, AF","FM-15","4","30.11","70","88","","","","","55","","","","6.21","","000","","0","","","","","","","","","","","","","","","","","","","","","","","","","","","","","","","","","","","","","","","","","","","","","","","","","","","","","","","","","","","","","","","","","","","","","","","","","","","","","","","","","","","","","","","","","","","MET090MOBOB0 METAR 7026 //008 000000 252214Z AUTO 00000KT 9999 CLR 31/21 A3011 RMK CDP03661 CLR=","","","","","","","","","",""
"00702699999","2016-06-26T02:59:00","0.0","0.0","7026.0","WXPOD 7026, AF","FM-15","4","30.11","70","90","","","","","52","","","","6.21","","000","","0","","","","","","","","","","","","","","","","","","","","","","","","","","","","","","","","","","","","","","","","","","","","","","","","","","","","","","","","","","","","","","","","","","","","","","","","","","","","","","","","","","","","","","","","","","","MET090MOBOB0 METAR 7026 //008 000000 252229Z AUTO 00000KT 9999 CLR 32/21 A3011 RMK CDP03661 CLR=","","","","","","","","","",""
"00702699999","2016-06-26T03:14:00","0.0","0.0","7026.0","WXPOD 7026, AF","FM-15","4","30.11","70","88","","","","","55","","","","6.21","","000","","0","","","","","","","","","","","","","","","","","","","","","","","","","","","","","","","","","","","","","","","","","","","","","","","","","","","","","","","","","","","","","","","","","","","","","","","","","","","","","","","","","","","","","","","","","","","MET090MOBOB0 METAR 7026 //008 000000 252244Z AUTO 00000KT 9999 CLR 31/21 A3011 RMK CDP03661 CLR=","","","","","","","","","",""
"00702699999","2016-06-26T03:29:00","0.0","0.0","7026.0","WXPOD 7026, AF","FM-15","4","30.11","70","88","","","","","55","","","","6.21","","000","","0","","","","","","","","","","","","","","","","","","","","","","","","","","","","","","","","","","","","","","","","","","","","","","","","","","","","","","","","","","","","","","","","","","","","","","","","","","","","","","","","","","","","","","","","","","","MET090MOBOB0 METAR 7026 //008 000000 252259Z AUTO 00000KT 9999 CLR 31/21 A3011 RMK CDP03661 CLR=","","","","","","","","","",""
"00702699999","2016-06-26T03:44:00","0.0","0.0","7026.0","WXPOD 7026, AF","FM-15","4","30.11","70","88","","","","","55","","","","6.21","","000","","0","","","","","","","","","","","","","","","","","","","","","","","","","","","","","","","","","","","","","","","","","","","","","","","","","","","","","","","","","","","","","","","","","","","","","","","","","","","","","","","","","","","","","","","","","","","MET090MOBOB0 METAR 7026 //008 000000 252314Z AUTO 00000KT 9999 CLR 31/21 A3011 RMK CDP03661 CLR=","","","","","","","","","",""
"00702699999","2016-06-26T03:59:00","0.0","0.0","7026.0","WXPOD 7026, AF","FM-15","4","30.11","72","86","","","","","62","","","","","","000","","0","","","","","","","","","","","","","","","","","","","","","","","","","","","","","","","","","","","","","","","","","","","","","","","","","","","","","","","","","","","","","","","","","","","","","","","","","","","","","","","","","","","","","","","","","","","MET090MOBOB0 METAR 7026 //008 000000 252329Z AUTO 00000KT //// CLR 30/22 A3011 RMK CDP03661 CLR=","","","","","","","","","",""
"00702699999","2016-06-26T04:14:00","0.0","0.0","7026.0","WXPOD 7026, AF","FM-15","4","30.12","70","86","","","","","59","","","","6.21","","000","","0","","","","","","","","","","","","","","","","","","","","","","","","","","","","","","","","","","","","","","","","","","","","","","","","","","","","","","","","","","","","","","","","","","","","","","","","","","","","","","","","","","","","","","","","","","","MET090MOBOB0 METAR 7026 //008 000000 252344Z AUTO 00000KT 9999 CLR 30/21 A3012 RMK CDP03661 CLR=","","","","","","","","","",""
"00702699999","2016-06-26T04:29:00","0.0","0.0","7026.0","WXPOD 7026, AF","FM-15","4","30.12","70","86","","","","","59","","","","6.21","","000","","0","","","","","","","","","","","","","","","","","","","","","","","","","","","","","","","","","","","","","","","","","","","","","","","","","","","","","","","","","","","","","","","","","","","","","","","","","","","","","","","","","","","","","","","","","","","MET090MOBOB0 METAR 7026 //008 000000 252359Z AUTO 00000KT 9999 CLR 30/21 A3012 RMK CDP03661 CLR=","","","","","","","","","",""
"00702699999","2016-06-26T04:44:00","0.0","0.0","7026.0","WXPOD 7026, AF","FM-15","4","30.13","70","84","","","","","62","OVC:08 36","","","6.21","","000","","0","","","","","","","","","","","","","","","","","","","","","","","","","","","","","","","","","","","","","","","","","","","","","","","","","","","","","","","","","","","","","","","","","","","","","","","","","","","","","","","","","","","","","","","","","","","MET108MOBOB0 METAR 7026 //008 000000 260014Z AUTO 00000KT 9999 OVC036 29/21 A3013 RMK CDP03661 OVC036 CLD AVG 037=","","","","","","","","","",""
"00702699999","2016-06-26T04:59:00","0.0","0.0","7026.0","WXPOD 7026, AF","FM-15","4","30.13","70","84","","","","","62","","","","6.21","","000","","0","","","","","","","","","","","","","","","","","","","","","","","","","","","","","","","","","","","","","","","","","","","","","","","","","","","","","","","","","","","","","","","","","","","","","","","","","","","","","","","","","","","","","","","","","","","MET090MOBOB0 METAR 7026 //008 000000 260029Z AUTO 00000KT 9999 CLR 29/21 A3013 RMK CDP03661 CLR=","","","","","","","","","",""
"00702699999","2016-06-26T05:14:00","0.0","0.0","7026.0","WXPOD 7026, AF","FM-15","4","30.13","70","82","","","","","66","","","","6.21","","000","","0","","","","","","","","","","","","","","","","","","","","","","","","","","","","","","","","","","","","","","","","","","","","","","","","","","","","","","","","","","","","","","","","","","","","","","","","","","","","","","","","","","","","","","","","","","","MET090MOBOB0 METAR 7026 //008 000000 260044Z AUTO 00000KT 9999 CLR 28/21 A3013 RMK CDP03661 CLR=","","","","","","","","","",""
"00702699999","2016-06-26T05:29:00","0.0","0.0","7026.0","WXPOD 7026, AF","FM-15","4","30.13","70","82","","","","","66","OVC:08 35","","","6.21","","000","","0","","","","","","","","","","","","","","","","","","","","","","","","","","","","","","","","","","","","","","","","","","","","","","","","","","","","","","","","","","","","","","","","","","","","","","","","","","","","","","","","","","","","","","","","","","","MET108MOBOB0 METAR 7026 //008 000000 260059Z AUTO 00000KT 9999 OVC035 28/21 A3013 RMK CDP03661 OVC035 CLD AVG 039=","","","","","","","","","",""
"00702699999","2016-06-26T05:44:00","0.0","0.0","7026.0","WXPOD 7026, AF","FM-15","4","30.14","70","82","","","","","66","OVC:08 33","","","6.21","","000","","0","","","","","","","","","","","","","","","","","","","","","","","","","","","","","","","","","","","","","","","","","","","","","","","","","","","","","","","","","","","","","","","","","","","","","","","","","","","","","","","","","","","","","","","","","","","MET108MOBOB0 METAR 7026 //008 000000 260114Z AUTO 00000KT 9999 OVC033 28/21 A3014 RMK CDP03661 OVC033 CLD AVG 040=","","","","","","","","","",""
"00702699999","2016-06-26T05:59:00","0.0","0.0","7026.0","WXPOD 7026, AF","FM-15","4","30.15","70","82","","","","","66","SCT:04 39","","","6.21","","000","","0","","","","","","","","","","","","","","","","","","","","","","","","","","","","","","","","","","","","","","","","","","","","","","","","","","","","","","","","","","","","","","","","","","","","","","","","","","","","","","","","","","","","","","","","","","","MET108MOBOB0 METAR 7026 //008 000000 260129Z AUTO 00000KT 9999 SCT039 28/21 A3015 RMK CDP03661 SCT039 CLD AVG 042=","","","","","","","","","",""
"00702699999","2016-06-26T06:14:00","0.0","0.0","7026.0","WXPOD 7026, AF","FM-15","4","30.16","70","81","","|FU |","","","70","FEW:02 45","","","6.21","","000","","0","","","","","","","","","","","","","","","","","","","","","","","","","","","","","","","","","","","","","","","","","","","","","","","","","","","","","","","","","","","","","","","","","","","","","","","","","","","","","","","","","","","","","","","","","","","MET111MOBOB0 METAR 7026 //008 000000 260144Z AUTO 00000KT 9999 HZ FEW045 27/21 A3016 RMK CDP03661 FEW045 CLD AVG 045=","","","","","","","","","",""
"00702699999","2016-06-26T06:29:00","0.0","0.0","7026.0","WXPOD 7026, AF","FM-15","4","30.16","70","81","","|FU |","","","70","","","","5.59","","000","","0","","","","","","","","","","","","","","","","","","","","","","","","","","","","","","","","","","","","","","","","","","","","","","","","","","","","","","","","","","","","","","","","","","","","","","","","","","","","","","","","","","","","","","","","","","","MET093MOBOB0 METAR 7026 //008 000000 260159Z AUTO 00000KT 9000 HZ CLR 27/21 A3016 RMK CDP03661 CLR=","","","","","","","","","",""
"00702699999","2016-06-26T06:44:00","0.0","0.0","7026.0","WXPOD 7026, AF","FM-15","4","30.16","70","81","","|FU |","","","70","","","","6.21","","000","","0","","","","","","","","","","","","","","","","","","","","","","","","","","","","","","","","","","","","","","","","","","","","","","","","","","","","","","","","","","","","","","","","","","","","","","","","","","","","","","","","","","","","","","","","","","","MET093MOBOB0 METAR 7026 //008 000000 260214Z AUTO 00000KT 9999 HZ CLR 27/21 A3016 RMK CDP03661 CLR=","","","","","","","","","",""
"00702699999","2016-06-26T06:59:00","0.0","0.0","7026.0","WXPOD 7026, AF","FM-15","4","30.17","70","81","","|FU |","","","70","SCT:04 38","","","6.21","","000","","0","","","","","","","","","","","","","","","","","","","","","","","","","","","","","","","","","","","","","","","","","","","","","","","","","","","","","","","","","","","","","","","","","","","","","","","","","","","","","","","","","","","","","","","","","","","MET111MOBOB0 METAR 7026 //008 000000 260229Z AUTO 00000KT 9999 HZ SCT038 27/21 A3017 RMK CDP03661 SCT038 CLD AVG 039=","","","","","","","","","",""
"00702699999","2016-06-26T07:14:00","0.0","0.0","7026.0","WXPOD 7026, AF","FM-15","4","30.17","70","79","","|FU |","","","74","OVC:08 40","","","6.21","","000","","0","","","","","","","","","","","","","","","","","","","","","","","","","","","","","","","","","","","","","","","","","","","","","","","","","","","","","","","","","","","","","","","","","","","","","","","","","","","","","","","","","","","","","","","","","","","MET111MOBOB0 METAR 7026 //008 000000 260244Z AUTO 00000KT 9999 HZ OVC040 26/21 A3017 RMK CDP03661 OVC040 CLD AVG 041=","","","","","","","","","",""
"00702699999","2016-06-26T07:29:00","0.0","0.0","7026.0","WXPOD 7026, AF","FM-15","4","30.17","70","79","","","","","74","OVC:08 40","","","6.21","","000","","0","","","","","","","","","","","","","","","","","","","","","","","","","","","","","","","","","","","","","","","","","","","","","","","","","","","","","","","","","","","","","","","","","","","","","","","","","","","","","","","","","","","","","","","","","","","MET108MOBOB0 METAR 7026 //008 000000 260259Z AUTO 00000KT 9999 OVC040 26/21 A3017 RMK CDP03661 OVC040 CLD AVG 041=","","","","","","","","","",""
"00702699999","2016-06-26T07:44:00","0.0","0.0","7026.0","WXPOD 7026, AF","FM-15","4","30.17","70","79","","|FU |","","","74","","","","6.21","","000","","0","","","","","","","","","","","","","","","","","","","","","","","","","","","","","","","","","","","","","","","","","","","","","","","","","","","","","","","","","","","","","","","","","","","","","","","","","","","","","","","","","","","","","","","","","","","MET093MOBOB0 METAR 7026 //008 000000 260314Z AUTO 00000KT 9999 HZ CLR 26/21 A3017 RMK CDP03661 CLR=","","","","","","","","","",""
"00702699999","2016-06-26T07:59:00","0.0","0.0","7026.0","WXPOD 7026, AF","FM-15","4","30.18","70","79","","|FU |","","","74","FEW:02 99","","","6.21","","000","","0","","","","","","","","","","","","","","","","","","","","","","","","","","","","","","","","","","","","","","","","","","","","","","","","","","","","","","","","","","","","","","","","","","","","","","","","","","","","","","","","","","","","","","","","","","","MET111MOBOB0 METAR 7026 //008 000000 260329Z AUTO 00000KT 9999 HZ FEW099 26/21 A3018 RMK CDP03661 FEW099 CLD AVG 099=","","","","","","","","","",""
"00702699999","2016-06-26T08:14:00","0.0","0.0","7026.0","WXPOD 7026, AF","FM-15","4","30.18","70","77","","|FU |","","","79","","","","6.21","","000","","0","","","","","","","","","","","","","","","","","","","","","","","","","","","","","","","","","","","","","","","","","","","","","","","","","","","","","","","","","","","","","","","","","","","","","","","","","","","","","","","","","","","","","","","","","","","MET093MOBOB0 METAR 7026 //008 000000 260344Z AUTO 00000KT 9999 HZ CLR 25/21 A3018 RMK CDP03661 CLR=","","","","","","","","","",""
"00702699999","2016-06-26T08:29:00","0.0","0.0","7026.0","WXPOD 7026, AF","FM-15","4","30.18","70","77","","","","","79","SCT:04 42","","","6.21","","000","","0","","","","","","","","","","","","","","","","","","","","","","","","","","","","","","","","","","","","","","","","","","","","","","","","","","","","","","","","","","","","","","","","","","","","","","","","","","","","","","","","","","","","","","","","","","","MET108MOBOB0 METAR 7026 //008 000000 260359Z AUTO 00000KT 9999 SCT042 25/21 A3018 RMK CDP03661 SCT042 CLD AVG 043=","","","","","","","","","",""
"00702699999","2016-06-26T08:44:00","0.0","0.0","7026.0","WXPOD 7026, AF","FM-15","4","30.18","70","77","","|FU |","","","79","OVC:08 39","","","6.21","","000","","0","","","","","","","","","","","","","","","","","","","","","","","","","","","","","","","","","","","","","","","","","","","","","","","","","","","","","","","","","","","","","","","","","","","","","","","","","","","","","","","","","","","","","","","","","","","MET111MOBOB0 METAR 7026 //008 000000 260414Z AUTO 00000KT 9999 HZ OVC039 25/21 A3018 RMK CDP03661 OVC039 CLD AVG 041=","","","","","","","","","",""
"00702699999","2016-06-26T08:59:00","0.0","0.0","7026.0","WXPOD 7026, AF","FM-15","4","30.18","70","77","","|FU |","","","79","OVC:08 41","","","5.59","","000","","0","","","","","","","","","","","","","","","","","","","","","","","","","","","","","","","","","","","","","","","","","","","","","","","","","","","","","","","","","","","","","","","","","","","","","","","","","","","","","","","","","","","","","","","","","","","MET111MOBOB0 METAR 7026 //008 000000 260429Z AUTO 00000KT 9000 HZ OVC041 25/21 A3018 RMK CDP03661 OVC041 CLD AVG 044=","","","","","","","","","",""
"00702699999","2016-06-26T09:14:00","0.0","0.0","7026.0","WXPOD 7026, AF","FM-15","4","30.18","70","77","","|FU |","","","79","OVC:08 38","","","6.21","","000","","0","","","","","","","","","","","","","","","","","","","","","","","","","","","","","","","","","","","","","","","","","","","","","","","","","","","","","","","","","","","","","","","","","","","","","","","","","","","","","","","","","","","","","","","","","","","MET111MOBOB0 METAR 7026 //008 000000 260444Z AUTO 00000KT 9999 HZ OVC038 25/21 A3018 RMK CDP03661 OVC038 CLD AVG 039=","","","","","","","","","",""
"00702699999","2016-06-26T09:29:00","0.0","0.0","7026.0","WXPOD 7026, AF","FM-15","4","30.18","70","77","","","","","79","","","","","","000","","0","","","","","","","","","","","","","","","","","","","","","","","","","","","","","","","","","","","","","","","","","","","","","","","","","","","","","","","","","","","","","","","","","","","","","","","","","","","","","","","","","","","","","","","","","","","MET090MOBOB0 METAR 7026 //008 000000 260459Z AUTO 00000KT //// CLR 25/21 A3018 RMK CDP03661 CLR=","","","","","","","","","",""
"00702699999","2016-06-26T09:44:00","0.0","0.0","7026.0","WXPOD 7026, AF","FM-15","4","30.18","70","77","","","","","79","OVC:08 18","","","6.21","","000","","0","","","","","","","","","","","","","","","","","","","","","","","","","","","","","","","","","","","","","","","","","","","","","","","","","","","","","","","","","","","","","","","","","","","","","","","","","","","","","","","","","","","","","","","","","","","MET108MOBOB0 METAR 7026 //008 000000 260514Z AUTO 00000KT 9999 OVC018 25/21 A3018 RMK CDP03661 OVC018 CLD AVG 028=","","","","","","","","","",""
"00702699999","2016-06-26T09:59:00","0.0","0.0","7026.0","WXPOD 7026, AF","FM-15","4","30.18","70","77","","|FU |","","","79","SCT:04 104","","","6.21","","000","","0","","","","","","","","","","","","","","","","","","","","","","","","","","","","","","","","","","","","","","","","","","","","","","","","","","","","","","","","","","","","","","","","","","","","","","","","","","","","","","","","","","","","","","","","","","","MET111MOBOB0 METAR 7026 //008 000000 260529Z AUTO 00000KT 9999 HZ SCT104 25/21 A3018 RMK CDP03661 SCT104 CLD AVG 105=","","","","","","","","","",""
"00702699999","2016-06-26T10:14:00","0.0","0.0","7026.0","WXPOD 7026, AF","FM-15","4","30.17","70","77","","","","","79","FEW:02 103","","","","","000","","0","","","","","","","","","","","","","","","","","","","","","","","","","","","","","","","","","","","","","","","","","","","","","","","","","","","","","","","","","","","","","","","","","","","","","","","","","","","","","","","","","","","","","","","","","","","MET108MOBOB0 METAR 7026 //008 000000 260544Z AUTO 00000KT //// FEW103 25/21 A3017 RMK CDP03661 FEW103 CLD AVG 103=","","","","","","","","","",""
"00702699999","2016-06-26T10:29:00","0.0","0.0","7026.0","WXPOD 7026, AF","FM-15","4","30.18","70","77","","","","","79","SCT:04 105","","","6.21","","000","","0","","","","","","","","","","","","","","","","","","","","","","","","","","","","","","","","","","","","","","","","","","","","","","","","","","","","","","","","","","","","","","","","","","","","","","","","","","","","","","","","","","","","","","","","","","","MET108MOBOB0 METAR 7026 //008 000000 260559Z AUTO 00000KT 9999 SCT105 25/21 A3018 RMK CDP03661 SCT105 CLD AVG 106=","","","","","","","","","",""
"00702699999","2016-06-26T10:44:00","0.0","0.0","7026.0","WXPOD 7026, AF","FM-15","4","30.18","68","75","","","","","78","FEW:02 107","","","6.21","","000","","0","","","","","","","","","","","","","","","","","","","","","","","","","","","","","","","","","","","","","","","","","","","","","","","","","","","","","","","","","","","","","","","","","","","","","","","","","","","","","","","","","","","","","","","","","","","MET108MOBOB0 METAR 7026 //008 000000 260614Z AUTO 00000KT 9999 FEW107 24/20 A3018 RMK CDP03661 FEW107 CLD AVG 107=","","","","","","","","","",""
"00702699999","2016-06-26T10:59:00","0.0","0.0","7026.0","WXPOD 7026, AF","FM-15","4","30.18","68","75","","","","","78","FEW:02 106","","","6.21","","000","","0","","","","","","","","","","","","","","","","","","","","","","","","","","","","","","","","","","","","","","","","","","","","","","","","","","","","","","","","","","","","","","","","","","","","","","","","","","","","","","","","","","","","","","","","","","","MET108MOBOB0 METAR 7026 //008 000000 260629Z AUTO 00000KT 9999 FEW106 24/20 A3018 RMK CDP03661 FEW106 CLD AVG 106=","","","","","","","","","",""
"00702699999","2016-06-26T11:14:00","0.0","0.0","7026.0","WXPOD 7026, AF","FM-15","4","30.18","70","75","","|FU |","","","83","FEW:02 106","","","6.21","","000","","0","","","","","","","","","","","","","","","","","","","","","","","","","","","","","","","","","","","","","","","","","","","","","","","","","","","","","","","","","","","","","","","","","","","","","","","","","","","","","","","","","","","","","","","","","","","MET111MOBOB0 METAR 7026 //008 000000 260644Z AUTO 00000KT 9999 HZ FEW106 24/21 A3018 RMK CDP03661 FEW106 CLD AVG 106=","","","","","","","","","",""
"00702699999","2016-06-26T11:29:00","0.0","0.0","7026.0","WXPOD 7026, AF","FM-15","4","30.18","68","75","","","","","78","FEW:02 106","","","6.21","","000","","0","","","","","","","","","","","","","","","","","","","","","","","","","","","","","","","","","","","","","","","","","","","","","","","","","","","","","","","","","","","","","","","","","","","","","","","","","","","","","","","","","","","","","","","","","","","MET108MOBOB0 METAR 7026 //008 000000 260659Z AUTO 00000KT 9999 FEW106 24/20 A3018 RMK CDP03661 FEW106 CLD AVG 106=","","","","","","","","","",""
"00702699999","2016-06-26T11:44:00","0.0","0.0","7026.0","WXPOD 7026, AF","FM-15","4","30.19","68","73","","|FU |","","","83","BKN:07 14","","","6.21","","000","","0","","","","","","","","","","","","","","","","","","","","","","","","","","","","","","","","","","","","","","","","","","","","","","","","","","","","","","","","","","","","","","","","","","","","","","","","","","","","","","","","","","","","","","","","","","","MET111MOBOB0 METAR 7026 //008 000000 260714Z AUTO 00000KT 9999 HZ BKN014 23/20 A3019 RMK CDP03661 BKN014 CLD AVG 014=","","","","","","","","","",""
"00702699999","2016-06-26T11:59:00","0.0","0.0","7026.0","WXPOD 7026, AF","FM-15","4","30.19","68","73","","|FU |","","","83","OVC:08 11","","","6.21","","000","","0","","","","","","","","","","","","","","","","","","","","","","","","","","","","","","","","","","","","","","","","","","","","","","","","","","","","","","","","","","","","","","","","","","","","","","","","","","","","","","","","","","","","","","","","","","","MET111MOBOB0 METAR 7026 //008 000000 260729Z AUTO 00000KT 9999 HZ OVC011 23/20 A3019 RMK CDP03661 OVC011 CLD AVG 012=","","","","","","","","","",""
"00702699999","2016-06-26T12:14:00","0.0","0.0","7026.0","WXPOD 7026, AF","FM-15","4","30.19","66","73","","|FU |","","","78","OVC:08 51","","","6.21","","000","","0","","","","","","","","","","","","","","","","","","","","","","","","","","","","","","","","","","","","","","","","","","","","","","","","","","","","","","","","","","","","","","","","","","","","","","","","","","","","","","","","","","","","","","","","","","","MET111MOBOB0 METAR 7026 //008 000000 260744Z AUTO 00000KT 9999 HZ OVC051 23/19 A3019 RMK CDP03661 OVC051 CLD AVG 051=","","","","","","","","","",""
"00702699999","2016-06-26T12:29:00","0.0","0.0","7026.0","WXPOD 7026, AF","FM-15","4","30.19","64","73","","","","","74","OVC:08 51","","","6.21","","000","","0","","","","","","","","","","","","","","","","","","","","","","","","","","","","","","","","","","","","","","","","","","","","","","","","","","","","","","","","","","","","","","","","","","","","","","","","","","","","","","","","","","","","","","","","","","","MET108MOBOB0 METAR 7026 //008 000000 260759Z AUTO 00000KT 9999 OVC051 23/18 A3019 RMK CDP03661 OVC051 CLD AVG 053=","","","","","","","","","",""
"00702699999","2016-06-26T12:44:00","0.0","0.0","7026.0","WXPOD 7026, AF","FM-15","4","30.19","64","73","","","","","74","BKN:07 56","","","6.21","","000","","0","","","","","","","","","","","","","","","","","","","","","","","","","","","","","","","","","","","","","","","","","","","","","","","","","","","","","","","","","","","","","","","","","","","","","","","","","","","","","","","","","","","","","","","","","","","MET108MOBOB0 METAR 7026 //008 000000 260814Z AUTO 00000KT 9999 BKN056 23/18 A3019 RMK CDP03661 BKN056 CLD AVG 059=","","","","","","","","","",""
"00702699999","2016-06-26T12:59:00","0.0","0.0","7026.0","WXPOD 7026, AF","FM-15","4","30.19","66","72","","","","","83","FEW:02 67","","","6.21","","000","","0","","","","","","","","","","","","","","","","","","","","","","","","","","","","","","","","","","","","","","","","","","","","","","","","","","","","","","","","","","","","","","","","","","","","","","","","","","","","","","","","","","","","","","","","","","","MET108MOBOB0 METAR 7026 //008 000000 260829Z AUTO 00000KT 9999 FEW067 22/19 A3019 RMK CDP03661 FEW067 CLD AVG 085=","","","","","","","","","",""
"00702699999","2016-06-26T13:14:00","0.0","0.0","7026.0","WXPOD 7026, AF","FM-15","4","30.20","66","72","","","","","83","SCT:04 64","","","6.21","","000","","0","","","","","","","","","","","","","","","","","","","","","","","","","","","","","","","","","","","","","","","","","","","","","","","","","","","","","","","","","","","","","","","","","","","","","","","","","","","","","","","","","","","","","","","","","","","MET108MOBOB0 METAR 7026 //008 000000 260844Z AUTO 00000KT 9999 SCT064 22/19 A3020 RMK CDP03661 SCT064 CLD AVG 064=","","","","","","","","","",""
"00702699999","2016-06-26T13:29:00","0.0","0.0","7026.0","WXPOD 7026, AF","FM-15","4","30.20","66","72","","|FU |","","","83","","","","6.21","","000","","0","","","","","","","","","","","","","","","","","","","","","","","","","","","","","","","","","","","","","","","","","","","","","","","","","","","","","","","","","","","","","","","","","","","","","","","","","","","","","","","","","","","","","","","","","","","MET093MOBOB0 METAR 7026 //008 000000 260859Z AUTO 00000KT 9999 HZ CLR 22/19 A3020 RMK CDP03661 CLR=","","","","","","","","","",""
"00702699999","2016-06-26T13:44:00","0.0","0.0","7026.0","WXPOD 7026, AF","FM-15","4","30.20","66","72","","|FU |","","","83","","","","6.21","","000","","0","","","","","","","","","","","","","","","","","","","","","","","","","","","","","","","","","","","","","","","","","","","","","","","","","","","","","","","","","","","","","","","","","","","","","","","","","","","","","","","","","","","","","","","","","","","MET093MOBOB0 METAR 7026 //008 000000 260914Z AUTO 00000KT 9999 HZ CLR 22/19 A3020 RMK CDP03661 CLR=","","","","","","","","","",""
"00702699999","2016-06-26T13:59:00","0.0","0.0","7026.0","WXPOD 7026, AF","FM-15","4","30.20","66","72","","|FU |","","","83","FEW:02 107","","","6.21","","000","","0","","","","","","","","","","","","","","","","","","","","","","","","","","","","","","","","","","","","","","","","","","","","","","","","","","","","","","","","","","","","","","","","","","","","","","","","","","","","","","","","","","","","","","","","","","","MET111MOBOB0 METAR 7026 //008 000000 260929Z AUTO 00000KT 9999 HZ FEW107 22/19 A3020 RMK CDP03661 FEW107 CLD AVG 107=","","","","","","","","","",""
"00702699999","2016-06-26T14:14:00","0.0","0.0","7026.0","WXPOD 7026, AF","FM-15","4","30.21","66","72","","|FU |","","","83","","","","6.21","","000","","0","","","","","","","","","","","","","","","","","","","","","","","","","","","","","","","","","","","","","","","","","","","","","","","","","","","","","","","","","","","","","","","","","","","","","","","","","","","","","","","","","","","","","","","","","","","MET093MOBOB0 METAR 7026 //008 000000 260944Z AUTO 00000KT 9999 HZ CLR 22/19 A3021 RMK CDP03661 CLR=","","","","","","","","","",""
"00702699999","2016-06-26T14:29:00","0.0","0.0","7026.0","WXPOD 7026, AF","FM-15","4","30.21","66","70","","|FU |","","","88","","","","6.21","","000","","0","","","","","","","","","","","","","","","","","","","","","","","","","","","","","","","","","","","","","","","","","","","","","","","","","","","","","","","","","","","","","","","","","","","","","","","","","","","","","","","","","","","","","","","","","","","MET093MOBOB0 METAR 7026 //008 000000 260959Z AUTO 00000KT 9999 HZ CLR 21/19 A3021 RMK CDP03661 CLR=","","","","","","","","","",""
"00702699999","2016-06-26T14:44:00","0.0","0.0","7026.0","WXPOD 7026, AF","FM-15","4","30.21","66","70","","|FU |","","","88","","","","6.21","","000","","0","","","","","","","","","","","","","","","","","","","","","","","","","","","","","","","","","","","","","","","","","","","","","","","","","","","","","","","","","","","","","","","","","","","","","","","","","","","","","","","","","","","","","","","","","","","MET093MOBOB0 METAR 7026 //008 000000 261014Z AUTO 00000KT 9999 HZ CLR 21/19 A3021 RMK CDP03661 CLR=","","","","","","","","","",""
"00702699999","2016-06-26T14:59:00","0.0","0.0","7026.0","WXPOD 7026, AF","FM-15","4","30.21","66","70","","|FU |","","","88","","","","6.21","","000","","0","","","","","","","","","","","","","","","","","","","","","","","","","","","","","","","","","","","","","","","","","","","","","","","","","","","","","","","","","","","","","","","","","","","","","","","","","","","","","","","","","","","","","","","","","","","MET093MOBOB0 METAR 7026 //008 000000 261029Z AUTO 00000KT 9999 HZ CLR 21/19 A3021 RMK CDP03661 CLR=","","","","","","","","","",""
"00702699999","2016-06-26T15:14:00","0.0","0.0","7026.0","WXPOD 7026, AF","FM-15","4","30.21","66","72","","|FU |","","","83","","","","6.21","","000","","0","","","","","","","","","","","","","","","","","","","","","","","","","","","","","","","","","","","","","","","","","","","","","","","","","","","","","","","","","","","","","","","","","","","","","","","","","","","","","","","","","","","","","","","","","","","MET093MOBOB0 METAR 7026 //008 000000 261044Z AUTO 00000KT 9999 HZ CLR 22/19 A3021 RMK CDP03661 CLR=","","","","","","","","","",""
"00702699999","2016-06-26T15:29:00","0.0","0.0","7026.0","WXPOD 7026, AF","FM-15","4","30.22","66","70","","|FU |","","","88","","","","6.21","","000","","0","","","","","","","","","","","","","","","","","","","","","","","","","","","","","","","","","","","","","","","","","","","","","","","","","","","","","","","","","","","","","","","","","","","","","","","","","","","","","","","","","","","","","","","","","","","MET093MOBOB0 METAR 7026 //008 000000 261059Z AUTO 00000KT 9999 HZ CLR 21/19 A3022 RMK CDP03661 CLR=","","","","","","","","","",""
"00702699999","2016-06-26T15:44:00","0.0","0.0","7026.0","WXPOD 7026, AF","FM-15","4","30.22","66","72","","","","","83","","","","","","000","","0","","","","","","","","","","","","","","","","","","","","","","","","","","","","","","","","","","","","","","","","","","","","","","","","","","","","","","","","","","","","","","","","","","","","","","","","","","","","","","","","","","","","","","","","","","","MET090MOBOB0 METAR 7026 //008 000000 261114Z AUTO 00000KT //// CLR 22/19 A3022 RMK CDP03661 CLR=","","","","","","","","","",""
"00702699999","2016-06-26T15:59:00","0.0","0.0","7026.0","WXPOD 7026, AF","FM-15","4","30.22","66","72","","|FU |","","","83","","","","6.21","","000","","0","","","","","","","","","","","","","","","","","","","","","","","","","","","","","","","","","","","","","","","","","","","","","","","","","","","","","","","","","","","","","","","","","","","","","","","","","","","","","","","","","","","","","","","","","","","MET093MOBOB0 METAR 7026 //008 000000 261129Z AUTO 00000KT 9999 HZ CLR 22/19 A3022 RMK CDP03661 CLR=","","","","","","","","","",""
"00702699999","2016-06-26T16:14:00","0.0","0.0","7026.0","WXPOD 7026, AF","FM-15","4","30.23","64","72","","|FU |","","","78","","","","6.21","","000","","0","","","","","","","","","","","","","","","","","","","","","","","","","","","","","","","","","","","","","","","","","","","","","","","","","","","","","","","","","","","","","","","","","","","","","","","","","","","","","","","","","","","","","","","","","","","MET093MOBOB0 METAR 7026 //008 000000 261144Z AUTO 00000KT 9999 HZ CLR 22/18 A3023 RMK CDP03661 CLR=","","","","","","","","","",""
"00702699999","2016-06-26T16:29:00","0.0","0.0","7026.0","WXPOD 7026, AF","FM-15","4","30.23","64","72","","","","","78","","","","6.21","","000","","0","","","","","","","","","","","","","","","","","","","","","","","","","","","","","","","","","","","","","","","","","","","","","","","","","","","","","","","","","","","","","","","","","","","","","","","","","","","","","","","","","","","","","","","","","","","MET090MOBOB0 METAR 7026 //008 000000 261159Z AUTO 00000KT 9999 CLR 22/18 A3023 RMK CDP03661 CLR=","","","","","","","","","",""
"00702699999","2016-06-26T16:44:00","0.0","0.0","7026.0","WXPOD 7026, AF","FM-15","4","30.23","64","73","","","","","74","","","","6.21","","000","","0","","","","","","","","","","","","","","","","","","","","","","","","","","","","","","","","","","","","","","","","","","","","","","","","","","","","","","","","","","","","","","","","","","","","","","","","","","","","","","","","","","","","","","","","","","","MET090MOBOB0 METAR 7026 //008 000000 261214Z AUTO 00000KT 9999 CLR 23/18 A3023 RMK CDP03661 CLR=","","","","","","","","","",""
"00702699999","2016-06-26T16:59:00","0.0","0.0","7026.0","WXPOD 7026, AF","FM-15","4","30.23","64","73","","","","","74","","","","6.21","","000","","0","","","","","","","","","","","","","","","","","","","","","","","","","","","","","","","","","","","","","","","","","","","","","","","","","","","","","","","","","","","","","","","","","","","","","","","","","","","","","","","","","","","","","","","","","","","MET090MOBOB0 METAR 7026 //008 000000 261229Z AUTO 00000KT 9999 CLR 23/18 A3023 RMK CDP03661 CLR=","","","","","","","","","",""
"00702699999","2016-06-26T17:14:00","0.0","0.0","7026.0","WXPOD 7026, AF","FM-15","4","30.23","64","75","","","","","69","","","","","","000","","0","","","","","","","","","","","","","","","","","","","","","","","","","","","","","","","","","","","","","","","","","","","","","","","","","","","","","","","","","","","","","","","","","","","","","","","","","","","","","","","","","","","","","","","","","","","MET090MOBOB0 METAR 7026 //008 000000 261244Z AUTO 00000KT //// CLR 24/18 A3023 RMK CDP03661 CLR=","","","","","","","","","",""
"00702699999","2016-06-26T17:29:00","0.0","0.0","7026.0","WXPOD 7026, AF","FM-15","4","30.22","63","77","","","","","61","","","","6.21","","000","","0","","","","","","","","","","","","","","","","","","","","","","","","","","","","","","","","","","","","","","","","","","","","","","","","","","","","","","","","","","","","","","","","","","","","","","","","","","","","","","","","","","","","","","","","","","","MET090MOBOB0 METAR 7026 //008 000000 261259Z AUTO 00000KT 9999 CLR 25/17 A3022 RMK CDP03661 CLR=","","","","","","","","","",""
"00702699999","2016-06-26T17:44:00","0.0","0.0","7026.0","WXPOD 7026, AF","FM-15","4","30.22","63","77","","","","","61","","","","","","000","","0","","","","","","","","","","","","","","","","","","","","","","","","","","","","","","","","","","","","","","","","","","","","","","","","","","","","","","","","","","","","","","","","","","","","","","","","","","","","","","","","","","","","","","","","","","","MET090MOBOB0 METAR 7026 //008 000000 261314Z AUTO 00000KT //// CLR 25/17 A3022 RMK CDP03661 CLR=","","","","","","","","","",""
"00702699999","2016-06-26T17:59:00","0.0","0.0","7026.0","WXPOD 7026, AF","FM-15","4","30.22","63","77","","","","","61","","","","6.21","","000","","0","","","","","","","","","","","","","","","","","","","","","","","","","","","","","","","","","","","","","","","","","","","","","","","","","","","","","","","","","","","","","","","","","","","","","","","","","","","","","","","","","","","","","","","","","","","MET090MOBOB0 METAR 7026 //008 000000 261329Z AUTO 00000KT 9999 CLR 25/17 A3022 RMK CDP03661 CLR=","","","","","","","","","",""
"00702699999","2016-06-26T18:17:00","0.0","0.0","7026.0","WXPOD 7026, AF","FM-15","4","30.22","61","79","","","","","54","","","","6.21","","000","","0","","","","","","","","","","","","","","","","","","","","","","","","","","","","","","","","","","","","","","","","","","","","","","","","","","","","","","","","","","","","","","","","","","","","","","","","","","","","","","","","","","","","","","","","","","","MET090MOBOB0 METAR 7026 //008 000000 261347Z AUTO 00000KT 9999 CLR 26/16 A3022 RMK CDP03661 CLR=","","","","","","","","","",""
"00702699999","2016-06-26T18:44:00","0.0","0.0","7026.0","WXPOD 7026, AF","FM-15","4","30.21","59","81","","","","","48","","","","6.21","","000","","0","","","","","","","","","","","","","","","","","","","","","","","","","","","","","","","","","","","","","","","","","","","","","","","","","","","","","","","","","","","","","","","","","","","","","","","","","","","","","","","","","","","","","","","","","","","MET090MOBOB0 METAR 7026 //008 000000 261414Z AUTO 00000KT 9999 CLR 27/15 A3021 RMK CDP03661 CLR=","","","","","","","","","",""
"00702699999","2016-06-26T18:59:00","0.0","0.0","7026.0","WXPOD 7026, AF","FM-15","4","30.22","59","82","","","","","45","","","","","","000","","0","","","","","","","","","","","","","","","","","","","","","","","","","","","","","","","","","","","","","","","","","","","","","","","","","","","","","","","","","","","","","","","","","","","","","","","","","","","","","","","","","","","","","","","","","","","MET090MOBOB0 METAR 7026 //008 000000 261429Z AUTO 00000KT //// CLR 28/15 A3022 RMK CDP03661 CLR=","","","","","","","","","",""
"00702699999","2016-06-26T19:14:00","0.0","0.0","7026.0","WXPOD 7026, AF","FM-15","4","30.22","59","82","","","","","45","","","","6.21","","000","","0","","","","","","","","","","","","","","","","","","","","","","","","","","","","","","","","","","","","","","","","","","","","","","","","","","","","","","","","","","","","","","","","","","","","","","","","","","","","","","","","","","","","","","","","","","","MET090MOBOB0 METAR 7026 //008 000000 261444Z AUTO 00000KT 9999 CLR 28/15 A3022 RMK CDP03661 CLR=","","","","","","","","","",""
"00702699999","2016-06-26T19:29:00","0.0","0.0","7026.0","WXPOD 7026, AF","FM-15","4","30.22","59","82","","","","","45","","","","","","000","","0","","","","","","","","","","","","","","","","","","","","","","","","","","","","","","","","","","","","","","","","","","","","","","","","","","","","","","","","","","","","","","","","","","","","","","","","","","","","","","","","","","","","","","","","","","","MET090MOBOB0 METAR 7026 //008 000000 261459Z AUTO 00000KT //// CLR 28/15 A3022 RMK CDP03661 CLR=","","","","","","","","","",""
"00702699999","2016-06-26T19:44:00","0.0","0.0","7026.0","WXPOD 7026, AF","FM-15","4","30.21","57","82","","","","","42","","","","6.21","","000","","0","","","","","","","","","","","","","","","","","","","","","","","","","","","","","","","","","","","","","","","","","","","","","","","","","","","","","","","","","","","","","","","","","","","","","","","","","","","","","","","","","","","","","","","","","","","MET090MOBOB0 METAR 7026 //008 000000 261514Z AUTO 00000KT 9999 CLR 28/14 A3021 RMK CDP03661 CLR=","","","","","","","","","",""
"00702699999","2016-06-26T19:59:00","0.0","0.0","7026.0","WXPOD 7026, AF","FM-15","4","30.22","57","84","","","","","40","","","","","","000","","0","","","","","","","","","","","","","","","","","","","","","","","","","","","","","","","","","","","","","","","","","","","","","","","","","","","","","","","","","","","","","","","","","","","","","","","","","","","","","","","","","","","","","","","","","","","MET090MOBOB0 METAR 7026 //008 000000 261529Z AUTO 00000KT //// CLR 29/14 A3022 RMK CDP03661 CLR=","","","","","","","","","",""
"00702699999","2016-06-26T20:14:00","0.0","0.0","7026.0","WXPOD 7026, AF","FM-15","4","30.22","57","82","","","","","42","","","","6.21","","000","","0","","","","","","","","","","","","","","","","","","","","","","","","","","","","","","","","","","","","","","","","","","","","","","","","","","","","","","","","","","","","","","","","","","","","","","","","","","","","","","","","","","","","","","","","","","","MET090MOBOB0 METAR 7026 //008 000000 261544Z AUTO 00000KT 9999 CLR 28/14 A3022 RMK CDP03661 CLR=","","","","","","","","","",""
"00702699999","2016-06-26T20:29:00","0.0","0.0","7026.0","WXPOD 7026, AF","FM-15","4","30.22","57","84","","","","","40","","","","6.21","","000","","0","","","","","","","","","","","","","","","","","","","","","","","","","","","","","","","","","","","","","","","","","","","","","","","","","","","","","","","","","","","","","","","","","","","","","","","","","","","","","","","","","","","","","","","","","","","MET090MOBOB0 METAR 7026 //008 000000 261559Z AUTO 00000KT 9999 CLR 29/14 A3022 RMK CDP03661 CLR=","","","","","","","","","",""
"00702699999","2016-06-26T20:44:00","0.0","0.0","7026.0","WXPOD 7026, AF","FM-15","4","30.22","55","84","","","","","37","","","","6.21","","000","","0","","","","","","","","","","","","","","","","","","","","","","","","","","","","","","","","","","","","","","","","","","","","","","","","","","","","","","","","","","","","","","","","","","","","","","","","","","","","","","","","","","","","","","","","","","","MET090MOBOB0 METAR 7026 //008 000000 261614Z AUTO 00000KT 9999 CLR 29/13 A3022 RMK CDP03661 CLR=","","","","","","","","","",""
"00702699999","2016-06-26T20:59:00","0.0","0.0","7026.0","WXPOD 7026, AF","FM-15","4","30.22","57","84","","","","","40","","","","","","000","","0","","","","","","","","","","","","","","","","","","","","","","","","","","","","","","","","","","","","","","","","","","","","","","","","","","","","","","","","","","","","","","","","","","","","","","","","","","","","","","","","","","","","","","","","","","","MET090MOBOB0 METAR 7026 //008 000000 261629Z AUTO 00000KT //// CLR 29/14 A3022 RMK CDP03661 CLR=","","","","","","","","","",""
"00702699999","2016-06-26T21:14:00","0.0","0.0","7026.0","WXPOD 7026, AF","FM-15","4","30.22","57","86","","","","","38","","","","6.21","","000","","0","","","","","","","","","","","","","","","","","","","","","","","","","","","","","","","","","","","","","","","","","","","","","","","","","","","","","","","","","","","","","","","","","","","","","","","","","","","","","","","","","","","","","","","","","","","MET090MOBOB0 METAR 7026 //008 000000 261644Z AUTO 00000KT 9999 CLR 30/14 A3022 RMK CDP03661 CLR=","","","","","","","","","",""
"00702699999","2016-06-26T21:29:00","0.0","0.0","7026.0","WXPOD 7026, AF","FM-15","4","30.22","57","86","","","","","38","","","","6.21","","000","","0","","","","","","","","","","","","","","","","","","","","","","","","","","","","","","","","","","","","","","","","","","","","","","","","","","","","","","","","","","","","","","","","","","","","","","","","","","","","","","","","","","","","","","","","","","","MET090MOBOB0 METAR 7026 //008 000000 261659Z AUTO 00000KT 9999 CLR 30/14 A3022 RMK CDP03661 CLR=","","","","","","","","","",""
"00702699999","2016-06-26T21:44:00","0.0","0.0","7026.0","WXPOD 7026, AF","FM-15","4","30.21","55","86","","","","","35","","","","6.21","","000","","0","","","","","","","","","","","","","","","","","","","","","","","","","","","","","","","","","","","","","","","","","","","","","","","","","","","","","","","","","","","","","","","","","","","","","","","","","","","","","","","","","","","","","","","","","","","MET090MOBOB0 METAR 7026 //008 000000 261714Z AUTO 00000KT 9999 CLR 30/13 A3021 RMK CDP03661 CLR=","","","","","","","","","",""
"00702699999","2016-06-26T21:59:00","0.0","0.0","7026.0","WXPOD 7026, AF","FM-15","4","30.21","57","88","","","","","35","","","","6.21","","000","","0","","","","","","","","","","","","","","","","","","","","","","","","","","","","","","","","","","","","","","","","","","","","","","","","","","","","","","","","","","","","","","","","","","","","","","","","","","","","","","","","","","","","","","","","","","","MET090MOBOB0 METAR 7026 //008 000000 261729Z AUTO 00000KT 9999 CLR 31/14 A3021 RMK CDP03661 CLR=","","","","","","","","","",""
"00702699999","2016-06-26T22:14:00","0.0","0.0","7026.0","WXPOD 7026, AF","FM-15","4","30.20","55","88","","","","","33","","","","6.21","","000","","0","","","","","","","","","","","","","","","","","","","","","","","","","","","","","","","","","","","","","","","","","","","","","","","","","","","","","","","","","","","","","","","","","","","","","","","","","","","","","","","","","","","","","","","","","","","MET090MOBOB0 METAR 7026 //008 000000 261744Z AUTO 00000KT 9999 CLR 31/13 A3020 RMK CDP03661 CLR=","","","","","","","","","",""
"00702699999","2016-06-26T22:29:00","0.0","0.0","7026.0","WXPOD 7026, AF","FM-15","4","30.20","55","88","","","","","33","","","","6.21","","000","","0","","","","","","","","","","","","","","","","","","","","","","","","","","","","","","","","","","","","","","","","","","","","","","","","","","","","","","","","","","","","","","","","","","","","","","","","","","","","","","","","","","","","","","","","","","","MET090MOBOB0 METAR 7026 //008 000000 261759Z AUTO 00000KT 9999 CLR 31/13 A3020 RMK CDP03661 CLR=","","","","","","","","","",""
"00702699999","2016-06-26T22:44:00","0.0","0.0","7026.0","WXPOD 7026, AF","FM-15","4","30.19","55","88","","","","","33","","","","6.21","","000","","0","","","","","","","","","","","","","","","","","","","","","","","","","","","","","","","","","","","","","","","","","","","","","","","","","","","","","","","","","","","","","","","","","","","","","","","","","","","","","","","","","","","","","","","","","","","MET090MOBOB0 METAR 7026 //008 000000 261814Z AUTO 00000KT 9999 CLR 31/13 A3019 RMK CDP03661 CLR=","","","","","","","","","",""
"00702699999","2016-06-26T22:59:00","0.0","0.0","7026.0","WXPOD 7026, AF","FM-15","4","30.19","52","88","","","","","29","","","","6.21","","000","","0","","","","","","","","","","","","","","","","","","","","","","","","","","","","","","","","","","","","","","","","","","","","","","","","","","","","","","","","","","","","","","","","","","","","","","","","","","","","","","","","","","","","","","","","","","","MET090MOBOB0 METAR 7026 //008 000000 261829Z AUTO 00000KT 9999 CLR 31/11 A3019 RMK CDP03661 CLR=","","","","","","","","","",""
"00702699999","2016-06-26T23:14:00","0.0","0.0","7026.0","WXPOD 7026, AF","FM-15","4","30.18","55","88","","","","","33","","","","6.21","","000","","0","","","","","","","","","","","","","","","","","","","","","","","","","","","","","","","","","","","","","","","","","","","","","","","","","","","","","","","","","","","","","","","","","","","","","","","","","","","","","","","","","","","","","","","","","","","MET090MOBOB0 METAR 7026 //008 000000 261844Z AUTO 00000KT 9999 CLR 31/13 A3018 RMK CDP03661 CLR=","","","","","","","","","",""
"00702699999","2016-06-26T23:29:00","0.0","0.0","7026.0","WXPOD 7026, AF","FM-15","4","30.18","55","90","","","","","31","","","","6.21","","000","","0","","","","","","","","","","","","","","","","","","","","","","","","","","","","","","","","","","","","","","","","","","","","","","","","","","","","","","","","","","","","","","","","","","","","","","","","","","","","","","","","","","","","","","","","","","","MET090MOBOB0 METAR 7026 //008 000000 261859Z AUTO 00000KT 9999 CLR 32/13 A3018 RMK CDP03661 CLR=","","","","","","","","","",""
"00702699999","2016-06-26T23:44:00","0.0","0.0","7026.0","WXPOD 7026, AF","FM-15","4","30.17","55","90","","","","","31","","","","","","000","","0","","","","","","","","","","","","","","","","","","","","","","","","","","","","","","","","","","","","","","","","","","","","","","","","","","","","","","","","","","","","","","","","","","","","","","","","","","","","","","","","","","","","","","","","","","","MET090MOBOB0 METAR 7026 //008 000000 261914Z AUTO 00000KT //// CLR 32/13 A3017 RMK CDP03661 CLR=","","","","","","","","","",""
"00702699999","2016-06-26T23:59:00","0.0","0.0","7026.0","WXPOD 7026, AF","FM-15","4","30.17","54","90","","","","","29","","","","6.21","","000","","0","","","","","","","","","","","","","","","","","","","","","","","","","","","","","","","","","","","","","","","","","","","","","","","","","","","","","","","","","","","","","","","","","","","","","","","","","","","","","","","","","","","","","","","","","","","MET090MOBOB0 METAR 7026 //008 000000 261929Z AUTO 00000KT 9999 CLR 32/12 A3017 RMK CDP03661 CLR=","","","","","","","","","",""
"00702699999","2016-06-27T00:14:00","0.0","0.0","7026.0","WXPOD 7026, AF","FM-15","4","30.16","55","90","","","","","31","","","","6.21","","000","","0","","","","","","","","","","","","","","","","","","","","","","","","","","","","","","","","","","","","","","","","","","","","","","","","","","","","","","","","","","","","","","","","","","","","","","","","","","","","","","","","","","","","","","","","","","","MET090MOBOB0 METAR 7026 //008 000000 261944Z AUTO 00000KT 9999 CLR 32/13 A3016 RMK CDP03661 CLR=","","","","","","","","","",""
"00702699999","2016-06-27T00:29:00","0.0","0.0","7026.0","WXPOD 7026, AF","FM-15","4","30.16","54","90","","","","","29","","","","6.21","","000","","0","","","","","","","","","","","","","","","","","","","","","","","","","","","","","","","","","","","","","","","","","","","","","","","","","","","","","","","","","","","","","","","","","","","","","","","","","","","","","","","","","","","","","","","","","","","MET090MOBOB0 METAR 7026 //008 000000 261959Z AUTO 00000KT 9999 CLR 32/12 A3016 RMK CDP03661 CLR=","","","","","","","","","",""
"00702699999","2016-06-27T00:44:00","0.0","0.0","7026.0","WXPOD 7026, AF","FM-15","4","30.16","55","90","","","","","31","","","","6.21","","000","","0","","","","","","","","","","","","","","","","","","","","","","","","","","","","","","","","","","","","","","","","","","","","","","","","","","","","","","","","","","","","","","","","","","","","","","","","","","","","","","","","","","","","","","","","","","","MET090MOBOB0 METAR 7026 //008 000000 262014Z AUTO 00000KT 9999 CLR 32/13 A3016 RMK CDP03661 CLR=","","","","","","","","","",""
"00702699999","2016-06-27T00:59:00","0.0","0.0","7026.0","WXPOD 7026, AF","FM-15","4","30.15","57","91","","","","","32","","","","6.21","","000","","0","","","","","","","","","","","","","","","","","","","","","","","","","","","","","","","","","","","","","","","","","","","","","","","","","","","","","","","","","","","","","","","","","","","","","","","","","","","","","","","","","","","","","","","","","","","MET090MOBOB0 METAR 7026 //008 000000 262029Z AUTO 00000KT 9999 CLR 33/14 A3015 RMK CDP03661 CLR=","","","","","","","","","",""
"00702699999","2016-06-27T01:14:00","0.0","0.0","7026.0","WXPOD 7026, AF","FM-15","4","30.15","55","90","","","","","31","","","","","","000","","0","","","","","","","","","","","","","","","","","","","","","","","","","","","","","","","","","","","","","","","","","","","","","","","","","","","","","","","","","","","","","","","","","","","","","","","","","","","","","","","","","","","","","","","","","","","MET090MOBOB0 METAR 7026 //008 000000 262044Z AUTO 00000KT //// CLR 32/13 A3015 RMK CDP03661 CLR=","","","","","","","","","",""
"00702699999","2016-06-27T01:29:00","0.0","0.0","7026.0","WXPOD 7026, AF","FM-15","4","30.14","57","91","","","","","32","","","","6.21","","000","","0","","","","","","","","","","","","","","","","","","","","","","","","","","","","","","","","","","","","","","","","","","","","","","","","","","","","","","","","","","","","","","","","","","","","","","","","","","","","","","","","","","","","","","","","","","","MET090MOBOB0 METAR 7026 //008 000000 262059Z AUTO 00000KT 9999 CLR 33/14 A3014 RMK CDP03661 CLR=","","","","","","","","","",""
"00702699999","2016-06-27T01:44:00","0.0","0.0","7026.0","WXPOD 7026, AF","FM-15","4","30.13","55","90","","","","","31","","","","","","000","","0","","","","","","","","","","","","","","","","","","","","","","","","","","","","","","","","","","","","","","","","","","","","","","","","","","","","","","","","","","","","","","","","","","","","","","","","","","","","","","","","","","","","","","","","","","","MET090MOBOB0 METAR 7026 //008 000000 262114Z AUTO 00000KT //// CLR 32/13 A3013 RMK CDP03661 CLR=","","","","","","","","","",""
"00702699999","2016-06-27T01:59:00","0.0","0.0","7026.0","WXPOD 7026, AF","FM-15","4","30.13","55","91","","","","","30","","","","6.21","","000","","0","","","","","","","","","","","","","","","","","","","","","","","","","","","","","","","","","","","","","","","","","","","","","","","","","","","","","","","","","","","","","","","","","","","","","","","","","","","","","","","","","","","","","","","","","","","MET090MOBOB0 METAR 7026 //008 000000 262129Z AUTO 00000KT 9999 CLR 33/13 A3013 RMK CDP03661 CLR=","","","","","","","","","",""
"00702699999","2016-06-27T02:14:00","0.0","0.0","7026.0","WXPOD 7026, AF","FM-15","4","30.13","57","91","","","","","32","","","","6.21","","000","","0","","","","","","","","","","","","","","","","","","","","","","","","","","","","","","","","","","","","","","","","","","","","","","","","","","","","","","","","","","","","","","","","","","","","","","","","","","","","","","","","","","","","","","","","","","","MET090MOBOB0 METAR 7026 //008 000000 262144Z AUTO 00000KT 9999 CLR 33/14 A3013 RMK CDP03661 CLR=","","","","","","","","","",""
"00702699999","2016-06-27T02:29:00","0.0","0.0","7026.0","WXPOD 7026, AF","FM-15","4","30.13","57","90","","","","","33","","","","6.21","","000","","0","","","","","","","","","","","","","","","","","","","","","","","","","","","","","","","","","","","","","","","","","","","","","","","","","","","","","","","","","","","","","","","","","","","","","","","","","","","","","","","","","","","","","","","","","","","MET090MOBOB0 METAR 7026 //008 000000 262159Z AUTO 00000KT 9999 CLR 32/14 A3013 RMK CDP03661 CLR=","","","","","","","","","",""
"00702699999","2016-06-27T02:44:00","0.0","0.0","7026.0","WXPOD 7026, AF","FM-15","4","30.12","57","90","","","","","33","","","","6.21","","000","","0","","","","","","","","","","","","","","","","","","","","","","","","","","","","","","","","","","","","","","","","","","","","","","","","","","","","","","","","","","","","","","","","","","","","","","","","","","","","","","","","","","","","","","","","","","","MET090MOBOB0 METAR 7026 //008 000000 262214Z AUTO 00000KT 9999 CLR 32/14 A3012 RMK CDP03661 CLR=","","","","","","","","","",""
"00702699999","2016-06-27T02:59:00","0.0","0.0","7026.0","WXPOD 7026, AF","FM-15","4","30.12","57","90","","","","","33","","","","","","000","","0","","","","","","","","","","","","","","","","","","","","","","","","","","","","","","","","","","","","","","","","","","","","","","","","","","","","","","","","","","","","","","","","","","","","","","","","","","","","","","","","","","","","","","","","","","","MET090MOBOB0 METAR 7026 //008 000000 262229Z AUTO 00000KT //// CLR 32/14 A3012 RMK CDP03661 CLR=","","","","","","","","","",""
"00702699999","2016-06-27T03:14:00","0.0","0.0","7026.0","WXPOD 7026, AF","FM-15","4","30.12","57","90","","","","","33","","","","6.21","","000","","0","","","","","","","","","","","","","","","","","","","","","","","","","","","","","","","","","","","","","","","","","","","","","","","","","","","","","","","","","","","","","","","","","","","","","","","","","","","","","","","","","","","","","","","","","","","MET090MOBOB0 METAR 7026 //008 000000 262244Z AUTO 00000KT 9999 CLR 32/14 A3012 RMK CDP03661 CLR=","","","","","","","","","",""
"00702699999","2016-06-27T03:29:00","0.0","0.0","7026.0","WXPOD 7026, AF","FM-15","4","30.12","59","90","","","","","36","","","","6.21","","000","","0","","","","","","","","","","","","","","","","","","","","","","","","","","","","","","","","","","","","","","","","","","","","","","","","","","","","","","","","","","","","","","","","","","","","","","","","","","","","","","","","","","","","","","","","","","","MET090MOBOB0 METAR 7026 //008 000000 262259Z AUTO 00000KT 9999 CLR 32/15 A3012 RMK CDP03661 CLR=","","","","","","","","","",""
"00702699999","2016-06-27T03:44:00","0.0","0.0","7026.0","WXPOD 7026, AF","FM-15","4","30.11","59","90","","","","","36","","","","","","000","","0","","","","","","","","","","","","","","","","","","","","","","","","","","","","","","","","","","","","","","","","","","","","","","","","","","","","","","","","","","","","","","","","","","","","","","","","","","","","","","","","","","","","","","","","","","","MET090MOBOB0 METAR 7026 //008 000000 262314Z AUTO 00000KT //// CLR 32/15 A3011 RMK CDP03661 CLR=","","","","","","","","","",""
"00702699999","2016-06-27T03:59:00","0.0","0.0","7026.0","WXPOD 7026, AF","FM-15","4","30.12","57","88","","","","","35","","","","6.21","","000","","0","","","","","","","","","","","","","","","","","","","","","","","","","","","","","","","","","","","","","","","","","","","","","","","","","","","","","","","","","","","","","","","","","","","","","","","","","","","","","","","","","","","","","","","","","","","MET090MOBOB0 METAR 7026 //008 000000 262329Z AUTO 00000KT 9999 CLR 31/14 A3012 RMK CDP03661 CLR=","","","","","","","","","",""
"00702699999","2016-06-27T04:14:00","0.0","0.0","7026.0","WXPOD 7026, AF","FM-15","4","30.12","59","88","","","","","38","FEW:02 60","","","6.21","","000","","0","","","","","","","","","","","","","","","","","","","","","","","","","","","","","","","","","","","","","","","","","","","","","","","","","","","","","","","","","","","","","","","","","","","","","","","","","","","","","","","","","","","","","","","","","","","MET108MOBOB0 METAR 7026 //008 000000 262344Z AUTO 00000KT 9999 FEW060 31/15 A3012 RMK CDP03661 FEW060 CLD AVG 060=","","","","","","","","","",""
"00702699999","2016-06-27T04:29:00","0.0","0.0","7026.0","WXPOD 7026, AF","FM-15","4","30.12","59","86","","","","","40","","","","6.21","","000","","0","","","","","","","","","","","","","","","","","","","","","","","","","","","","","","","","","","","","","","","","","","","","","","","","","","","","","","","","","","","","","","","","","","","","","","","","","","","","","","","","","","","","","","","","","","","MET090MOBOB0 METAR 7026 //008 000000 262359Z AUTO 00000KT 9999 CLR 30/15 A3012 RMK CDP03661 CLR=","","","","","","","","","",""
"00702699999","2016-06-27T04:44:00","0.0","0.0","7026.0","WXPOD 7026, AF","FM-15","4","30.12","59","84","","","","","43","","","","6.21","","000","","0","","","","","","","","","","","","","","","","","","","","","","","","","","","","","","","","","","","","","","","","","","","","","","","","","","","","","","","","","","","","","","","","","","","","","","","","","","","","","","","","","","","","","","","","","","","MET090MOBOB0 METAR 7026 //008 000000 270014Z AUTO 00000KT 9999 CLR 29/15 A3012 RMK CDP03661 CLR=","","","","","","","","","",""
"00702699999","2016-06-27T04:59:00","0.0","0.0","7026.0","WXPOD 7026, AF","FM-15","4","30.13","59","84","","","","","43","","","","","","000","","0","","","","","","","","","","","","","","","","","","","","","","","","","","","","","","","","","","","","","","","","","","","","","","","","","","","","","","","","","","","","","","","","","","","","","","","","","","","","","","","","","","","","","","","","","","","MET090MOBOB0 METAR 7026 //008 000000 270029Z AUTO 00000KT //// CLR 29/15 A3013 RMK CDP03661 CLR=","","","","","","","","","",""
"00702699999","2016-06-27T05:14:00","0.0","0.0","7026.0","WXPOD 7026, AF","FM-15","4","30.13","59","84","","","","","43","","","","6.21","","000","","0","","","","","","","","","","","","","","","","","","","","","","","","","","","","","","","","","","","","","","","","","","","","","","","","","","","","","","","","","","","","","","","","","","","","","","","","","","","","","","","","","","","","","","","","","","","MET090MOBOB0 METAR 7026 //008 000000 270044Z AUTO 00000KT 9999 CLR 29/15 A3013 RMK CDP03661 CLR=","","","","","","","","","",""
"00702699999","2016-06-27T05:29:00","0.0","0.0","7026.0","WXPOD 7026, AF","FM-15","4","30.13","59","82","","","","","45","","","","","","000","","0","","","","","","","","","","","","","","","","","","","","","","","","","","","","","","","","","","","","","","","","","","","","","","","","","","","","","","","","","","","","","","","","","","","","","","","","","","","","","","","","","","","","","","","","","","","MET090MOBOB0 METAR 7026 //008 000000 270059Z AUTO 00000KT //// CLR 28/15 A3013 RMK CDP03661 CLR=","","","","","","","","","",""
"00702699999","2016-06-27T05:44:00","0.0","0.0","7026.0","WXPOD 7026, AF","FM-15","4","30.13","59","82","","","","","45","","","","6.21","","000","","0","","","","","","","","","","","","","","","","","","","","","","","","","","","","","","","","","","","","","","","","","","","","","","","","","","","","","","","","","","","","","","","","","","","","","","","","","","","","","","","","","","","","","","","","","","","MET090MOBOB0 METAR 7026 //008 000000 270114Z AUTO 00000KT 9999 CLR 28/15 A3013 RMK CDP03661 CLR=","","","","","","","","","",""
"00702699999","2016-06-27T05:59:00","0.0","0.0","7026.0","WXPOD 7026, AF","FM-15","4","30.13","61","82","","","","","48","","","","6.21","","000","","0","","","","","","","","","","","","","","","","","","","","","","","","","","","","","","","","","","","","","","","","","","","","","","","","","","","","","","","","","","","","","","","","","","","","","","","","","","","","","","","","","","","","","","","","","","","MET090MOBOB0 METAR 7026 //008 000000 270129Z AUTO 00000KT 9999 CLR 28/16 A3013 RMK CDP03661 CLR=","","","","","","","","","",""
"00702699999","2016-06-27T06:14:00","0.0","0.0","7026.0","WXPOD 7026, AF","FM-15","4","30.13","61","82","","","","","48","","","","","","000","","0","","","","","","","","","","","","","","","","","","","","","","","","","","","","","","","","","","","","","","","","","","","","","","","","","","","","","","","","","","","","","","","","","","","","","","","","","","","","","","","","","","","","","","","","","","","MET090MOBOB0 METAR 7026 //008 000000 270144Z AUTO 00000KT //// CLR 28/16 A3013 RMK CDP03661 CLR=","","","","","","","","","",""
"00702699999","2016-06-27T06:29:00","0.0","0.0","7026.0","WXPOD 7026, AF","FM-15","4","30.14","61","81","","","","","51","","","","6.21","","000","","0","","","","","","","","","","","","","","","","","","","","","","","","","","","","","","","","","","","","","","","","","","","","","","","","","","","","","","","","","","","","","","","","","","","","","","","","","","","","","","","","","","","","","","","","","","","MET090MOBOB0 METAR 7026 //008 000000 270159Z AUTO 00000KT 9999 CLR 27/16 A3014 RMK CDP03661 CLR=","","","","","","","","","",""
"00702699999","2016-06-27T06:44:00","0.0","0.0","7026.0","WXPOD 7026, AF","FM-15","4","30.14","61","81","","","","","51","","","","6.21","","000","","0","","","","","","","","","","","","","","","","","","","","","","","","","","","","","","","","","","","","","","","","","","","","","","","","","","","","","","","","","","","","","","","","","","","","","","","","","","","","","","","","","","","","","","","","","","","MET090MOBOB0 METAR 7026 //008 000000 270214Z AUTO 00000KT 9999 CLR 27/16 A3014 RMK CDP03661 CLR=","","","","","","","","","",""
"00702699999","2016-06-27T06:59:00","0.0","0.0","7026.0","WXPOD 7026, AF","FM-15","4","30.14","61","81","","","","","51","","","","6.21","","000","","0","","","","","","","","","","","","","","","","","","","","","","","","","","","","","","","","","","","","","","","","","","","","","","","","","","","","","","","","","","","","","","","","","","","","","","","","","","","","","","","","","","","","","","","","","","","MET090MOBOB0 METAR 7026 //008 000000 270229Z AUTO 00000KT 9999 CLR 27/16 A3014 RMK CDP03661 CLR=","","","","","","","","","",""
"00702699999","2016-06-27T07:14:00","0.0","0.0","7026.0","WXPOD 7026, AF","FM-15","4","30.15","61","81","","","","","51","","","","6.21","","000","","0","","","","","","","","","","","","","","","","","","","","","","","","","","","","","","","","","","","","","","","","","","","","","","","","","","","","","","","","","","","","","","","","","","","","","","","","","","","","","","","","","","","","","","","","","","","MET090MOBOB0 METAR 7026 //008 000000 270244Z AUTO 00000KT 9999 CLR 27/16 A3015 RMK CDP03661 CLR=","","","","","","","","","",""
"00702699999","2016-06-27T07:29:00","0.0","0.0","7026.0","WXPOD 7026, AF","FM-15","4","30.14","61","79","","","","","54","","","","6.21","","000","","0","","","","","","","","","","","","","","","","","","","","","","","","","","","","","","","","","","","","","","","","","","","","","","","","","","","","","","","","","","","","","","","","","","","","","","","","","","","","","","","","","","","","","","","","","","","MET090MOBOB0 METAR 7026 //008 000000 270259Z AUTO 00000KT 9999 CLR 26/16 A3014 RMK CDP03661 CLR=","","","","","","","","","",""
"00702699999","2016-06-27T07:44:00","0.0","0.0","7026.0","WXPOD 7026, AF","FM-15","4","30.15","63","79","","","","","58","","","","6.21","","000","","0","","","","","","","","","","","","","","","","","","","","","","","","","","","","","","","","","","","","","","","","","","","","","","","","","","","","","","","","","","","","","","","","","","","","","","","","","","","","","","","","","","","","","","","","","","","MET090MOBOB0 METAR 7026 //008 000000 270314Z AUTO 00000KT 9999 CLR 26/17 A3015 RMK CDP03661 CLR=","","","","","","","","","",""
"00702699999","2016-06-27T07:59:00","0.0","0.0","7026.0","WXPOD 7026, AF","FM-15","4","30.16","63","77","","","","","61","","","","6.21","","000","","0","","","","","","","","","","","","","","","","","","","","","","","","","","","","","","","","","","","","","","","","","","","","","","","","","","","","","","","","","","","","","","","","","","","","","","","","","","","","","","","","","","","","","","","","","","","MET090MOBOB0 METAR 7026 //008 000000 270329Z AUTO 00000KT 9999 CLR 25/17 A3016 RMK CDP03661 CLR=","","","","","","","","","",""
"00702699999","2016-06-27T08:14:00","0.0","0.0","7026.0","WXPOD 7026, AF","FM-15","4","30.16","61","77","","","","","57","","","","6.21","","000","","0","","","","","","","","","","","","","","","","","","","","","","","","","","","","","","","","","","","","","","","","","","","","","","","","","","","","","","","","","","","","","","","","","","","","","","","","","","","","","","","","","","","","","","","","","","","MET090MOBOB0 METAR 7026 //008 000000 270344Z AUTO 00000KT 9999 CLR 25/16 A3016 RMK CDP03661 CLR=","","","","","","","","","",""
"00702699999","2016-06-27T08:29:00","0.0","0.0","7026.0","WXPOD 7026, AF","FM-15","4","30.16","63","75","","","","","65","","","","6.21","","000","","0","","","","","","","","","","","","","","","","","","","","","","","","","","","","","","","","","","","","","","","","","","","","","","","","","","","","","","","","","","","","","","","","","","","","","","","","","","","","","","","","","","","","","","","","","","","MET090MOBOB0 METAR 7026 //008 000000 270359Z AUTO 00000KT 9999 CLR 24/17 A3016 RMK CDP03661 CLR=","","","","","","","","","",""
"00702699999","2016-06-27T08:44:00","0.0","0.0","7026.0","WXPOD 7026, AF","FM-15","4","30.15","63","75","","","","","65","","","","","","000","","0","","","","","","","","","","","","","","","","","","","","","","","","","","","","","","","","","","","","","","","","","","","","","","","","","","","","","","","","","","","","","","","","","","","","","","","","","","","","","","","","","","","","","","","","","","","MET090MOBOB0 METAR 7026 //008 000000 270414Z AUTO 00000KT //// CLR 24/17 A3015 RMK CDP03661 CLR=","","","","","","","","","",""
"00702699999","2016-06-27T08:59:00","0.0","0.0","7026.0","WXPOD 7026, AF","FM-15","4","30.15","61","75","","","","","61","","","","6.21","","000","","0","","","","","","","","","","","","","","","","","","","","","","","","","","","","","","","","","","","","","","","","","","","","","","","","","","","","","","","","","","","","","","","","","","","","","","","","","","","","","","","","","","","","","","","","","","","MET090MOBOB0 METAR 7026 //008 000000 270429Z AUTO 00000KT 9999 CLR 24/16 A3015 RMK CDP03661 CLR=","","","","","","","","","",""
"00702699999","2016-06-27T09:14:00","0.0","0.0","7026.0","WXPOD 7026, AF","FM-15","4","30.15","63","75","","","","","65","","","","6.21","","000","","0","","","","","","","","","","","","","","","","","","","","","","","","","","","","","","","","","","","","","","","","","","","","","","","","","","","","","","","","","","","","","","","","","","","","","","","","","","","","","","","","","","","","","","","","","","","MET090MOBOB0 METAR 7026 //008 000000 270444Z AUTO 00000KT 9999 CLR 24/17 A3015 RMK CDP03661 CLR=","","","","","","","","","",""
"00702699999","2016-06-27T09:29:00","0.0","0.0","7026.0","WXPOD 7026, AF","FM-15","4","30.15","63","73","","|FU |","","","69","","","","6.21","","000","","0","","","","","","","","","","","","","","","","","","","","","","","","","","","","","","","","","","","","","","","","","","","","","","","","","","","","","","","","","","","","","","","","","","","","","","","","","","","","","","","","","","","","","","","","","","","MET093MOBOB0 METAR 7026 //008 000000 270459Z AUTO 00000KT 9999 HZ CLR 23/17 A3015 RMK CDP03661 CLR=","","","","","","","","","",""
"00702699999","2016-06-27T09:44:00","0.0","0.0","7026.0","WXPOD 7026, AF","FM-15","4","30.15","64","72","","|FU |","","","78","","","","6.21","","000","","0","","","","","","","","","","","","","","","","","","","","","","","","","","","","","","","","","","","","","","","","","","","","","","","","","","","","","","","","","","","","","","","","","","","","","","","","","","","","","","","","","","","","","","","","","","","MET093MOBOB0 METAR 7026 //008 000000 270514Z AUTO 00000KT 9999 HZ CLR 22/18 A3015 RMK CDP03661 CLR=","","","","","","","","","",""
"00702699999","2016-06-27T09:59:00","0.0","0.0","7026.0","WXPOD 7026, AF","FM-15","4","30.16","63","72","","|FU |","","","73","","","","4.97","","000","","0","","","","","","","","","","","","","","","","","","","","","","","","","","","","","","","","","","","","","","","","","","","","","","","","","","","","","","","","","","","","","","","","","","","","","","","","","","","","","","","","","","","","","","","","","","","MET093MOBOB0 METAR 7026 //008 000000 270529Z AUTO 00000KT 8000 HZ CLR 22/17 A3016 RMK CDP03661 CLR=","","","","","","","","","",""
"00702699999","2016-06-27T10:14:00","0.0","0.0","7026.0","WXPOD 7026, AF","FM-15","4","30.15","64","73","","|FU |","","","74","","","","5.59","","000","","0","","","","","","","","","","","","","","","","","","","","","","","","","","","","","","","","","","","","","","","","","","","","","","","","","","","","","","","","","","","","","","","","","","","","","","","","","","","","","","","","","","","","","","","","","","","MET093MOBOB0 METAR 7026 //008 000000 270544Z AUTO 00000KT 9000 HZ CLR 23/18 A3015 RMK CDP03661 CLR=","","","","","","","","","",""
"00702699999","2016-06-27T10:29:00","0.0","0.0","7026.0","WXPOD 7026, AF","FM-15","4","30.15","63","72","","|FU |","","","73","","","","5.59","","000","","0","","","","","","","","","","","","","","","","","","","","","","","","","","","","","","","","","","","","","","","","","","","","","","","","","","","","","","","","","","","","","","","","","","","","","","","","","","","","","","","","","","","","","","","","","","","MET093MOBOB0 METAR 7026 //008 000000 270559Z AUTO 00000KT 9000 HZ CLR 22/17 A3015 RMK CDP03661 CLR=","","","","","","","","","",""
"00702699999","2016-06-27T10:44:00","0.0","0.0","7026.0","WXPOD 7026, AF","FM-15","4","30.15","64","72","","|FU |","","","78","","","","5.59","","000","","0","","","","","","","","","","","","","","","","","","","","","","","","","","","","","","","","","","","","","","","","","","","","","","","","","","","","","","","","","","","","","","","","","","","","","","","","","","","","","","","","","","","","","","","","","","","MET093MOBOB0 METAR 7026 //008 000000 270614Z AUTO 00000KT 9000 HZ CLR 22/18 A3015 RMK CDP03661 CLR=","","","","","","","","","",""
"00702699999","2016-06-27T10:59:00","0.0","0.0","7026.0","WXPOD 7026, AF","FM-15","4","30.14","63","72","","|FU |","","","73","","","","6.21","","000","","0","","","","","","","","","","","","","","","","","","","","","","","","","","","","","","","","","","","","","","","","","","","","","","","","","","","","","","","","","","","","","","","","","","","","","","","","","","","","","","","","","","","","","","","","","","","MET093MOBOB0 METAR 7026 //008 000000 270629Z AUTO 00000KT 9999 HZ CLR 22/17 A3014 RMK CDP03661 CLR=","","","","","","","","","",""
"00702699999","2016-06-27T11:14:00","0.0","0.0","7026.0","WXPOD 7026, AF","FM-15","4","30.14","64","72","","|FU |","","","78","","","","6.21","","000","","0","","","","","","","","","","","","","","","","","","","","","","","","","","","","","","","","","","","","","","","","","","","","","","","","","","","","","","","","","","","","","","","","","","","","","","","","","","","","","","","","","","","","","","","","","","","MET093MOBOB0 METAR 7026 //008 000000 270644Z AUTO 00000KT 9999 HZ CLR 22/18 A3014 RMK CDP03661 CLR=","","","","","","","","","",""
"00702699999","2016-06-27T11:29:00","0.0","0.0","7026.0","WXPOD 7026, AF","FM-15","4","30.13","63","72","","|FU |","","","73","","","","6.21","","000","","0","","","","","","","","","","","","","","","","","","","","","","","","","","","","","","","","","","","","","","","","","","","","","","","","","","","","","","","","","","","","","","","","","","","","","","","","","","","","","","","","","","","","","","","","","","","MET093MOBOB0 METAR 7026 //008 000000 270659Z AUTO 00000KT 9999 HZ CLR 22/17 A3013 RMK CDP03661 CLR=","","","","","","","","","",""
"00702699999","2016-06-27T11:44:00","0.0","0.0","7026.0","WXPOD 7026, AF","FM-15","4","30.13","64","72","","|FU |","","","78","","","","6.21","","000","","0","","","","","","","","","","","","","","","","","","","","","","","","","","","","","","","","","","","","","","","","","","","","","","","","","","","","","","","","","","","","","","","","","","","","","","","","","","","","","","","","","","","","","","","","","","","MET093MOBOB0 METAR 7026 //008 000000 270714Z AUTO 00000KT 9999 HZ CLR 22/18 A3013 RMK CDP03661 CLR=","","","","","","","","","",""
"00702699999","2016-06-27T11:59:00","0.0","0.0","7026.0","WXPOD 7026, AF","FM-15","4","30.13","64","72","","|FU |","","","78","","","","6.21","","000","","0","","","","","","","","","","","","","","","","","","","","","","","","","","","","","","","","","","","","","","","","","","","","","","","","","","","","","","","","","","","","","","","","","","","","","","","","","","","","","","","","","","","","","","","","","","","MET093MOBOB0 METAR 7026 //008 000000 270729Z AUTO 00000KT 9999 HZ CLR 22/18 A3013 RMK CDP03661 CLR=","","","","","","","","","",""
"00702699999","2016-06-27T12:14:00","0.0","0.0","7026.0","WXPOD 7026, AF","FM-15","4","30.13","64","70","","|FU |","","","83","","","","6.21","","000","","0","","","","","","","","","","","","","","","","","","","","","","","","","","","","","","","","","","","","","","","","","","","","","","","","","","","","","","","","","","","","","","","","","","","","","","","","","","","","","","","","","","","","","","","","","","","MET093MOBOB0 METAR 7026 //008 000000 270744Z AUTO 00000KT 9999 HZ CLR 21/18 A3013 RMK CDP03661 CLR=","","","","","","","","","",""
"00702699999","2016-06-27T12:29:00","0.0","0.0","7026.0","WXPOD 7026, AF","FM-15","4","30.13","64","70","","|FU |","","","83","","","","5.59","","000","","0","","","","","","","","","","","","","","","","","","","","","","","","","","","","","","","","","","","","","","","","","","","","","","","","","","","","","","","","","","","","","","","","","","","","","","","","","","","","","","","","","","","","","","","","","","","MET093MOBOB0 METAR 7026 //008 000000 270759Z AUTO 00000KT 9000 HZ CLR 21/18 A3013 RMK CDP03661 CLR=","","","","","","","","","",""
"00702699999","2016-06-27T12:44:00","0.0","0.0","7026.0","WXPOD 7026, AF","FM-15","4","30.14","64","70","","|FU |","","","83","","","","6.21","","000","","0","","","","","","","","","","","","","","","","","","","","","","","","","","","","","","","","","","","","","","","","","","","","","","","","","","","","","","","","","","","","","","","","","","","","","","","","","","","","","","","","","","","","","","","","","","","MET093MOBOB0 METAR 7026 //008 000000 270814Z AUTO 00000KT 9999 HZ CLR 21/18 A3014 RMK CDP03661 CLR=","","","","","","","","","",""
"00702699999","2016-06-27T12:59:00","0.0","0.0","7026.0","WXPOD 7026, AF","FM-15","4","30.14","64","70","","|FU |","","","83","","","","6.21","","000","","0","","","","","","","","","","","","","","","","","","","","","","","","","","","","","","","","","","","","","","","","","","","","","","","","","","","","","","","","","","","","","","","","","","","","","","","","","","","","","","","","","","","","","","","","","","","MET093MOBOB0 METAR 7026 //008 000000 270829Z AUTO 00000KT 9999 HZ CLR 21/18 A3014 RMK CDP03661 CLR=","","","","","","","","","",""
"00702699999","2016-06-27T13:14:00","0.0","0.0","7026.0","WXPOD 7026, AF","FM-15","4","30.14","64","70","","|FU |","","","83","","","","6.21","","000","","0","","","","","","","","","","","","","","","","","","","","","","","","","","","","","","","","","","","","","","","","","","","","","","","","","","","","","","","","","","","","","","","","","","","","","","","","","","","","","","","","","","","","","","","","","","","MET093MOBOB0 METAR 7026 //008 000000 270844Z AUTO 00000KT 9999 HZ CLR 21/18 A3014 RMK CDP03661 CLR=","","","","","","","","","",""
"00702699999","2016-06-27T13:29:00","0.0","0.0","7026.0","WXPOD 7026, AF","FM-15","4","30.14","64","70","","|FU |","","","83","BKN:07 5","","","4.97","","000","","0","","","","","","","","","","","","","","","","","","","","","","","","","","","","","","","","","","","","","","","","","","","","","","","","","","","","","","","","","","","","","","","","","","","","","","","","","","","","","","","","","","","","","","","","","","","MET111MOBOB0 METAR 7026 //008 000000 270859Z AUTO 00000KT 8000 HZ BKN005 21/18 A3014 RMK CDP03661 BKN005 CLD AVG 005=","","","","","","","","","",""
"00702699999","2016-06-27T13:44:00","0.0","0.0","7026.0","WXPOD 7026, AF","FM-15","4","30.14","64","70","","|FU |","","","83","OVC:08 4","","","6.21","","000","","0","","","","","","","","","","","","","","","","","","","","","","","","","","","","","","","","","","","","","","","","","","","","","","","","","","","","","","","","","","","","","","","","","","","","","","","","","","","","","","","","","","","","","","","","","","","MET111MOBOB0 METAR 7026 //008 000000 270914Z AUTO 00000KT 9999 HZ OVC004 21/18 A3014 RMK CDP03661 OVC004 CLD AVG 008=","","","","","","","","","",""
"00702699999","2016-06-27T13:59:00","0.0","0.0","7026.0","WXPOD 7026, AF","FM-15","4","30.13","64","70","","|FU |","","","83","BKN:07 10","","","5.59","","000","","0","","","","","","","","","","","","","","","","","","","","","","","","","","","","","","","","","","","","","","","","","","","","","","","","","","","","","","","","","","","","","","","","","","","","","","","","","","","","","","","","","","","","","","","","","","","MET111MOBOB0 METAR 7026 //008 000000 270929Z AUTO 00000KT 9000 HZ BKN010 21/18 A3013 RMK CDP03661 BKN010 CLD AVG 010=","","","","","","","","","",""
"00702699999","2016-06-27T14:14:00","0.0","0.0","7026.0","WXPOD 7026, AF","FM-15","4","30.14","64","70","","|FU |","","","83","OVC:08 7","","","5.59","","000","","0","","","","","","","","","","","","","","","","","","","","","","","","","","","","","","","","","","","","","","","","","","","","","","","","","","","","","","","","","","","","","","","","","","","","","","","","","","","","","","","","","","","","","","","","","","","MET111MOBOB0 METAR 7026 //008 000000 270944Z AUTO 00000KT 9000 HZ OVC007 21/18 A3014 RMK CDP03661 OVC007 CLD AVG 009=","","","","","","","","","",""
"00702699999","2016-06-27T14:29:00","0.0","0.0","7026.0","WXPOD 7026, AF","FM-15","4","30.14","63","68","","|FU |","","","83","OVC:08 5","","","3.73","","000","","0","","","","","","","","","","","","","","","","","","","","","","","","","","","","","","","","","","","","","","","","","","","","","","","","","","","","","","","","","","","","","","","","","","","","","","","","","","","","","","","","","","","","","","","","","","","MET111MOBOB0 METAR 7026 //008 000000 270959Z AUTO 00000KT 6000 HZ OVC005 20/17 A3014 RMK CDP03661 OVC005 CLD AVG 010=","","","","","","","","","",""
"00702699999","2016-06-27T14:44:00","0.0","0.0","7026.0","WXPOD 7026, AF","FM-15","4","30.14","63","68","","|FU |","","","83","OVC:08 11","","","3.73","","000","","0","","","","","","","","","","","","","","","","","","","","","","","","","","","","","","","","","","","","","","","","","","","","","","","","","","","","","","","","","","","","","","","","","","","","","","","","","","","","","","","","","","","","","","","","","","","MET111MOBOB0 METAR 7026 //008 000000 271014Z AUTO 00000KT 6000 HZ OVC011 20/17 A3014 RMK CDP03661 OVC011 CLD AVG 012=","","","","","","","","","",""
"00702699999","2016-06-27T14:59:00","0.0","0.0","7026.0","WXPOD 7026, AF","FM-15","4","30.14","64","70","","|FU |","","","83","OVC:08 1","","","2.24","","000","","0","","","","","","","","","","","","","","","","","","","","","","","","","","","","","","","","","","","","","","","","","","","","","","","","","","","","","","","","","","","","","","","","","","","","","","","","","","","","","","","","","","","","","","","","","","","MET111MOBOB0 METAR 7026 //008 000000 271029Z AUTO 00000KT 3600 HZ OVC001 21/18 A3014 RMK CDP03661 OVC001 CLD AVG 010=","","","","","","","","","",""
"00702699999","2016-06-27T15:14:00","0.0","0.0","7026.0","WXPOD 7026, AF","FM-15","4","30.15","64","70","","|FU |","","","83","OVC:08 11","","","2.73","","000","","0","","","","","","","","","","","","","","","","","","","","","","","","","","","","","","","","","","","","","","","","","","","","","","","","","","","","","","","","","","","","","","","","","","","","","","","","","","","","","","","","","","","","","","","","","","","MET111MOBOB0 METAR 7026 //008 000000 271044Z AUTO 00000KT 4400 HZ OVC011 21/18 A3015 RMK CDP03661 OVC011 CLD AVG 011=","","","","","","","","","",""
"00702699999","2016-06-27T15:29:00","0.0","0.0","7026.0","WXPOD 7026, AF","FM-15","4","30.14","64","70","","|FU |","","","83","OVC:08 10","","","2.98","","000","","0","","","","","","","","","","","","","","","","","","","","","","","","","","","","","","","","","","","","","","","","","","","","","","","","","","","","","","","","","","","","","","","","","","","","","","","","","","","","","","","","","","","","","","","","","","","MET111MOBOB0 METAR 7026 //008 000000 271059Z AUTO 00000KT 4800 HZ OVC010 21/18 A3014 RMK CDP03661 OVC010 CLD AVG 010=","","","","","","","","","",""
"00702699999","2016-06-27T15:44:00","0.0","0.0","7026.0","WXPOD 7026, AF","FM-15","4","30.14","64","72","","|FU |","","","78","OVC:08 9","","","2.98","","000","","0","","","","","","","","","","","","","","","","","","","","","","","","","","","","","","","","","","","","","","","","","","","","","","","","","","","","","","","","","","","","","","","","","","","","","","","","","","","","","","","","","","","","","","","","","","","MET111MOBOB0 METAR 7026 //008 000000 271114Z AUTO 00000KT 4800 HZ OVC009 22/18 A3014 RMK CDP03661 OVC009 CLD AVG 009=","","","","","","","","","",""
"00702699999","2016-06-27T15:59:00","0.0","0.0","7026.0","WXPOD 7026, AF","FM-15","4","30.14","66","73","","|FU |","","","78","OVC:08 7","","","3.73","","000","","0","","","","","","","","","","","","","","","","","","","","","","","","","","","","","","","","","","","","","","","","","","","","","","","","","","","","","","","","","","","","","","","","","","","","","","","","","","","","","","","","","","","","","","","","","","","MET111MOBOB0 METAR 7026 //008 000000 271129Z AUTO 00000KT 6000 HZ OVC007 23/19 A3014 RMK CDP03661 OVC007 CLD AVG 008=","","","","","","","","","",""
"00702699999","2016-06-27T16:14:00","0.0","0.0","7026.0","WXPOD 7026, AF","FM-15","4","30.13","70","73","","|FU |","","","89","OVC:08 4","","","6.21","","000","","0","","","","","","","","","","","","","","","","","","","","","","","","","","","","","","","","","","","","","","","","","","","","","","","","","","","","","","","","","","","","","","","","","","","","","","","","","","","","","","","","","","","","","","","","","","","MET111MOBOB0 METAR 7026 //008 000000 271144Z AUTO 00000KT 9999 HZ OVC004 23/21 A3013 RMK CDP03661 OVC004 CLD AVG 006=","","","","","","","","","",""
"00702699999","2016-06-27T16:29:00","0.0","0.0","7026.0","WXPOD 7026, AF","FM-15","4","30.13","70","73","","|FU |","","","89","OVC:08 2","","","6.21","","000","","0","","","","","","","","","","","","","","","","","","","","","","","","","","","","","","","","","","","","","","","","","","","","","","","","","","","","","","","","","","","","","","","","","","","","","","","","","","","","","","","","","","","","","","","","","","","MET111MOBOB0 METAR 7026 //008 000000 271159Z AUTO 00000KT 9999 HZ OVC002 23/21 A3013 RMK CDP03661 OVC002 CLD AVG 004=","","","","","","","","","",""
"00702699999","2016-06-27T16:44:00","0.0","0.0","7026.0","WXPOD 7026, AF","FM-15","4","30.14","72","75","","|FU |","","","89","OVC:08 6","","","6.21","","000","","0","","","","","","","","","","","","","","","","","","","","","","","","","","","","","","","","","","","","","","","","","","","","","","","","","","","","","","","","","","","","","","","","","","","","","","","","","","","","","","","","","","","","","","","","","","","MET111MOBOB0 METAR 7026 //008 000000 271214Z AUTO 00000KT 9999 HZ OVC006 24/22 A3014 RMK CDP03661 OVC006 CLD AVG 007=","","","","","","","","","",""
"00702699999","2016-06-27T16:59:00","0.0","0.0","7026.0","WXPOD 7026, AF","FM-15","4","30.14","70","75","","","","","83","OVC:08 9","","","6.21","","000","","0","","","","","","","","","","","","","","","","","","","","","","","","","","","","","","","","","","","","","","","","","","","","","","","","","","","","","","","","","","","","","","","","","","","","","","","","","","","","","","","","","","","","","","","","","","","MET108MOBOB0 METAR 7026 //008 000000 271229Z AUTO 00000KT 9999 OVC009 24/21 A3014 RMK CDP03661 OVC009 CLD AVG 010=","","","","","","","","","",""
"00702699999","2016-06-27T17:14:00","0.0","0.0","7026.0","WXPOD 7026, AF","FM-15","4","30.15","70","77","","|FU |","","","79","OVC:08 11","","","6.21","","000","","0","","","","","","","","","","","","","","","","","","","","","","","","","","","","","","","","","","","","","","","","","","","","","","","","","","","","","","","","","","","","","","","","","","","","","","","","","","","","","","","","","","","","","","","","","","","MET111MOBOB0 METAR 7026 //008 000000 271244Z AUTO 00000KT 9999 HZ OVC011 25/21 A3015 RMK CDP03661 OVC011 CLD AVG 011=","","","","","","","","","",""
"00702699999","2016-06-27T17:29:00","0.0","0.0","7026.0","WXPOD 7026, AF","FM-15","4","30.15","70","77","","","","","79","OVC:08 12","","","","","000","","0","","","","","","","","","","","","","","","","","","","","","","","","","","","","","","","","","","","","","","","","","","","","","","","","","","","","","","","","","","","","","","","","","","","","","","","","","","","","","","","","","","","","","","","","","","","MET108MOBOB0 METAR 7026 //008 000000 271259Z AUTO 00000KT //// OVC012 25/21 A3015 RMK CDP03661 OVC012 CLD AVG 012=","","","","","","","","","",""
"00702699999","2016-06-27T17:44:00","0.0","0.0","7026.0","WXPOD 7026, AF","FM-15","4","30.15","70","77","","|FU |","","","79","OVC:08 13","","","6.21","","000","","0","","","","","","","","","","","","","","","","","","","","","","","","","","","","","","","","","","","","","","","","","","","","","","","","","","","","","","","","","","","","","","","","","","","","","","","","","","","","","","","","","","","","","","","","","","","MET111MOBOB0 METAR 7026 //008 000000 271314Z AUTO 00000KT 9999 HZ OVC013 25/21 A3015 RMK CDP03661 OVC013 CLD AVG 013=","","","","","","","","","",""
"00702699999","2016-06-27T17:59:00","0.0","0.0","7026.0","WXPOD 7026, AF","FM-15","4","30.15","70","79","","|FU |","","","74","OVC:08 13","","","6.21","","000","","0","","","","","","","","","","","","","","","","","","","","","","","","","","","","","","","","","","","","","","","","","","","","","","","","","","","","","","","","","","","","","","","","","","","","","","","","","","","","","","","","","","","","","","","","","","","MET111MOBOB0 METAR 7026 //008 000000 271329Z AUTO 00000KT 9999 HZ OVC013 26/21 A3015 RMK CDP03661 OVC013 CLD AVG 014=","","","","","","","","","",""
"00702699999","2016-06-27T18:14:00","0.0","0.0","7026.0","WXPOD 7026, AF","FM-15","4","30.16","70","79","","","","","74","OVC:08 14","","","6.21","","000","","0","","","","","","","","","","","","","","","","","","","","","","","","","","","","","","","","","","","","","","","","","","","","","","","","","","","","","","","","","","","","","","","","","","","","","","","","","","","","","","","","","","","","","","","","","","","MET108MOBOB0 METAR 7026 //008 000000 271344Z AUTO 00000KT 9999 OVC014 26/21 A3016 RMK CDP03661 OVC014 CLD AVG 015=","","","","","","","","","",""
"00702699999","2016-06-27T18:29:00","0.0","0.0","7026.0","WXPOD 7026, AF","FM-15","4","30.15","70","81","","","","","70","BKN:07 16","","","6.21","","000","","0","","","","","","","","","","","","","","","","","","","","","","","","","","","","","","","","","","","","","","","","","","","","","","","","","","","","","","","","","","","","","","","","","","","","","","","","","","","","","","","","","","","","","","","","","","","MET108MOBOB0 METAR 7026 //008 000000 271359Z AUTO 00000KT 9999 BKN016 27/21 A3015 RMK CDP03661 BKN016 CLD AVG 017=","","","","","","","","","",""
"00702699999","2016-06-27T18:44:00","0.0","0.0","7026.0","WXPOD 7026, AF","FM-15","4","30.15","70","81","","","","","70","BKN:07 19","","","6.21","","000","","0","","","","","","","","","","","","","","","","","","","","","","","","","","","","","","","","","","","","","","","","","","","","","","","","","","","","","","","","","","","","","","","","","","","","","","","","","","","","","","","","","","","","","","","","","","","MET108MOBOB0 METAR 7026 //008 000000 271414Z AUTO 00000KT 9999 BKN019 27/21 A3015 RMK CDP03661 BKN019 CLD AVG 020=","","","","","","","","","",""
"00702699999","2016-06-27T18:59:00","0.0","0.0","7026.0","WXPOD 7026, AF","FM-15","4","30.15","70","82","","","","","66","OVC:08 19","","","6.21","","000","","0","","","","","","","","","","","","","","","","","","","","","","","","","","","","","","","","","","","","","","","","","","","","","","","","","","","","","","","","","","","","","","","","","","","","","","","","","","","","","","","","","","","","","","","","","","","MET108MOBOB0 METAR 7026 //008 000000 271429Z AUTO 00000KT 9999 OVC019 28/21 A3015 RMK CDP03661 OVC019 CLD AVG 021=","","","","","","","","","",""
"00702699999","2016-06-27T19:14:00","0.0","0.0","7026.0","WXPOD 7026, AF","FM-15","4","30.15","72","84","","","","","66","BKN:07 20","","","6.21","","000","","0","","","","","","","","","","","","","","","","","","","","","","","","","","","","","","","","","","","","","","","","","","","","","","","","","","","","","","","","","","","","","","","","","","","","","","","","","","","","","","","","","","","","","","","","","","","MET108MOBOB0 METAR 7026 //008 000000 271444Z AUTO 00000KT 9999 BKN020 29/22 A3015 RMK CDP03661 BKN020 CLD AVG 021=","","","","","","","","","",""
"00702699999","2016-06-27T19:29:00","0.0","0.0","7026.0","WXPOD 7026, AF","FM-15","4","30.15","70","82","","|FU |","","","66","SCT:04 21","","","6.21","","000","","0","","","","","","","","","","","","","","","","","","","","","","","","","","","","","","","","","","","","","","","","","","","","","","","","","","","","","","","","","","","","","","","","","","","","","","","","","","","","","","","","","","","","","","","","","","","MET111MOBOB0 METAR 7026 //008 000000 271459Z AUTO 00000KT 9999 HZ SCT021 28/21 A3015 RMK CDP03661 SCT021 CLD AVG 023=","","","","","","","","","",""
"00702699999","2016-06-27T19:44:00","0.0","0.0","7026.0","WXPOD 7026, AF","FM-15","4","30.15","70","82","","","","","66","","","","6.21","","000","","0","","","","","","","","","","","","","","","","","","","","","","","","","","","","","","","","","","","","","","","","","","","","","","","","","","","","","","","","","","","","","","","","","","","","","","","","","","","","","","","","","","","","","","","","","","","MET090MOBOB0 METAR 7026 //008 000000 271514Z AUTO 00000KT 9999 CLR 28/21 A3015 RMK CDP03661 CLR=","","","","","","","","","",""
"00702699999","2016-06-27T19:59:00","0.0","0.0","7026.0","WXPOD 7026, AF","FM-15","4","30.14","70","84","","","","","62","FEW:02 23","","","","","000","","0","","","","","","","","","","","","","","","","","","","","","","","","","","","","","","","","","","","","","","","","","","","","","","","","","","","","","","","","","","","","","","","","","","","","","","","","","","","","","","","","","","","","","","","","","","","MET108MOBOB0 METAR 7026 //008 000000 271529Z AUTO 00000KT //// FEW023 29/21 A3014 RMK CDP03661 FEW023 CLD AVG 023=","","","","","","","","","",""
"00702699999","2016-06-27T20:14:00","0.0","0.0","7026.0","WXPOD 7026, AF","FM-15","4","30.14","70","84","","","","","62","SCT:04 26","","","6.21","","000","","0","","","","","","","","","","","","","","","","","","","","","","","","","","","","","","","","","","","","","","","","","","","","","","","","","","","","","","","","","","","","","","","","","","","","","","","","","","","","","","","","","","","","","","","","","","","MET108MOBOB0 METAR 7026 //008 000000 271544Z AUTO 00000KT 9999 SCT026 29/21 A3014 RMK CDP03661 SCT026 CLD AVG 027=","","","","","","","","","",""
"00702699999","2016-06-27T20:29:00","0.0","0.0","7026.0","WXPOD 7026, AF","FM-15","4","30.13","68","88","","","","","52","SCT:04 28","","","6.21","","000","","0","","","","","","","","","","","","","","","","","","","","","","","","","","","","","","","","","","","","","","","","","","","","","","","","","","","","","","","","","","","","","","","","","","","","","","","","","","","","","","","","","","","","","","","","","","","MET108MOBOB0 METAR 7026 //008 000000 271559Z AUTO 00000KT 9999 SCT028 31/20 A3013 RMK CDP03661 SCT028 CLD AVG 028=","","","","","","","","","",""
"00702699999","2016-06-27T20:44:00","0.0","0.0","7026.0","WXPOD 7026, AF","FM-15","4","30.13","68","88","","","","","52","SCT:04 32","","","6.21","","000","","0","","","","","","","","","","","","","","","","","","","","","","","","","","","","","","","","","","","","","","","","","","","","","","","","","","","","","","","","","","","","","","","","","","","","","","","","","","","","","","","","","","","","","","","","","","","MET108MOBOB0 METAR 7026 //008 000000 271614Z AUTO 00000KT 9999 SCT032 31/20 A3013 RMK CDP03661 SCT032 CLD AVG 033=","","","","","","","","","",""
"00702699999","2016-06-27T20:59:00","0.0","0.0","7026.0","WXPOD 7026, AF","FM-15","4","30.12","68","88","","","","","52","SCT:04 33","","","6.21","","000","","0","","","","","","","","","","","","","","","","","","","","","","","","","","","","","","","","","","","","","","","","","","","","","","","","","","","","","","","","","","","","","","","","","","","","","","","","","","","","","","","","","","","","","","","","","","","MET108MOBOB0 METAR 7026 //008 000000 271629Z AUTO 00000KT 9999 SCT033 31/20 A3012 RMK CDP03661 SCT033 CLD AVG 035=","","","","","","","","","",""
"00702699999","2016-06-27T21:14:00","0.0","0.0","7026.0","WXPOD 7026, AF","FM-15","4","30.11","66","88","","","","","49","SCT:04 40","","","","","000","","0","","","","","","","","","","","","","","","","","","","","","","","","","","","","","","","","","","","","","","","","","","","","","","","","","","","","","","","","","","","","","","","","","","","","","","","","","","","","","","","","","","","","","","","","","","","MET108MOBOB0 METAR 7026 //008 000000 271644Z AUTO 00000KT //// SCT040 31/19 A3011 RMK CDP03661 SCT040 CLD AVG 041=","","","","","","","","","",""
"00702699999","2016-06-27T21:29:00","0.0","0.0","7026.0","WXPOD 7026, AF","FM-15","4","30.11","66","88","","","","","49","BKN:07 54","","","6.21","","000","","0","","","","","","","","","","","","","","","","","","","","","","","","","","","","","","","","","","","","","","","","","","","","","","","","","","","","","","","","","","","","","","","","","","","","","","","","","","","","","","","","","","","","","","","","","","","MET108MOBOB0 METAR 7026 //008 000000 271659Z AUTO 00000KT 9999 BKN054 31/19 A3011 RMK CDP03661 BKN054 CLD AVG 057=","","","","","","","","","",""
"00702699999","2016-06-27T21:44:00","0.0","0.0","7026.0","WXPOD 7026, AF","FM-15","4","30.10","64","90","","","","","43","","","","6.21","","000","","0","","","","","","","","","","","","","","","","","","","","","","","","","","","","","","","","","","","","","","","","","","","","","","","","","","","","","","","","","","","","","","","","","","","","","","","","","","","","","","","","","","","","","","","","","","","MET090MOBOB0 METAR 7026 //008 000000 271714Z AUTO 00000KT 9999 CLR 32/18 A3010 RMK CDP03661 CLR=","","","","","","","","","",""
"00702699999","2016-06-27T21:59:00","0.0","0.0","7026.0","WXPOD 7026, AF","FM-15","4","30.09","64","90","","","","","43","FEW:02 51","","","6.21","","000","","0","","","","","","","","","","","","","","","","","","","","","","","","","","","","","","","","","","","","","","","","","","","","","","","","","","","","","","","","","","","","","","","","","","","","","","","","","","","","","","","","","","","","","","","","","","","MET108MOBOB0 METAR 7026 //008 000000 271729Z AUTO 00000KT 9999 FEW051 32/18 A3009 RMK CDP03661 FEW051 CLD AVG 052=","","","","","","","","","",""
"00702699999","2016-06-27T22:14:00","0.0","0.0","7026.0","WXPOD 7026, AF","FM-15","4","30.08","63","90","","","","","41","FEW:02 59","","","6.21","","000","","0","","","","","","","","","","","","","","","","","","","","","","","","","","","","","","","","","","","","","","","","","","","","","","","","","","","","","","","","","","","","","","","","","","","","","","","","","","","","","","","","","","","","","","","","","","","MET108MOBOB0 METAR 7026 //008 000000 271744Z AUTO 00000KT 9999 FEW059 32/17 A3008 RMK CDP03661 FEW059 CLD AVG 059=","","","","","","","","","",""
"00702699999","2016-06-27T22:29:00","0.0","0.0","7026.0","WXPOD 7026, AF","FM-15","4","30.08","63","90","","","","","41","FEW:02 57","","","","","000","","0","","","","","","","","","","","","","","","","","","","","","","","","","","","","","","","","","","","","","","","","","","","","","","","","","","","","","","","","","","","","","","","","","","","","","","","","","","","","","","","","","","","","","","","","","","","MET108MOBOB0 METAR 7026 //008 000000 271759Z AUTO 00000KT //// FEW057 32/17 A3008 RMK CDP03661 FEW057 CLD AVG 058=","","","","","","","","","",""
"00702699999","2016-06-27T22:44:00","0.0","0.0","7026.0","WXPOD 7026, AF","FM-15","4","30.07","64","91","","","","","41","","","","6.21","","000","","0","","","","","","","","","","","","","","","","","","","","","","","","","","","","","","","","","","","","","","","","","","","","","","","","","","","","","","","","","","","","","","","","","","","","","","","","","","","","","","","","","","","","","","","","","","","MET090MOBOB0 METAR 7026 //008 000000 271814Z AUTO 00000KT 9999 CLR 33/18 A3007 RMK CDP03661 CLR=","","","","","","","","","",""
"00702699999","2016-06-27T22:59:00","0.0","0.0","7026.0","WXPOD 7026, AF","FM-15","4","30.06","64","90","","","","","43","","","","","","000","","0","","","","","","","","","","","","","","","","","","","","","","","","","","","","","","","","","","","","","","","","","","","","","","","","","","","","","","","","","","","","","","","","","","","","","","","","","","","","","","","","","","","","","","","","","","","MET090MOBOB0 METAR 7026 //008 000000 271829Z AUTO 00000KT //// CLR 32/18 A3006 RMK CDP03661 CLR=","","","","","","","","","",""
"00702699999","2016-06-27T23:14:00","0.0","0.0","7026.0","WXPOD 7026, AF","FM-15","4","30.05","63","90","","","","","41","","","","6.21","","000","","0","","","","","","","","","","","","","","","","","","","","","","","","","","","","","","","","","","","","","","","","","","","","","","","","","","","","","","","","","","","","","","","","","","","","","","","","","","","","","","","","","","","","","","","","","","","MET090MOBOB0 METAR 7026 //008 000000 271844Z AUTO 00000KT 9999 CLR 32/17 A3005 RMK CDP03661 CLR=","","","","","","","","","",""
"00702699999","2016-06-27T23:29:00","0.0","0.0","7026.0","WXPOD 7026, AF","FM-15","4","30.05","63","91","","","","","38","","","","6.21","","000","","0","","","","","","","","","","","","","","","","","","","","","","","","","","","","","","","","","","","","","","","","","","","","","","","","","","","","","","","","","","","","","","","","","","","","","","","","","","","","","","","","","","","","","","","","","","","MET090MOBOB0 METAR 7026 //008 000000 271859Z AUTO 00000KT 9999 CLR 33/17 A3005 RMK CDP03661 CLR=","","","","","","","","","",""
"00702699999","2016-06-27T23:44:00","0.0","0.0","7026.0","WXPOD 7026, AF","FM-15","4","30.04","63","91","","","","","38","SCT:04 58","","","6.21","","000","","0","","","","","","","","","","","","","","","","","","","","","","","","","","","","","","","","","","","","","","","","","","","","","","","","","","","","","","","","","","","","","","","","","","","","","","","","","","","","","","","","","","","","","","","","","","","MET108MOBOB0 METAR 7026 //008 000000 271914Z AUTO 00000KT 9999 SCT058 33/17 A3004 RMK CDP03661 SCT058 CLD AVG 059=","","","","","","","","","",""
"00702699999","2016-06-27T23:59:00","0.0","0.0","7026.0","WXPOD 7026, AF","FM-15","4","30.03","64","91","","","","","41","","","","6.21","","000","","0","","","","","","","","","","","","","","","","","","","","","","","","","","","","","","","","","","","","","","","","","","","","","","","","","","","","","","","","","","","","","","","","","","","","","","","","","","","","","","","","","","","","","","","","","","","MET090MOBOB0 METAR 7026 //008 000000 271929Z AUTO 00000KT 9999 CLR 33/18 A3003 RMK CDP03661 CLR=","","","","","","","","","",""
"00702699999","2016-06-28T00:14:00","0.0","0.0","7026.0","WXPOD 7026, AF","FM-15","4","30.03","63","90","","","","","41","BKN:07 58","","","6.21","","000","","0","","","","","","","","","","","","","","","","","","","","","","","","","","","","","","","","","","","","","","","","","","","","","","","","","","","","","","","","","","","","","","","","","","","","","","","","","","","","","","","","","","","","","","","","","","","MET108MOBOB0 METAR 7026 //008 000000 271944Z AUTO 00000KT 9999 BKN058 32/17 A3003 RMK CDP03661 BKN058 CLD AVG 059=","","","","","","","","","",""
"00702699999","2016-06-28T00:29:00","0.0","0.0","7026.0","WXPOD 7026, AF","FM-15","4","30.03","63","91","","","","","38","","","","6.21","","000","","0","","","","","","","","","","","","","","","","","","","","","","","","","","","","","","","","","","","","","","","","","","","","","","","","","","","","","","","","","","","","","","","","","","","","","","","","","","","","","","","","","","","","","","","","","","","MET090MOBOB0 METAR 7026 //008 000000 271959Z AUTO 00000KT 9999 CLR 33/17 A3003 RMK CDP03661 CLR=","","","","","","","","","",""
"00702699999","2016-06-28T00:44:00","0.0","0.0","7026.0","WXPOD 7026, AF","FM-15","4","30.02","63","91","","","","","38","","","","6.21","","000","","0","","","","","","","","","","","","","","","","","","","","","","","","","","","","","","","","","","","","","","","","","","","","","","","","","","","","","","","","","","","","","","","","","","","","","","","","","","","","","","","","","","","","","","","","","","","MET090MOBOB0 METAR 7026 //008 000000 272014Z AUTO 00000KT 9999 CLR 33/17 A3002 RMK CDP03661 CLR=","","","","","","","","","",""
"00702699999","2016-06-28T00:59:00","0.0","0.0","7026.0","WXPOD 7026, AF","FM-15","4","30.02","63","91","","","","","38","","","","6.21","","000","","0","","","","","","","","","","","","","","","","","","","","","","","","","","","","","","","","","","","","","","","","","","","","","","","","","","","","","","","","","","","","","","","","","","","","","","","","","","","","","","","","","","","","","","","","","","","MET090MOBOB0 METAR 7026 //008 000000 272029Z AUTO 00000KT 9999 CLR 33/17 A3002 RMK CDP03661 CLR=","","","","","","","","","",""
"00702699999","2016-06-28T01:14:00","0.0","0.0","7026.0","WXPOD 7026, AF","FM-15","4","30.02","63","93","","","","","36","SCT:04 58","","","6.21","","000","","0","","","","","","","","","","","","","","","","","","","","","","","","","","","","","","","","","","","","","","","","","","","","","","","","","","","","","","","","","","","","","","","","","","","","","","","","","","","","","","","","","","","","","","","","","","","MET108MOBOB0 METAR 7026 //008 000000 272044Z AUTO 00000KT 9999 SCT058 34/17 A3002 RMK CDP03661 SCT058 CLD AVG 062=","","","","","","","","","",""
"00702699999","2016-06-28T01:29:00","0.0","0.0","7026.0","WXPOD 7026, AF","FM-15","4","30.02","63","90","","","","","41","SCT:04 58","","","6.21","","000","","0","","","","","","","","","","","","","","","","","","","","","","","","","","","","","","","","","","","","","","","","","","","","","","","","","","","","","","","","","","","","","","","","","","","","","","","","","","","","","","","","","","","","","","","","","","","MET108MOBOB0 METAR 7026 //008 000000 272059Z AUTO 00000KT 9999 SCT058 32/17 A3002 RMK CDP03661 SCT058 CLD AVG 059=","","","","","","","","","",""
"00702699999","2016-06-28T01:44:00","0.0","0.0","7026.0","WXPOD 7026, AF","FM-15","4","30.01","61","90","","","","","38","","","","6.21","","000","","0","","","","","","","","","","","","","","","","","","","","","","","","","","","","","","","","","","","","","","","","","","","","","","","","","","","","","","","","","","","","","","","","","","","","","","","","","","","","","","","","","","","","","","","","","","","MET090MOBOB0 METAR 7026 //008 000000 272114Z AUTO 00000KT 9999 CLR 32/16 A3001 RMK CDP03661 CLR=","","","","","","","","","",""
"00702699999","2016-06-28T01:59:00","0.0","0.0","7026.0","WXPOD 7026, AF","FM-15","4","30.00","63","91","","","","","38","","","","6.21","","000","","0","","","","","","","","","","","","","","","","","","","","","","","","","","","","","","","","","","","","","","","","","","","","","","","","","","","","","","","","","","","","","","","","","","","","","","","","","","","","","","","","","","","","","","","","","","","MET090MOBOB0 METAR 7026 //008 000000 272129Z AUTO 00000KT 9999 CLR 33/17 A3000 RMK CDP03661 CLR=","","","","","","","","","",""
"00702699999","2016-06-28T02:14:00","0.0","0.0","7026.0","WXPOD 7026, AF","FM-15","4","30.00","61","90","","","","","38","SCT:04 61","","","6.21","","000","","0","","","","","","","","","","","","","","","","","","","","","","","","","","","","","","","","","","","","","","","","","","","","","","","","","","","","","","","","","","","","","","","","","","","","","","","","","","","","","","","","","","","","","","","","","","","MET108MOBOB0 METAR 7026 //008 000000 272144Z AUTO 00000KT 9999 SCT061 32/16 A3000 RMK CDP03661 SCT061 CLD AVG 064=","","","","","","","","","",""
"00702699999","2016-06-28T02:29:00","0.0","0.0","7026.0","WXPOD 7026, AF","FM-15","4","29.99","59","91","","","","","34","","","","6.21","","000","","0","","","","","","","","","","","","","","","","","","","","","","","","","","","","","","","","","","","","","","","","","","","","","","","","","","","","","","","","","","","","","","","","","","","","","","","","","","","","","","","","","","","","","","","","","","","MET090MOBOB0 METAR 7026 //008 000000 272159Z AUTO 00000KT 9999 CLR 33/15 A2999 RMK CDP03661 CLR=","","","","","","","","","",""
"00702699999","2016-06-28T02:44:00","0.0","0.0","7026.0","WXPOD 7026, AF","FM-15","4","29.99","61","91","","","","","36","","","","6.21","","000","","0","","","","","","","","","","","","","","","","","","","","","","","","","","","","","","","","","","","","","","","","","","","","","","","","","","","","","","","","","","","","","","","","","","","","","","","","","","","","","","","","","","","","","","","","","","","MET090MOBOB0 METAR 7026 //008 000000 272214Z AUTO 00000KT 9999 CLR 33/16 A2999 RMK CDP03661 CLR=","","","","","","","","","",""
"00702699999","2016-06-28T02:59:00","0.0","0.0","7026.0","WXPOD 7026, AF","FM-15","4","30.00","63","90","","","","","41","","","","6.21","","000","","0","","","","","","","","","","","","","","","","","","","","","","","","","","","","","","","","","","","","","","","","","","","","","","","","","","","","","","","","","","","","","","","","","","","","","","","","","","","","","","","","","","","","","","","","","","","MET090MOBOB0 METAR 7026 //008 000000 272229Z AUTO 00000KT 9999 CLR 32/17 A3000 RMK CDP03661 CLR=","","","","","","","","","",""
"00702699999","2016-06-28T03:14:00","0.0","0.0","7026.0","WXPOD 7026, AF","FM-15","4","30.00","64","90","","","","","43","SCT:04 64","","","6.21","","000","","0","","","","","","","","","","","","","","","","","","","","","","","","","","","","","","","","","","","","","","","","","","","","","","","","","","","","","","","","","","","","","","","","","","","","","","","","","","","","","","","","","","","","","","","","","","","MET108MOBOB0 METAR 7026 //008 000000 272244Z AUTO 00000KT 9999 SCT064 32/18 A3000 RMK CDP03661 SCT064 CLD AVG 066=","","","","","","","","","",""
"00702699999","2016-06-28T03:29:00","0.0","0.0","7026.0","WXPOD 7026, AF","FM-15","4","30.00","61","90","","","","","38","FEW:02 66","","","","","000","","0","","","","","","","","","","","","","","","","","","","","","","","","","","","","","","","","","","","","","","","","","","","","","","","","","","","","","","","","","","","","","","","","","","","","","","","","","","","","","","","","","","","","","","","","","","","MET108MOBOB0 METAR 7026 //008 000000 272259Z AUTO 00000KT //// FEW066 32/16 A3000 RMK CDP03661 FEW066 CLD AVG 067=","","","","","","","","","",""
"00702699999","2016-06-28T03:44:00","0.0","0.0","7026.0","WXPOD 7026, AF","FM-15","4","30.01","63","90","","","","","41","SCT:04 67","","","6.21","","000","","0","","","","","","","","","","","","","","","","","","","","","","","","","","","","","","","","","","","","","","","","","","","","","","","","","","","","","","","","","","","","","","","","","","","","","","","","","","","","","","","","","","","","","","","","","","","MET108MOBOB0 METAR 7026 //008 000000 272314Z AUTO 00000KT 9999 SCT067 32/17 A3001 RMK CDP03661 SCT067 CLD AVG 068=","","","","","","","","","",""
"00702699999","2016-06-28T03:59:00","0.0","0.0","7026.0","WXPOD 7026, AF","FM-15","4","30.02","63","90","","","","","41","FEW:02 63","","","6.21","","000","","0","","","","","","","","","","","","","","","","","","","","","","","","","","","","","","","","","","","","","","","","","","","","","","","","","","","","","","","","","","","","","","","","","","","","","","","","","","","","","","","","","","","","","","","","","","","MET108MOBOB0 METAR 7026 //008 000000 272329Z AUTO 00000KT 9999 FEW063 32/17 A3002 RMK CDP03661 FEW063 CLD AVG 063=","","","","","","","","","",""
"00702699999","2016-06-28T04:14:00","0.0","0.0","7026.0","WXPOD 7026, AF","FM-15","4","30.01","63","90","","","","","41","","","","6.21","","000","","0","","","","","","","","","","","","","","","","","","","","","","","","","","","","","","","","","","","","","","","","","","","","","","","","","","","","","","","","","","","","","","","","","","","","","","","","","","","","","","","","","","","","","","","","","","","MET090MOBOB0 METAR 7026 //008 000000 272344Z AUTO 00000KT 9999 CLR 32/17 A3001 RMK CDP03661 CLR=","","","","","","","","","",""
"00702699999","2016-06-28T04:29:00","0.0","0.0","7026.0","WXPOD 7026, AF","FM-15","4","30.01","63","88","","","","","43","","","","6.21","","000","","0","","","","","","","","","","","","","","","","","","","","","","","","","","","","","","","","","","","","","","","","","","","","","","","","","","","","","","","","","","","","","","","","","","","","","","","","","","","","","","","","","","","","","","","","","","","MET090MOBOB0 METAR 7026 //008 000000 272359Z AUTO 00000KT 9999 CLR 31/17 A3001 RMK CDP03661 CLR=","","","","","","","","","",""
"00702699999","2016-06-28T04:44:00","0.0","0.0","7026.0","WXPOD 7026, AF","FM-15","4","30.02","63","88","","","","","43","","","","","","000","","0","","","","","","","","","","","","","","","","","","","","","","","","","","","","","","","","","","","","","","","","","","","","","","","","","","","","","","","","","","","","","","","","","","","","","","","","","","","","","","","","","","","","","","","","","","","MET090MOBOB0 METAR 7026 //008 000000 280014Z AUTO 00000KT //// CLR 31/17 A3002 RMK CDP03661 CLR=","","","","","","","","","",""
"00702699999","2016-06-28T04:59:00","0.0","0.0","7026.0","WXPOD 7026, AF","FM-15","4","30.02","63","86","","","","","46","","","","6.21","","000","","0","","","","","","","","","","","","","","","","","","","","","","","","","","","","","","","","","","","","","","","","","","","","","","","","","","","","","","","","","","","","","","","","","","","","","","","","","","","","","","","","","","","","","","","","","","","MET090MOBOB0 METAR 7026 //008 000000 280029Z AUTO 00000KT 9999 CLR 30/17 A3002 RMK CDP03661 CLR=","","","","","","","","","",""
"00702699999","2016-06-28T05:14:00","0.0","0.0","7026.0","WXPOD 7026, AF","FM-15","4","30.02","63","86","","","","","46","","","","6.21","","000","","0","","","","","","","","","","","","","","","","","","","","","","","","","","","","","","","","","","","","","","","","","","","","","","","","","","","","","","","","","","","","","","","","","","","","","","","","","","","","","","","","","","","","","","","","","","","MET090MOBOB0 METAR 7026 //008 000000 280044Z AUTO 00000KT 9999 CLR 30/17 A3002 RMK CDP03661 CLR=","","","","","","","","","",""
"00702699999","2016-06-28T05:29:00","0.0","0.0","7026.0","WXPOD 7026, AF","FM-15","4","30.02","64","86","","","","","49","","","","6.21","","000","","0","","","","","","","","","","","","","","","","","","","","","","","","","","","","","","","","","","","","","","","","","","","","","","","","","","","","","","","","","","","","","","","","","","","","","","","","","","","","","","","","","","","","","","","","","","","MET090MOBOB0 METAR 7026 //008 000000 280059Z AUTO 00000KT 9999 CLR 30/18 A3002 RMK CDP03661 CLR=","","","","","","","","","",""
"00702699999","2016-06-28T05:44:00","0.0","0.0","7026.0","WXPOD 7026, AF","FM-15","4","30.02","68","84","","","","","58","","","","6.21","","000","","0","","","","","","","","","","","","","","","","","","","","","","","","","","","","","","","","","","","","","","","","","","","","","","","","","","","","","","","","","","","","","","","","","","","","","","","","","","","","","","","","","","","","","","","","","","","MET090MOBOB0 METAR 7026 //008 000000 280114Z AUTO 00000KT 9999 CLR 29/20 A3002 RMK CDP03661 CLR=","","","","","","","","","",""
"00702699999","2016-06-28T05:59:00","0.0","0.0","7026.0","WXPOD 7026, AF","FM-15","4","30.02","70","84","","","","","62","","","","6.21","","000","","0","","","","","","","","","","","","","","","","","","","","","","","","","","","","","","","","","","","","","","","","","","","","","","","","","","","","","","","","","","","","","","","","","","","","","","","","","","","","","","","","","","","","","","","","","","","MET090MOBOB0 METAR 7026 //008 000000 280129Z AUTO 00000KT 9999 CLR 29/21 A3002 RMK CDP03661 CLR=","","","","","","","","","",""
"00702699999","2016-06-28T06:14:00","0.0","0.0","7026.0","WXPOD 7026, AF","FM-15","4","30.02","70","84","","","","","62","","","","6.21","","000","","0","","","","","","","","","","","","","","","","","","","","","","","","","","","","","","","","","","","","","","","","","","","","","","","","","","","","","","","","","","","","","","","","","","","","","","","","","","","","","","","","","","","","","","","","","","","MET090MOBOB0 METAR 7026 //008 000000 280144Z AUTO 00000KT 9999 CLR 29/21 A3002 RMK CDP03661 CLR=","","","","","","","","","",""
"00702699999","2016-06-28T06:29:00","0.0","0.0","7026.0","WXPOD 7026, AF","FM-15","4","30.03","70","82","","","","","66","","","","6.21","","000","","0","","","","","","","","","","","","","","","","","","","","","","","","","","","","","","","","","","","","","","","","","","","","","","","","","","","","","","","","","","","","","","","","","","","","","","","","","","","","","","","","","","","","","","","","","","","MET090MOBOB0 METAR 7026 //008 000000 280159Z AUTO 00000KT 9999 CLR 28/21 A3003 RMK CDP03661 CLR=","","","","","","","","","",""
"00702699999","2016-06-28T06:44:00","0.0","0.0","7026.0","WXPOD 7026, AF","FM-15","4","30.03","70","82","","","","","66","","","","6.21","","000","","0","","","","","","","","","","","","","","","","","","","","","","","","","","","","","","","","","","","","","","","","","","","","","","","","","","","","","","","","","","","","","","","","","","","","","","","","","","","","","","","","","","","","","","","","","","","MET090MOBOB0 METAR 7026 //008 000000 280214Z AUTO 00000KT 9999 CLR 28/21 A3003 RMK CDP03661 CLR=","","","","","","","","","",""
"00702699999","2016-06-28T06:59:00","0.0","0.0","7026.0","WXPOD 7026, AF","FM-15","4","30.04","70","82","","","","","66","","","","6.21","","000","","0","","","","","","","","","","","","","","","","","","","","","","","","","","","","","","","","","","","","","","","","","","","","","","","","","","","","","","","","","","","","","","","","","","","","","","","","","","","","","","","","","","","","","","","","","","","MET090MOBOB0 METAR 7026 //008 000000 280229Z AUTO 00000KT 9999 CLR 28/21 A3004 RMK CDP03661 CLR=","","","","","","","","","",""
"00702699999","2016-06-28T07:14:00","0.0","0.0","7026.0","WXPOD 7026, AF","FM-15","4","30.04","70","82","","","","","66","","","","6.21","","000","","0","","","","","","","","","","","","","","","","","","","","","","","","","","","","","","","","","","","","","","","","","","","","","","","","","","","","","","","","","","","","","","","","","","","","","","","","","","","","","","","","","","","","","","","","","","","MET090MOBOB0 METAR 7026 //008 000000 280244Z AUTO 00000KT 9999 CLR 28/21 A3004 RMK CDP03661 CLR=","","","","","","","","","",""
"00702699999","2016-06-28T07:29:00","0.0","0.0","7026.0","WXPOD 7026, AF","FM-15","4","30.04","70","82","","","","","66","","","","","","000","","0","","","","","","","","","","","","","","","","","","","","","","","","","","","","","","","","","","","","","","","","","","","","","","","","","","","","","","","","","","","","","","","","","","","","","","","","","","","","","","","","","","","","","","","","","","","MET090MOBOB0 METAR 7026 //008 000000 280259Z AUTO 00000KT //// CLR 28/21 A3004 RMK CDP03661 CLR=","","","","","","","","","",""
"00702699999","2016-06-28T07:44:00","0.0","0.0","7026.0","WXPOD 7026, AF","FM-15","4","30.03","70","81","","","","","70","","","","6.21","","000","","0","","","","","","","","","","","","","","","","","","","","","","","","","","","","","","","","","","","","","","","","","","","","","","","","","","","","","","","","","","","","","","","","","","","","","","","","","","","","","","","","","","","","","","","","","","","MET090MOBOB0 METAR 7026 //008 000000 280314Z AUTO 00000KT 9999 CLR 27/21 A3003 RMK CDP03661 CLR=","","","","","","","","","",""
"00702699999","2016-06-28T07:59:00","0.0","0.0","7026.0","WXPOD 7026, AF","FM-15","4","30.03","70","81","","","","","70","FEW:02 31","","","6.21","","000","","0","","","","","","","","","","","","","","","","","","","","","","","","","","","","","","","","","","","","","","","","","","","","","","","","","","","","","","","","","","","","","","","","","","","","","","","","","","","","","","","","","","","","","","","","","","","MET108MOBOB0 METAR 7026 //008 000000 280329Z AUTO 00000KT 9999 FEW031 27/21 A3003 RMK CDP03661 FEW031 CLD AVG 031=","","","","","","","","","",""
"00702699999","2016-06-28T08:14:00","0.0","0.0","7026.0","WXPOD 7026, AF","FM-15","4","30.03","68","81","","","","","66","","","","","","000","","0","","","","","","","","","","","","","","","","","","","","","","","","","","","","","","","","","","","","","","","","","","","","","","","","","","","","","","","","","","","","","","","","","","","","","","","","","","","","","","","","","","","","","","","","","","","MET090MOBOB0 METAR 7026 //008 000000 280344Z AUTO 00000KT //// CLR 27/20 A3003 RMK CDP03661 CLR=","","","","","","","","","",""
"00702699999","2016-06-28T08:29:00","0.0","0.0","7026.0","WXPOD 7026, AF","FM-15","4","30.03","68","81","","","","","66","","","","","","000","","0","","","","","","","","","","","","","","","","","","","","","","","","","","","","","","","","","","","","","","","","","","","","","","","","","","","","","","","","","","","","","","","","","","","","","","","","","","","","","","","","","","","","","","","","","","","MET090MOBOB0 METAR 7026 //008 000000 280359Z AUTO 00000KT //// CLR 27/20 A3003 RMK CDP03661 CLR=","","","","","","","","","",""
"00702699999","2016-06-28T08:44:00","0.0","0.0","7026.0","WXPOD 7026, AF","FM-15","4","30.03","68","81","","","","","66","","","","6.21","","000","","0","","","","","","","","","","","","","","","","","","","","","","","","","","","","","","","","","","","","","","","","","","","","","","","","","","","","","","","","","","","","","","","","","","","","","","","","","","","","","","","","","","","","","","","","","","","MET090MOBOB0 METAR 7026 //008 000000 280414Z AUTO 00000KT 9999 CLR 27/20 A3003 RMK CDP03661 CLR=","","","","","","","","","",""
"00702699999","2016-06-28T08:59:00","0.0","0.0","7026.0","WXPOD 7026, AF","FM-15","4","30.02","68","79","","","","","70","","","","6.21","","000","","0","","","","","","","","","","","","","","","","","","","","","","","","","","","","","","","","","","","","","","","","","","","","","","","","","","","","","","","","","","","","","","","","","","","","","","","","","","","","","","","","","","","","","","","","","","","MET090MOBOB0 METAR 7026 //008 000000 280429Z AUTO 00000KT 9999 CLR 26/20 A3002 RMK CDP03661 CLR=","","","","","","","","","",""
"00702699999","2016-06-28T09:14:00","0.0","0.0","7026.0","WXPOD 7026, AF","FM-15","4","30.02","70","79","","","","","74","","","","6.21","","000","","0","","","","","","","","","","","","","","","","","","","","","","","","","","","","","","","","","","","","","","","","","","","","","","","","","","","","","","","","","","","","","","","","","","","","","","","","","","","","","","","","","","","","","","","","","","","MET090MOBOB0 METAR 7026 //008 000000 280444Z AUTO 00000KT 9999 CLR 26/21 A3002 RMK CDP03661 CLR=","","","","","","","","","",""
"00702699999","2016-06-28T09:29:00","0.0","0.0","7026.0","WXPOD 7026, AF","FM-15","4","30.03","70","79","","","","","74","","","","6.21","","000","","0","","","","","","","","","","","","","","","","","","","","","","","","","","","","","","","","","","","","","","","","","","","","","","","","","","","","","","","","","","","","","","","","","","","","","","","","","","","","","","","","","","","","","","","","","","","MET090MOBOB0 METAR 7026 //008 000000 280459Z AUTO 00000KT 9999 CLR 26/21 A3003 RMK CDP03661 CLR=","","","","","","","","","",""
"00702699999","2016-06-28T09:44:00","0.0","0.0","7026.0","WXPOD 7026, AF","FM-15","4","30.03","70","79","","","","","74","","","","","","000","","0","","","","","","","","","","","","","","","","","","","","","","","","","","","","","","","","","","","","","","","","","","","","","","","","","","","","","","","","","","","","","","","","","","","","","","","","","","","","","","","","","","","","","","","","","","","MET090MOBOB0 METAR 7026 //008 000000 280514Z AUTO 00000KT //// CLR 26/21 A3003 RMK CDP03661 CLR=","","","","","","","","","",""
"00702699999","2016-06-28T10:01:00","0.0","0.0","7026.0","WXPOD 7026, AF","FM-15","4","30.02","70","79","","","","","74","","","","6.21","","000","","0","","","","","","","","","","","","","","","","","","","","","","","","","","","","","","","","","","","","","","","","","","","","","","","","","","","","","","","","","","","","","","","","","","","","","","","","","","","","","","","","","","","","","","","","","","","MET090MOBOB0 METAR 7026 //008 000000 280531Z AUTO 00000KT 9999 CLR 26/21 A3002 RMK CDP03661 CLR=","","","","","","","","","",""
"00702699999","2016-06-28T10:29:00","0.0","0.0","7026.0","WXPOD 7026, AF","FM-15","4","30.01","70","79","","","","","74","","","","6.21","","000","","0","","","","","","","","","","","","","","","","","","","","","","","","","","","","","","","","","","","","","","","","","","","","","","","","","","","","","","","","","","","","","","","","","","","","","","","","","","","","","","","","","","","","","","","","","","","MET090MOBOB0 METAR 7026 //008 000000 280559Z AUTO 00000KT 9999 CLR 26/21 A3001 RMK CDP03661 CLR=","","","","","","","","","",""
"00702699999","2016-06-28T10:44:00","0.0","0.0","7026.0","WXPOD 7026, AF","FM-15","4","30.01","70","77","","","","","79","","","","6.21","","000","","0","","","","","","","","","","","","","","","","","","","","","","","","","","","","","","","","","","","","","","","","","","","","","","","","","","","","","","","","","","","","","","","","","","","","","","","","","","","","","","","","","","","","","","","","","","","MET090MOBOB0 METAR 7026 //008 000000 280614Z AUTO 00000KT 9999 CLR 25/21 A3001 RMK CDP03661 CLR=","","","","","","","","","",""
"00702699999","2016-06-28T10:59:00","0.0","0.0","7026.0","WXPOD 7026, AF","FM-15","4","30.01","70","77","","|FU |","","","79","","","","6.21","","000","","0","","","","","","","","","","","","","","","","","","","","","","","","","","","","","","","","","","","","","","","","","","","","","","","","","","","","","","","","","","","","","","","","","","","","","","","","","","","","","","","","","","","","","","","","","","","MET093MOBOB0 METAR 7026 //008 000000 280629Z AUTO 00000KT 9999 HZ CLR 25/21 A3001 RMK CDP03661 CLR=","","","","","","","","","",""
"00702699999","2016-06-28T11:14:00","0.0","0.0","7026.0","WXPOD 7026, AF","FM-15","4","30.01","70","77","","","","","79","","","","","","000","","0","","","","","","","","","","","","","","","","","","","","","","","","","","","","","","","","","","","","","","","","","","","","","","","","","","","","","","","","","","","","","","","","","","","","","","","","","","","","","","","","","","","","","","","","","","","MET090MOBOB0 METAR 7026 //008 000000 280644Z AUTO 00000KT //// CLR 25/21 A3001 RMK CDP03661 CLR=","","","","","","","","","",""
"00702699999","2016-06-28T11:29:00","0.0","0.0","7026.0","WXPOD 7026, AF","FM-15","4","30.01","72","77","","","","","83","","","","6.21","","000","","0","","","","","","","","","","","","","","","","","","","","","","","","","","","","","","","","","","","","","","","","","","","","","","","","","","","","","","","","","","","","","","","","","","","","","","","","","","","","","","","","","","","","","","","","","","","MET090MOBOB0 METAR 7026 //008 000000 280659Z AUTO 00000KT 9999 CLR 25/22 A3001 RMK CDP03661 CLR=","","","","","","","","","",""
"00702699999","2016-06-28T11:44:00","0.0","0.0","7026.0","WXPOD 7026, AF","FM-15","4","30.00","72","77","","","","","83","","","","6.21","","000","","0","","","","","","","","","","","","","","","","","","","","","","","","","","","","","","","","","","","","","","","","","","","","","","","","","","","","","","","","","","","","","","","","","","","","","","","","","","","","","","","","","","","","","","","","","","","MET090MOBOB0 METAR 7026 //008 000000 280714Z AUTO 00000KT 9999 CLR 25/22 A3000 RMK CDP03661 CLR=","","","","","","","","","",""
"00702699999","2016-06-28T11:59:00","0.0","0.0","7026.0","WXPOD 7026, AF","FM-15","4","30.00","72","77","","","","","83","","","","6.21","","000","","0","","","","","","","","","","","","","","","","","","","","","","","","","","","","","","","","","","","","","","","","","","","","","","","","","","","","","","","","","","","","","","","","","","","","","","","","","","","","","","","","","","","","","","","","","","","MET090MOBOB0 METAR 7026 //008 000000 280729Z AUTO 00000KT 9999 CLR 25/22 A3000 RMK CDP03661 CLR=","","","","","","","","","",""
"00702699999","2016-06-28T12:14:00","0.0","0.0","7026.0","WXPOD 7026, AF","FM-15","4","30.00","72","77","","","","","83","FEW:02 72","","","6.21","","000","","0","","","","","","","","","","","","","","","","","","","","","","","","","","","","","","","","","","","","","","","","","","","","","","","","","","","","","","","","","","","","","","","","","","","","","","","","","","","","","","","","","","","","","","","","","","","MET108MOBOB0 METAR 7026 //008 000000 280744Z AUTO 00000KT 9999 FEW072 25/22 A3000 RMK CDP03661 FEW072 CLD AVG 072=","","","","","","","","","",""
"00702699999","2016-06-28T12:29:00","0.0","0.0","7026.0","WXPOD 7026, AF","FM-15","4","30.00","72","77","","","","","83","OVC:08 69","","","6.21","","000","","0","","","","","","","","","","","","","","","","","","","","","","","","","","","","","","","","","","","","","","","","","","","","","","","","","","","","","","","","","","","","","","","","","","","","","","","","","","","","","","","","","","","","","","","","","","","MET108MOBOB0 METAR 7026 //008 000000 280759Z AUTO 00000KT 9999 OVC069 25/22 A3000 RMK CDP03661 OVC069 CLD AVG 069=","","","","","","","","","",""
"00702699999","2016-06-28T12:44:00","0.0","0.0","7026.0","WXPOD 7026, AF","FM-15","4","30.00","72","77","","|FU |","","","83","BKN:07 67","","","6.21","","000","","0","","","","","","","","","","","","","","","","","","","","","","","","","","","","","","","","","","","","","","","","","","","","","","","","","","","","","","","","","","","","","","","","","","","","","","","","","","","","","","","","","","","","","","","","","","","MET111MOBOB0 METAR 7026 //008 000000 280814Z AUTO 00000KT 9999 HZ BKN067 25/22 A3000 RMK CDP03661 BKN067 CLD AVG 070=","","","","","","","","","",""
"00702699999","2016-06-28T12:59:00","0.0","0.0","7026.0","WXPOD 7026, AF","FM-15","4","30.00","72","77","","|FU |","","","83","BKN:07 37","","","6.21","","000","","0","","","","","","","","","","","","","","","","","","","","","","","","","","","","","","","","","","","","","","","","","","","","","","","","","","","","","","","","","","","","","","","","","","","","","","","","","","","","","","","","","","","","","","","","","","","MET111MOBOB0 METAR 7026 //008 000000 280829Z AUTO 00000KT 9999 HZ BKN037 25/22 A3000 RMK CDP03661 BKN037 CLD AVG 061=","","","","","","","","","",""
"00702699999","2016-06-28T13:14:00","0.0","0.0","7026.0","WXPOD 7026, AF","FM-15","4","30.00","72","77","","|FU |","","","83","FEW:02 74","","","6.21","","000","","0","","","","","","","","","","","","","","","","","","","","","","","","","","","","","","","","","","","","","","","","","","","","","","","","","","","","","","","","","","","","","","","","","","","","","","","","","","","","","","","","","","","","","","","","","","","MET111MOBOB0 METAR 7026 //008 000000 280844Z AUTO 00000KT 9999 HZ FEW074 25/22 A3000 RMK CDP03661 FEW074 CLD AVG 074=","","","","","","","","","",""
"00702699999","2016-06-28T13:29:00","0.0","0.0","7026.0","WXPOD 7026, AF","FM-15","4","30.00","72","77","","","","","83","OVC:08 41","","","","","000","","0","","","","","","","","","","","","","","","","","","","","","","","","","","","","","","","","","","","","","","","","","","","","","","","","","","","","","","","","","","","","","","","","","","","","","","","","","","","","","","","","","","","","","","","","","","","MET108MOBOB0 METAR 7026 //008 000000 280859Z AUTO 00000KT //// OVC041 25/22 A3000 RMK CDP03661 OVC041 CLD AVG 043=","","","","","","","","","",""
"00702699999","2016-06-28T13:44:00","0.0","0.0","7026.0","WXPOD 7026, AF","FM-15","4","30.01","72","77","","","","","83","OVC:08 41","","","6.21","","000","","0","","","","","","","","","","","","","","","","","","","","","","","","","","","","","","","","","","","","","","","","","","","","","","","","","","","","","","","","","","","","","","","","","","","","","","","","","","","","","","","","","","","","","","","","","","","MET108MOBOB0 METAR 7026 //008 000000 280914Z AUTO 00000KT 9999 OVC041 25/22 A3001 RMK CDP03661 OVC041 CLD AVG 043=","","","","","","","","","",""
"00702699999","2016-06-28T13:59:00","0.0","0.0","7026.0","WXPOD 7026, AF","FM-15","4","30.01","72","77","","","","","83","BKN:07 52","","","6.21","","000","","0","","","","","","","","","","","","","","","","","","","","","","","","","","","","","","","","","","","","","","","","","","","","","","","","","","","","","","","","","","","","","","","","","","","","","","","","","","","","","","","","","","","","","","","","","","","MET108MOBOB0 METAR 7026 //008 000000 280929Z AUTO 00000KT 9999 BKN052 25/22 A3001 RMK CDP03661 BKN052 CLD AVG 059=","","","","","","","","","",""
"00702699999","2016-06-28T14:14:00","0.0","0.0","7026.0","WXPOD 7026, AF","FM-15","4","30.01","72","77","","|FU |","","","83","OVC:08 47","","","6.21","","000","","0","","","","","","","","","","","","","","","","","","","","","","","","","","","","","","","","","","","","","","","","","","","","","","","","","","","","","","","","","","","","","","","","","","","","","","","","","","","","","","","","","","","","","","","","","","","MET111MOBOB0 METAR 7026 //008 000000 280944Z AUTO 00000KT 9999 HZ OVC047 25/22 A3001 RMK CDP03661 OVC047 CLD AVG 050=","","","","","","","","","",""
"00702699999","2016-06-28T14:29:00","0.0","0.0","7026.0","WXPOD 7026, AF","FM-15","4","30.01","72","77","","|FU |","","","83","FEW:02 32","","","6.21","","000","","0","","","","","","","","","","","","","","","","","","","","","","","","","","","","","","","","","","","","","","","","","","","","","","","","","","","","","","","","","","","","","","","","","","","","","","","","","","","","","","","","","","","","","","","","","","","MET111MOBOB0 METAR 7026 //008 000000 280959Z AUTO 00000KT 9999 HZ FEW032 25/22 A3001 RMK CDP03661 FEW032 CLD AVG 032=","","","","","","","","","",""
"00702699999","2016-06-28T14:44:00","0.0","0.0","7026.0","WXPOD 7026, AF","FM-15","4","30.00","72","77","","","","","83","","","","6.21","","000","","0","","","","","","","","","","","","","","","","","","","","","","","","","","","","","","","","","","","","","","","","","","","","","","","","","","","","","","","","","","","","","","","","","","","","","","","","","","","","","","","","","","","","","","","","","","","MET090MOBOB0 METAR 7026 //008 000000 281014Z AUTO 00000KT 9999 CLR 25/22 A3000 RMK CDP03661 CLR=","","","","","","","","","",""
"00702699999","2016-06-28T14:59:00","0.0","0.0","7026.0","WXPOD 7026, AF","FM-15","4","30.00","72","77","","","","","83","","","","6.21","","000","","0","","","","","","","","","","","","","","","","","","","","","","","","","","","","","","","","","","","","","","","","","","","","","","","","","","","","","","","","","","","","","","","","","","","","","","","","","","","","","","","","","","","","","","","","","","","MET090MOBOB0 METAR 7026 //008 000000 281029Z AUTO 00000KT 9999 CLR 25/22 A3000 RMK CDP03661 CLR=","","","","","","","","","",""
"00702699999","2016-06-28T15:14:00","0.0","0.0","7026.0","WXPOD 7026, AF","FM-15","4","30.00","72","77","","","","","83","","","","6.21","","000","","0","","","","","","","","","","","","","","","","","","","","","","","","","","","","","","","","","","","","","","","","","","","","","","","","","","","","","","","","","","","","","","","","","","","","","","","","","","","","","","","","","","","","","","","","","","","MET090MOBOB0 METAR 7026 //008 000000 281044Z AUTO 00000KT 9999 CLR 25/22 A3000 RMK CDP03661 CLR=","","","","","","","","","",""
"00702699999","2016-06-28T15:29:00","0.0","0.0","7026.0","WXPOD 7026, AF","FM-15","4","30.01","72","77","","","","","83","","","","","","000","","0","","","","","","","","","","","","","","","","","","","","","","","","","","","","","","","","","","","","","","","","","","","","","","","","","","","","","","","","","","","","","","","","","","","","","","","","","","","","","","","","","","","","","","","","","","","MET090MOBOB0 METAR 7026 //008 000000 281059Z AUTO 00000KT //// CLR 25/22 A3001 RMK CDP03661 CLR=","","","","","","","","","",""
"00702699999","2016-06-28T15:44:00","0.0","0.0","7026.0","WXPOD 7026, AF","FM-15","4","30.00","72","77","","|FU |","","","83","","","","6.21","","000","","0","","","","","","","","","","","","","","","","","","","","","","","","","","","","","","","","","","","","","","","","","","","","","","","","","","","","","","","","","","","","","","","","","","","","","","","","","","","","","","","","","","","","","","","","","","","MET093MOBOB0 METAR 7026 //008 000000 281114Z AUTO 00000KT 9999 HZ CLR 25/22 A3000 RMK CDP03661 CLR=","","","","","","","","","",""
"00702699999","2016-06-28T15:59:00","0.0","0.0","7026.0","WXPOD 7026, AF","FM-15","4","30.00","72","77","","","","","83","","","","","","000","","0","","","","","","","","","","","","","","","","","","","","","","","","","","","","","","","","","","","","","","","","","","","","","","","","","","","","","","","","","","","","","","","","","","","","","","","","","","","","","","","","","","","","","","","","","","","MET090MOBOB0 METAR 7026 //008 000000 281129Z AUTO 00000KT //// CLR 25/22 A3000 RMK CDP03661 CLR=","","","","","","","","","",""
"00702699999","2016-06-28T16:14:00","0.0","0.0","7026.0","WXPOD 7026, AF","FM-15","4","30.01","72","77","","","","","83","BKN:07 44","","","","","000","","0","","","","","","","","","","","","","","","","","","","","","","","","","","","","","","","","","","","","","","","","","","","","","","","","","","","","","","","","","","","","","","","","","","","","","","","","","","","","","","","","","","","","","","","","","","","MET108MOBOB0 METAR 7026 //008 000000 281144Z AUTO 00000KT //// BKN044 25/22 A3001 RMK CDP03661 BKN044 CLD AVG 045=","","","","","","","","","",""
"00702699999","2016-06-28T16:29:00","0.0","0.0","7026.0","WXPOD 7026, AF","FM-15","4","30.01","72","79","","|FU |","","","79","OVC:08 45","","","6.21","","000","","0","","","","","","","","","","","","","","","","","","","","","","","","","","","","","","","","","","","","","","","","","","","","","","","","","","","","","","","","","","","","","","","","","","","","","","","","","","","","","","","","","","","","","","","","","","","MET111MOBOB0 METAR 7026 //008 000000 281159Z AUTO 00000KT 9999 HZ OVC045 26/22 A3001 RMK CDP03661 OVC045 CLD AVG 046=","","","","","","","","","",""
"00702699999","2016-06-28T16:44:00","0.0","0.0","7026.0","WXPOD 7026, AF","FM-15","4","30.01","72","79","","|FU |","","","79","OVC:08 46","","","6.21","","000","","0","","","","","","","","","","","","","","","","","","","","","","","","","","","","","","","","","","","","","","","","","","","","","","","","","","","","","","","","","","","","","","","","","","","","","","","","","","","","","","","","","","","","","","","","","","","MET111MOBOB0 METAR 7026 //008 000000 281214Z AUTO 00000KT 9999 HZ OVC046 26/22 A3001 RMK CDP03661 OVC046 CLD AVG 047=","","","","","","","","","",""
"00702699999","2016-06-28T16:59:00","0.0","0.0","7026.0","WXPOD 7026, AF","FM-15","4","30.02","72","79","","","","","79","BKN:07 47","","","6.21","","000","","0","","","","","","","","","","","","","","","","","","","","","","","","","","","","","","","","","","","","","","","","","","","","","","","","","","","","","","","","","","","","","","","","","","","","","","","","","","","","","","","","","","","","","","","","","","","MET108MOBOB0 METAR 7026 //008 000000 281229Z AUTO 00000KT 9999 BKN047 26/22 A3002 RMK CDP03661 BKN047 CLD AVG 047=","","","","","","","","","",""
"00702699999","2016-06-28T17:14:00","0.0","0.0","7026.0","WXPOD 7026, AF","FM-15","4","30.02","72","79","","","","","79","OVC:08 28","","","","","000","","0","","","","","","","","","","","","","","","","","","","","","","","","","","","","","","","","","","","","","","","","","","","","","","","","","","","","","","","","","","","","","","","","","","","","","","","","","","","","","","","","","","","","","","","","","","","MET108MOBOB0 METAR 7026 //008 000000 281244Z AUTO 00000KT //// OVC028 26/22 A3002 RMK CDP03661 OVC028 CLD AVG 028=","","","","","","","","","",""
"00702699999","2016-06-28T17:29:00","0.0","0.0","7026.0","WXPOD 7026, AF","FM-15","4","30.02","73","79","","|FU |","","","84","SCT:04 62","","","6.21","","000","","0","","","","","","","","","","","","","","","","","","","","","","","","","","","","","","","","","","","","","","","","","","","","","","","","","","","","","","","","","","","","","","","","","","","","","","","","","","","","","","","","","","","","","","","","","","","MET111MOBOB0 METAR 7026 //008 000000 281259Z AUTO 00000KT 9999 HZ SCT062 26/23 A3002 RMK CDP03661 SCT062 CLD AVG 065=","","","","","","","","","",""
"00702699999","2016-06-28T17:44:00","0.0","0.0","7026.0","WXPOD 7026, AF","FM-15","4","30.02","73","79","","|DZ |","","","84","SCT:04 10","","","2.98","","000","","0","","","","","","","","","","","","","","","","","","","","","","","","","","","","","","","","","","","","","","","","","","","","","","","","","","","","","","","","","","","","","","","","","","","","","","","","","","","","","","","","","","","","","","","","","","","MET111MOBOB0 METAR 7026 //008 000000 281314Z AUTO 00000KT 4800 DZ SCT010 26/23 A3002 RMK CDP03661 SCT010 CLD AVG 011=","","","","","","","","","",""
"00702699999","2016-06-28T17:59:00","0.0","0.0","7026.0","WXPOD 7026, AF","FM-15","4","30.03","73","77","","|FU |","","","89","OVC:08 10","","","6.21","","000","","0","","","","","","","","","","","","","","","","","","","","","","","","","","","","","","","","","","","","","","","","","","","","","","","","","","","","","","","","","","","","","","","","","","","","","","","","","","","","","","","","","","","","","","","","","","","MET111MOBOB0 METAR 7026 //008 000000 281329Z AUTO 00000KT 9999 HZ OVC010 25/23 A3003 RMK CDP03661 OVC010 CLD AVG 013=","","","","","","","","","",""
"00702699999","2016-06-28T18:14:00","0.0","0.0","7026.0","WXPOD 7026, AF","FM-15","4","30.03","73","79","","|RA |","","","84","OVC:08 9","","","3.73","","000","","0","","","","","","","","","","","","","","","","","","","","","","","","","","","","","","","","","","","","","","","","","","","","","","","","","","","","","","","","","","","","","","","","","","","","","","","","","","","","","","","","","","","","","","","","","","","MET112MOBOB0 METAR 7026 //008 000000 281344Z AUTO 00000KT 6000 -RA OVC009 26/23 A3003 RMK CDP03661 OVC009 CLD AVG 013=","","","","","","","","","",""
"00702699999","2016-06-28T18:29:00","0.0","0.0","7026.0","WXPOD 7026, AF","FM-15","4","30.02","73","75","","|RA |","","","94","OVC:08 7","","","1.62","","000","","0","","","","","","","","","","","","","","","","","","","","","","","","","","","","","","","","","","","","","","","","","","","","","","","","","","","","","","","","","","","","","","","","","","","","","","","","","","","","","","","","","","","","","","","","","","","MET111MOBOB0 METAR 7026 //008 000000 281359Z AUTO 00000KT 2600 RA OVC007 24/23 A3002 RMK CDP03661 OVC007 CLD AVG 009=","","","","","","","","","",""
"00702699999","2016-06-28T18:44:00","0.0","0.0","7026.0","WXPOD 7026, AF","FM-15","4","30.02","73","75","","|RA |","","","94","OVC:08 7","","","1.62","","000","","0","","","","","","","","","","","","","","","","","","","","","","","","","","","","","","","","","","","","","","","","","","","","","","","","","","","","","","","","","","","","","","","","","","","","","","","","","","","","","","","","","","","","","","","","","","","MET111MOBOB0 METAR 7026 //008 000000 281414Z AUTO 00000KT 2600 RA OVC007 24/23 A3002 RMK CDP03661 OVC007 CLD AVG 009=","","","","","","","","","",""
"00702699999","2016-06-28T19:01:00","0.0","0.0","7026.0","WXPOD 7026, AF","FM-15","4","30.02","75","75","","|DZ |","","","100","SCT:04 12","","","2.49","","000","","0","","","","","","","","","","","","","","","","","","","","","","","","","","","","","","","","","","","","","","","","","","","","","","","","","","","","","","","","","","","","","","","","","","","","","","","","","","","","","","","","","","","","","","","","","","","MET111MOBOB0 METAR 7026 //008 000000 281431Z AUTO 00000KT 4000 DZ SCT012 24/24 A3002 RMK CDP03661 SCT012 CLD AVG 030=","","","","","","","","","",""
"00702699999","2016-06-28T19:29:00","0.0","0.0","7026.0","WXPOD 7026, AF","FM-15","4","30.03","75","75","","|RA |","","","100","OVC:08 6","","","0.37","","000","","0","","","","","","","","","","","","","","","","","","","","","","","","","","","","","","","","","","","","","","","","","","","","","","","","","","","","","","","","","","","","","","","","","","","","","","","","","","","","","","","","","","","","","","","","","","","MET112MOBOB0 METAR 7026 //008 000000 281459Z AUTO 00000KT 0600 +RA OVC006 24/24 A3003 RMK CDP03661 OVC006 CLD AVG 010=","","","","","","","","","",""
"00702699999","2016-06-28T19:44:00","0.0","0.0","7026.0","WXPOD 7026, AF","FM-15","4","30.02","73","73","","|RA |","","","100","FEW:02 13","","","0.62","","000","","0","","","","","","","","","","","","","","","","","","","","","","","","","","","","","","","","","","","","","","","","","","","","","","","","","","","","","","","","","","","","","","","","","","","","","","","","","","","","","","","","","","","","","","","","","","","MET111MOBOB0 METAR 7026 //008 000000 281514Z AUTO 00000KT 1000 RA FEW013 23/23 A3002 RMK CDP03661 FEW013 CLD AVG 015=","","","","","","","","","",""
"00702699999","2016-06-28T19:59:00","0.0","0.0","7026.0","WXPOD 7026, AF","FM-15","4","30.02","73","73","","|RA |","","","100","OVC:08 1","","","0.50","","000","","0","","","","","","","","","","","","","","","","","","","","","","","","","","","","","","","","","","","","","","","","","","","","","","","","","","","","","","","","","","","","","","","","","","","","","","","","","","","","","","","","","","","","","","","","","","","MET112MOBOB0 METAR 7026 //008 000000 281529Z AUTO 00000KT 0800 +RA OVC001 23/23 A3002 RMK CDP03661 OVC001 CLD AVG 008=","","","","","","","","","",""
"00702699999","2016-06-28T20:14:00","0.0","0.0","7026.0","WXPOD 7026, AF","FM-15","4","30.02","73","73","","|DZ |","","","100","SCT:04 1","","","1.62","","000","","0","","","","","","","","","","","","","","","","","","","","","","","","","","","","","","","","","","","","","","","","","","","","","","","","","","","","","","","","","","","","","","","","","","","","","","","","","","","","","","","","","","","","","","","","","","","MET112MOBOB0 METAR 7026 //008 000000 281544Z AUTO 00000KT 2600 +DZ SCT001 23/23 A3002 RMK CDP03661 SCT001 CLD AVG 004=","","","","","","","","","",""
"00702699999","2016-06-28T20:29:00","0.0","0.0","7026.0","WXPOD 7026, AF","FM-15","4","30.02","73","73","","|DZ |","","","100","OVC:08 2","","","1.99","","000","","0","","","","","","","","","","","","","","","","","","","","","","","","","","","","","","","","","","","","","","","","","","","","","","","","","","","","","","","","","","","","","","","","","","","","","","","","","","","","","","","","","","","","","","","","","","","MET112MOBOB0 METAR 7026 //008 000000 281559Z AUTO 00000KT 3200 -DZ OVC002 23/23 A3002 RMK CDP03661 OVC002 CLD AVG 002=","","","","","","","","","",""
"00702699999","2016-06-28T20:44:00","0.0","0.0","7026.0","WXPOD 7026, AF","FM-15","4","30.02","73","73","","","","","100","OVC:08 3","","","0.37","","000","","0","","","","","","","","","","","","","","","","","","","","","","","","","","","","","","","","","","","","","","","","","","","","","","","","","","","","","","","","","","","","","","","","","","","","","","","","","","","","","","","","","","","","","","","","","","","MET108MOBOB0 METAR 7026 //008 000000 281614Z AUTO 00000KT 0600 OVC003 23/23 A3002 RMK CDP03661 OVC003 CLD AVG 010=","","","","","","","","","",""
"00702699999","2016-06-28T20:59:00","0.0","0.0","7026.0","WXPOD 7026, AF","FM-15","4","30.01","75","75","","","","","100","BKN:07 3","","","2.98","","000","","0","","","","","","","","","","","","","","","","","","","","","","","","","","","","","","","","","","","","","","","","","","","","","","","","","","","","","","","","","","","","","","","","","","","","","","","","","","","","","","","","","","","","","","","","","","","MET108MOBOB0 METAR 7026 //008 000000 281629Z AUTO 00000KT 4800 BKN003 24/24 A3001 RMK CDP03661 BKN003 CLD AVG 003=","","","","","","","","","",""
"00702699999","2016-06-28T21:14:00","0.0","0.0","7026.0","WXPOD 7026, AF","FM-15","4","30.00","75","75","","","","","100","SCT:04 11","","","","","000","","0","","","","","","","","","","","","","","","","","","","","","","","","","","","","","","","","","","","","","","","","","","","","","","","","","","","","","","","","","","","","","","","","","","","","","","","","","","","","","","","","","","","","","","","","","","","MET108MOBOB0 METAR 7026 //008 000000 281644Z AUTO 00000KT //// SCT011 24/24 A3000 RMK CDP03661 SCT011 CLD AVG 013=","","","","","","","","","",""
"00702699999","2016-06-28T21:29:00","0.0","0.0","7026.0","WXPOD 7026, AF","FM-15","4","30.00","75","75","","","","","100","BKN:07 7","","","","","000","","0","","","","","","","","","","","","","","","","","","","","","","","","","","","","","","","","","","","","","","","","","","","","","","","","","","","","","","","","","","","","","","","","","","","","","","","","","","","","","","","","","","","","","","","","","","","MET108MOBOB0 METAR 7026 //008 000000 281659Z AUTO 00000KT //// BKN007 24/24 A3000 RMK CDP03661 BKN007 CLD AVG 010=","","","","","","","","","",""
"00702699999","2016-06-28T21:44:00","0.0","0.0","7026.0","WXPOD 7026, AF","FM-15","4","30.00","73","75","","","","","94","BKN:07 7","","","2.98","","000","","0","","","","","","","","","","","","","","","","","","","","","","","","","","","","","","","","","","","","","","","","","","","","","","","","","","","","","","","","","","","","","","","","","","","","","","","","","","","","","","","","","","","","","","","","","","","MET108MOBOB0 METAR 7026 //008 000000 281714Z AUTO 00000KT 4800 BKN007 24/23 A3000 RMK CDP03661 BKN007 CLD AVG 010=","","","","","","","","","",""
"00702699999","2016-06-28T21:59:00","0.0","0.0","7026.0","WXPOD 7026, AF","FM-15","4","29.99","73","73","","","","","100","","","","","","000","","0","","","","","","","","","","","","","","","","","","","","","","","","","","","","","","","","","","","","","","","","","","","","","","","","","","","","","","","","","","","","","","","","","","","","","","","","","","","","","","","","","","","","","","","","","","","MET090MOBOB0 METAR 7026 //008 000000 281729Z AUTO 00000KT //// CLR 23/23 A2999 RMK CDP03661 CLR=","","","","","","","","","",""
"00702699999","2016-06-28T22:14:00","0.0","0.0","7026.0","WXPOD 7026, AF","FM-15","4","30.00","72","73","","","","","94","","","","3.73","","000","","0","","","","","","","","","","","","","","","","","","","","","","","","","","","","","","","","","","","","","","","","","","","","","","","","","","","","","","","","","","","","","","","","","","","","","","","","","","","","","","","","","","","","","","","","","","","MET090MOBOB0 METAR 7026 //008 000000 281744Z AUTO 00000KT 6000 CLR 23/22 A3000 RMK CDP03661 CLR=","","","","","","","","","",""
"00702699999","2016-06-28T22:29:00","0.0","0.0","7026.0","WXPOD 7026, AF","FM-15","4","30.01","73","73","","","","","100","SCT:04 12","","","0.87","","000","","0","","","","","","","","","","","","","","","","","","","","","","","","","","","","","","","","","","","","","","","","","","","","","","","","","","","","","","","","","","","","","","","","","","","","","","","","","","","","","","","","","","","","","","","","","","","MET108MOBOB0 METAR 7026 //008 000000 281759Z AUTO 00000KT 1400 SCT012 23/23 A3001 RMK CDP03661 SCT012 CLD AVG 022=","","","","","","","","","",""
"00702699999","2016-06-28T22:45:00","0.0","0.0","7026.0","WXPOD 7026, AF","FM-15","4","30.00","72","72","","","","","100","FEW:02 3","","","0.75","","000","","0","","","","","","","","","","","","","","","","","","","","","","","","","","","","","","","","","","","","","","","","","","","","","","","","","","","","","","","","","","","","","","","","","","","","","","","","","","","","","","","","","","","","","","","","","","","MET108MOBOB0 METAR 7026 //008 000000 281815Z AUTO 00000KT 1200 FEW003 22/22 A3000 RMK CDP03661 FEW003 CLD AVG 004=","","","","","","","","","",""
"00702699999","2016-06-28T23:14:00","0.0","0.0","7026.0","WXPOD 7026, AF","FM-15","4","30.00","72","72","","","","","100","SCT:04 1","","","","","000","","0","","","","","","","","","","","","","","","","","","","","","","","","","","","","","","","","","","","","","","","","","","","","","","","","","","","","","","","","","","","","","","","","","","","","","","","","","","","","","","","","","","","","","","","","","","","MET108MOBOB0 METAR 7026 //008 000000 281844Z AUTO 00000KT //// SCT001 22/22 A3000 RMK CDP03661 SCT001 CLD AVG 002=","","","","","","","","","",""
"00702699999","2016-06-28T23:29:00","0.0","0.0","7026.0","WXPOD 7026, AF","FM-15","4","30.00","72","72","","","","","100","SCT:04 6","","","0.37","","000","","0","","","","","","","","","","","","","","","","","","","","","","","","","","","","","","","","","","","","","","","","","","","","","","","","","","","","","","","","","","","","","","","","","","","","","","","","","","","","","","","","","","","","","","","","","","","MET108MOBOB0 METAR 7026 //008 000000 281859Z AUTO 00000KT 0600 SCT006 22/22 A3000 RMK CDP03661 SCT006 CLD AVG 010=","","","","","","","","","",""
"00702699999","2016-06-28T23:44:00","0.0","0.0","7026.0","WXPOD 7026, AF","FM-15","4","29.99","72","72","","","","","100","OVC:08 3","","","1.99","","000","","0","","","","","","","","","","","","","","","","","","","","","","","","","","","","","","","","","","","","","","","","","","","","","","","","","","","","","","","","","","","","","","","","","","","","","","","","","","","","","","","","","","","","","","","","","","","MET108MOBOB0 METAR 7026 //008 000000 281914Z AUTO 00000KT 3200 OVC003 22/22 A2999 RMK CDP03661 OVC003 CLD AVG 005=","","","","","","","","","",""
"00702699999","2016-06-28T23:59:00","0.0","0.0","7026.0","WXPOD 7026, AF","FM-15","4","29.98","72","72","","","","","100","SCT:04 24","","","","","000","","0","","","","","","","","","","","","","","","","","","","","","","","","","","","","","","","","","","","","","","","","","","","","","","","","","","","","","","","","","","","","","","","","","","","","","","","","","","","","","","","","","","","","","","","","","","","MET108MOBOB0 METAR 7026 //008 000000 281929Z AUTO 00000KT //// SCT024 22/22 A2998 RMK CDP03661 SCT024 CLD AVG 027=","","","","","","","","","",""
"00702699999","2016-06-29T00:14:00","0.0","0.0","7026.0","WXPOD 7026, AF","FM-15","4","29.97","72","72","","","","","100","","","","4.97","","000","","0","","","","","","","","","","","","","","","","","","","","","","","","","","","","","","","","","","","","","","","","","","","","","","","","","","","","","","","","","","","","","","","","","","","","","","","","","","","","","","","","","","","","","","","","","","","MET090MOBOB0 METAR 7026 //008 000000 281944Z AUTO 00000KT 8000 CLR 22/22 A2997 RMK CDP03661 CLR=","","","","","","","","","",""
"00702699999","2016-06-29T00:29:00","0.0","0.0","7026.0","WXPOD 7026, AF","FM-15","4","29.95","72","72","","","","","100","","","","4.97","","000","","0","","","","","","","","","","","","","","","","","","","","","","","","","","","","","","","","","","","","","","","","","","","","","","","","","","","","","","","","","","","","","","","","","","","","","","","","","","","","","","","","","","","","","","","","","","","MET090MOBOB0 METAR 7026 //008 000000 281959Z AUTO 00000KT 8000 CLR 22/22 A2995 RMK CDP03661 CLR=","","","","","","","","","",""
"00702699999","2016-06-29T00:44:00","0.0","0.0","7026.0","WXPOD 7026, AF","FM-15","4","29.96","72","72","","","","","100","BKN:07 5","","","5.59","","000","","0","","","","","","","","","","","","","","","","","","","","","","","","","","","","","","","","","","","","","","","","","","","","","","","","","","","","","","","","","","","","","","","","","","","","","","","","","","","","","","","","","","","","","","","","","","","MET108MOBOB0 METAR 7026 //008 000000 282014Z AUTO 00000KT 9000 BKN005 22/22 A2996 RMK CDP03661 BKN005 CLD AVG 006=","","","","","","","","","",""
"00702699999","2016-06-29T00:59:00","0.0","0.0","7026.0","WXPOD 7026, AF","FM-15","4","29.96","72","72","","","","","100","OVC:08 6","","","3.73","","000","","0","","","","","","","","","","","","","","","","","","","","","","","","","","","","","","","","","","","","","","","","","","","","","","","","","","","","","","","","","","","","","","","","","","","","","","","","","","","","","","","","","","","","","","","","","","","MET108MOBOB0 METAR 7026 //008 000000 282029Z AUTO 00000KT 6000 OVC006 22/22 A2996 RMK CDP03661 OVC006 CLD AVG 006=","","","","","","","","","",""
"00702699999","2016-06-29T01:14:00","0.0","0.0","7026.0","WXPOD 7026, AF","FM-15","4","29.95","72","72","","","","","100","OVC:08 6","","","4.97","","000","","0","","","","","","","","","","","","","","","","","","","","","","","","","","","","","","","","","","","","","","","","","","","","","","","","","","","","","","","","","","","","","","","","","","","","","","","","","","","","","","","","","","","","","","","","","","","MET108MOBOB0 METAR 7026 //008 000000 282044Z AUTO 00000KT 8000 OVC006 22/22 A2995 RMK CDP03661 OVC006 CLD AVG 008=","","","","","","","","","",""
"00702699999","2016-06-29T01:29:00","0.0","0.0","7026.0","WXPOD 7026, AF","FM-15","4","29.95","73","73","","","","","100","OVC:08 6","","","5.59","","000","","0","","","","","","","","","","","","","","","","","","","","","","","","","","","","","","","","","","","","","","","","","","","","","","","","","","","","","","","","","","","","","","","","","","","","","","","","","","","","","","","","","","","","","","","","","","","MET108MOBOB0 METAR 7026 //008 000000 282059Z AUTO 00000KT 9000 OVC006 23/23 A2995 RMK CDP03661 OVC006 CLD AVG 007=","","","","","","","","","",""
"00702699999","2016-06-29T01:44:00","0.0","0.0","7026.0","WXPOD 7026, AF","FM-15","4","29.96","73","73","","","","","100","OVC:08 9","","","5.59","","000","","0","","","","","","","","","","","","","","","","","","","","","","","","","","","","","","","","","","","","","","","","","","","","","","","","","","","","","","","","","","","","","","","","","","","","","","","","","","","","","","","","","","","","","","","","","","","MET108MOBOB0 METAR 7026 //008 000000 282114Z AUTO 00000KT 9000 OVC009 23/23 A2996 RMK CDP03661 OVC009 CLD AVG 010=","","","","","","","","","",""
"00702699999","2016-06-29T01:59:00","0.0","0.0","7026.0","WXPOD 7026, AF","FM-15","4","29.96","73","73","","","","","100","OVC:08 6","","","4.97","","000","","0","","","","","","","","","","","","","","","","","","","","","","","","","","","","","","","","","","","","","","","","","","","","","","","","","","","","","","","","","","","","","","","","","","","","","","","","","","","","","","","","","","","","","","","","","","","MET108MOBOB0 METAR 7026 //008 000000 282129Z AUTO 00000KT 8000 OVC006 23/23 A2996 RMK CDP03661 OVC006 CLD AVG 008=","","","","","","","","","",""
"00702699999","2016-06-29T02:14:00","0.0","0.0","7026.0","WXPOD 7026, AF","FM-15","4","29.95","73","73","","","","","100","OVC:08 5","","","4.97","","000","","0","","","","","","","","","","","","","","","","","","","","","","","","","","","","","","","","","","","","","","","","","","","","","","","","","","","","","","","","","","","","","","","","","","","","","","","","","","","","","","","","","","","","","","","","","","","MET108MOBOB0 METAR 7026 //008 000000 282144Z AUTO 00000KT 8000 OVC005 23/23 A2995 RMK CDP03661 OVC005 CLD AVG 007=","","","","","","","","","",""
"00702699999","2016-06-29T02:29:00","0.0","0.0","7026.0","WXPOD 7026, AF","FM-15","4","29.94","73","73","","","","","100","BKN:07 6","","","6.21","","000","","0","","","","","","","","","","","","","","","","","","","","","","","","","","","","","","","","","","","","","","","","","","","","","","","","","","","","","","","","","","","","","","","","","","","","","","","","","","","","","","","","","","","","","","","","","","","MET108MOBOB0 METAR 7026 //008 000000 282159Z AUTO 00000KT 9999 BKN006 23/23 A2994 RMK CDP03661 BKN006 CLD AVG 014=","","","","","","","","","",""
"00702699999","2016-06-29T02:44:00","0.0","0.0","7026.0","WXPOD 7026, AF","FM-15","4","29.94","73","73","","","","","100","OVC:08 12","","","6.21","","000","","0","","","","","","","","","","","","","","","","","","","","","","","","","","","","","","","","","","","","","","","","","","","","","","","","","","","","","","","","","","","","","","","","","","","","","","","","","","","","","","","","","","","","","","","","","","","MET108MOBOB0 METAR 7026 //008 000000 282214Z AUTO 00000KT 9999 OVC012 23/23 A2994 RMK CDP03661 OVC012 CLD AVG 012=","","","","","","","","","",""
"00702699999","2016-06-29T02:59:00","0.0","0.0","7026.0","WXPOD 7026, AF","FM-15","4","29.95","72","73","","","","","94","OVC:08 11","","","6.21","","000","","0","","","","","","","","","","","","","","","","","","","","","","","","","","","","","","","","","","","","","","","","","","","","","","","","","","","","","","","","","","","","","","","","","","","","","","","","","","","","","","","","","","","","","","","","","","","MET108MOBOB0 METAR 7026 //008 000000 282229Z AUTO 00000KT 9999 OVC011 23/22 A2995 RMK CDP03661 OVC011 CLD AVG 013=","","","","","","","","","",""
"00702699999","2016-06-29T03:14:00","0.0","0.0","7026.0","WXPOD 7026, AF","FM-15","4","29.95","72","73","","","","","94","OVC:08 13","","","","","000","","0","","","","","","","","","","","","","","","","","","","","","","","","","","","","","","","","","","","","","","","","","","","","","","","","","","","","","","","","","","","","","","","","","","","","","","","","","","","","","","","","","","","","","","","","","","","MET108MOBOB0 METAR 7026 //008 000000 282244Z AUTO 00000KT //// OVC013 23/22 A2995 RMK CDP03661 OVC013 CLD AVG 016=","","","","","","","","","",""
"00702699999","2016-06-29T03:29:00","0.0","0.0","7026.0","WXPOD 7026, AF","FM-15","4","29.96","73","75","","","","","94","OVC:08 17","","","5.59","","000","","0","","","","","","","","","","","","","","","","","","","","","","","","","","","","","","","","","","","","","","","","","","","","","","","","","","","","","","","","","","","","","","","","","","","","","","","","","","","","","","","","","","","","","","","","","","","MET108MOBOB0 METAR 7026 //008 000000 282259Z AUTO 00000KT 9000 OVC017 24/23 A2996 RMK CDP03661 OVC017 CLD AVG 017=","","","","","","","","","",""
"00702699999","2016-06-29T03:44:00","0.0","0.0","7026.0","WXPOD 7026, AF","FM-15","4","29.96","73","75","","","","","94","OVC:08 17","","","5.59","","000","","0","","","","","","","","","","","","","","","","","","","","","","","","","","","","","","","","","","","","","","","","","","","","","","","","","","","","","","","","","","","","","","","","","","","","","","","","","","","","","","","","","","","","","","","","","","","MET108MOBOB0 METAR 7026 //008 000000 282314Z AUTO 00000KT 9000 OVC017 24/23 A2996 RMK CDP03661 OVC017 CLD AVG 018=","","","","","","","","","",""
"00702699999","2016-06-29T03:59:00","0.0","0.0","7026.0","WXPOD 7026, AF","FM-15","4","29.96","73","75","","","","","94","BKN:07 18","","","5.59","","000","","0","","","","","","","","","","","","","","","","","","","","","","","","","","","","","","","","","","","","","","","","","","","","","","","","","","","","","","","","","","","","","","","","","","","","","","","","","","","","","","","","","","","","","","","","","","","MET108MOBOB0 METAR 7026 //008 000000 282329Z AUTO 00000KT 9000 BKN018 24/23 A2996 RMK CDP03661 BKN018 CLD AVG 021=","","","","","","","","","",""
"00702699999","2016-06-29T04:14:00","0.0","0.0","7026.0","WXPOD 7026, AF","FM-15","4","29.96","73","75","","","","","94","","","","4.97","","000","","0","","","","","","","","","","","","","","","","","","","","","","","","","","","","","","","","","","","","","","","","","","","","","","","","","","","","","","","","","","","","","","","","","","","","","","","","","","","","","","","","","","","","","","","","","","","MET090MOBOB0 METAR 7026 //008 000000 282344Z AUTO 00000KT 8000 CLR 24/23 A2996 RMK CDP03661 CLR=","","","","","","","","","",""
"00702699999","2016-06-29T04:29:00","0.0","0.0","7026.0","WXPOD 7026, AF","FM-15","4","29.95","73","75","","","","","94","","","","","","000","","0","","","","","","","","","","","","","","","","","","","","","","","","","","","","","","","","","","","","","","","","","","","","","","","","","","","","","","","","","","","","","","","","","","","","","","","","","","","","","","","","","","","","","","","","","","","MET090MOBOB0 METAR 7026 //008 000000 282359Z AUTO 00000KT //// CLR 24/23 A2995 RMK CDP03661 CLR=","","","","","","","","","",""
"00702699999","2016-06-29T04:44:00","0.0","0.0","7026.0","WXPOD 7026, AF","FM-15","4","29.95","73","75","","","","","94","","","","4.97","","000","","0","","","","","","","","","","","","","","","","","","","","","","","","","","","","","","","","","","","","","","","","","","","","","","","","","","","","","","","","","","","","","","","","","","","","","","","","","","","","","","","","","","","","","","","","","","","MET090MOBOB0 METAR 7026 //008 000000 290014Z AUTO 00000KT 8000 CLR 24/23 A2995 RMK CDP03661 CLR=","","","","","","","","","",""
"00702699999","2016-06-29T04:59:00","0.0","0.0","7026.0","WXPOD 7026, AF","FM-15","4","29.95","73","75","","","","","94","","","","3.73","","000","","0","","","","","","","","","","","","","","","","","","","","","","","","","","","","","","","","","","","","","","","","","","","","","","","","","","","","","","","","","","","","","","","","","","","","","","","","","","","","","","","","","","","","","","","","","","","MET090MOBOB0 METAR 7026 //008 000000 290029Z AUTO 00000KT 6000 CLR 24/23 A2995 RMK CDP03661 CLR=","","","","","","","","","",""
"00702699999","2016-06-29T05:14:00","0.0","0.0","7026.0","WXPOD 7026, AF","FM-15","4","29.95","73","73","","","","","100","","","","3.73","","000","","0","","","","","","","","","","","","","","","","","","","","","","","","","","","","","","","","","","","","","","","","","","","","","","","","","","","","","","","","","","","","","","","","","","","","","","","","","","","","","","","","","","","","","","","","","","","MET090MOBOB0 METAR 7026 //008 000000 290044Z AUTO 00000KT 6000 CLR 23/23 A2995 RMK CDP03661 CLR=","","","","","","","","","",""
"00702699999","2016-06-29T05:29:00","0.0","0.0","7026.0","WXPOD 7026, AF","FM-15","4","29.95","73","73","","","","","100","","","","2.49","","000","","0","","","","","","","","","","","","","","","","","","","","","","","","","","","","","","","","","","","","","","","","","","","","","","","","","","","","","","","","","","","","","","","","","","","","","","","","","","","","","","","","","","","","","","","","","","","MET090MOBOB0 METAR 7026 //008 000000 290059Z AUTO 00000KT 4000 CLR 23/23 A2995 RMK CDP03661 CLR=","","","","","","","","","",""
"00702699999","2016-06-29T05:44:00","0.0","0.0","7026.0","WXPOD 7026, AF","FM-15","4","29.95","73","73","","","","","100","","","","2.24","","000","","0","","","","","","","","","","","","","","","","","","","","","","","","","","","","","","","","","","","","","","","","","","","","","","","","","","","","","","","","","","","","","","","","","","","","","","","","","","","","","","","","","","","","","","","","","","","MET090MOBOB0 METAR 7026 //008 000000 290114Z AUTO 00000KT 3600 CLR 23/23 A2995 RMK CDP03661 CLR=","","","","","","","","","",""
"00702699999","2016-06-29T05:59:00","0.0","0.0","7026.0","WXPOD 7026, AF","FM-15","4","29.96","73","73","","","","","100","","","","","","000","","0","","","","","","","","","","","","","","","","","","","","","","","","","","","","","","","","","","","","","","","","","","","","","","","","","","","","","","","","","","","","","","","","","","","","","","","","","","","","","","","","","","","","","","","","","","","MET090MOBOB0 METAR 7026 //008 000000 290129Z AUTO 00000KT //// CLR 23/23 A2996 RMK CDP03661 CLR=","","","","","","","","","",""
"00702699999","2016-06-29T06:14:00","0.0","0.0","7026.0","WXPOD 7026, AF","FM-15","4","29.96","73","73","","","","","100","","","","0.87","","000","","0","","","","","","","","","","","","","","","","","","","","","","","","","","","","","","","","","","","","","","","","","","","","","","","","","","","","","","","","","","","","","","","","","","","","","","","","","","","","","","","","","","","","","","","","","","","MET090MOBOB0 METAR 7026 //008 000000 290144Z AUTO 00000KT 1400 CLR 23/23 A2996 RMK CDP03661 CLR=","","","","","","","","","",""
"00702699999","2016-06-29T06:29:00","0.0","0.0","7026.0","WXPOD 7026, AF","FM-15","4","29.96","73","73","","","","","100","","","","0.87","","000","","0","","","","","","","","","","","","","","","","","","","","","","","","","","","","","","","","","","","","","","","","","","","","","","","","","","","","","","","","","","","","","","","","","","","","","","","","","","","","","","","","","","","","","","","","","","","MET090MOBOB0 METAR 7026 //008 000000 290159Z AUTO 00000KT 1400 CLR 23/23 A2996 RMK CDP03661 CLR=","","","","","","","","","",""
"00702699999","2016-06-29T06:44:00","0.0","0.0","7026.0","WXPOD 7026, AF","FM-15","4","29.96","72","73","","","","","94","","","","","","000","","0","","","","","","","","","","","","","","","","","","","","","","","","","","","","","","","","","","","","","","","","","","","","","","","","","","","","","","","","","","","","","","","","","","","","","","","","","","","","","","","","","","","","","","","","","","","MET090MOBOB0 METAR 7026 //008 000000 290214Z AUTO 00000KT //// CLR 23/22 A2996 RMK CDP03661 CLR=","","","","","","","","","",""
"00702699999","2016-06-29T06:59:00","0.0","0.0","7026.0","WXPOD 7026, AF","FM-15","4","29.96","72","73","","","","","94","","","","0.31","","000","","0","","","","","","","","","","","","","","","","","","","","","","","","","","","","","","","","","","","","","","","","","","","","","","","","","","","","","","","","","","","","","","","","","","","","","","","","","","","","","","","","","","","","","","","","","","","MET090MOBOB0 METAR 7026 //008 000000 290229Z AUTO 00000KT 0500 CLR 23/22 A2996 RMK CDP03661 CLR=","","","","","","","","","",""
"00702699999","2016-06-29T07:14:00","0.0","0.0","7026.0","WXPOD 7026, AF","FM-15","4","29.96","73","73","","","","","100","","","","0.12","","000","","0","","","","","","","","","","","","","","","","","","","","","","","","","","","","","","","","","","","","","","","","","","","","","","","","","","","","","","","","","","","","","","","","","","","","","","","","","","","","","","","","","","","","","","","","","","","MET090MOBOB0 METAR 7026 //008 000000 290244Z AUTO 00000KT 0200 CLR 23/23 A2996 RMK CDP03661 CLR=","","","","","","","","","",""
"00702699999","2016-06-29T07:29:00","0.0","0.0","7026.0","WXPOD 7026, AF","FM-15","4","29.96","72","73","","","","","94","SCT:04 0","","","","","000","","0","","","","","","","","","","","","","","","","","","","","","","","","","","","","","","","","","","","","","","","","","","","","","","","","","","","","","","","","","","","","","","","","","","","","","","","","","","","","","","","","","","","","","","","","","","","MET108MOBOB0 METAR 7026 //008 000000 290259Z AUTO 00000KT //// SCT000 23/22 A2996 RMK CDP03661 SCT000 CLD AVG 010=","","","","","","","","","",""
"00702699999","2016-06-29T07:44:00","0.0","0.0","7026.0","WXPOD 7026, AF","FM-15","4","29.96","72","73","","","","","94","","","","0.62","","000","","0","","","","","","","","","","","","","","","","","","","","","","","","","","","","","","","","","","","","","","","","","","","","","","","","","","","","","","","","","","","","","","","","","","","","","","","","","","","","","","","","","","","","","","","","","","","MET090MOBOB0 METAR 7026 //008 000000 290314Z AUTO 00000KT 1000 CLR 23/22 A2996 RMK CDP03661 CLR=","","","","","","","","","",""
"00702699999","2016-06-29T07:59:00","0.0","0.0","7026.0","WXPOD 7026, AF","FM-15","4","29.96","72","73","","","","","94","","","","0.75","","000","","0","","","","","","","","","","","","","","","","","","","","","","","","","","","","","","","","","","","","","","","","","","","","","","","","","","","","","","","","","","","","","","","","","","","","","","","","","","","","","","","","","","","","","","","","","","","MET090MOBOB0 METAR 7026 //008 000000 290329Z AUTO 00000KT 1200 CLR 23/22 A2996 RMK CDP03661 CLR=","","","","","","","","","",""
"00702699999","2016-06-29T08:14:00","0.0","0.0","7026.0","WXPOD 7026, AF","FM-15","4","29.96","72","73","","","","","94","","","","","","000","","0","","","","","","","","","","","","","","","","","","","","","","","","","","","","","","","","","","","","","","","","","","","","","","","","","","","","","","","","","","","","","","","","","","","","","","","","","","","","","","","","","","","","","","","","","","","MET090MOBOB0 METAR 7026 //008 000000 290344Z AUTO 00000KT //// CLR 23/22 A2996 RMK CDP03661 CLR=","","","","","","","","","",""
"00702699999","2016-06-29T08:29:00","0.0","0.0","7026.0","WXPOD 7026, AF","FM-15","4","29.97","72","72","","","","","100","FEW:02 4","","","0.87","","000","","0","","","","","","","","","","","","","","","","","","","","","","","","","","","","","","","","","","","","","","","","","","","","","","","","","","","","","","","","","","","","","","","","","","","","","","","","","","","","","","","","","","","","","","","","","","","MET108MOBOB0 METAR 7026 //008 000000 290359Z AUTO 00000KT 1400 FEW004 22/22 A2997 RMK CDP03661 FEW004 CLD AVG 004=","","","","","","","","","",""
"00702699999","2016-06-29T08:44:00","0.0","0.0","7026.0","WXPOD 7026, AF","FM-15","4","29.96","72","72","","","","","100","","","","0.99","","000","","0","","","","","","","","","","","","","","","","","","","","","","","","","","","","","","","","","","","","","","","","","","","","","","","","","","","","","","","","","","","","","","","","","","","","","","","","","","","","","","","","","","","","","","","","","","","MET090MOBOB0 METAR 7026 //008 000000 290414Z AUTO 00000KT 1600 CLR 22/22 A2996 RMK CDP03661 CLR=","","","","","","","","","",""
"00702699999","2016-06-29T08:59:00","0.0","0.0","7026.0","WXPOD 7026, AF","FM-15","4","29.97","72","72","","","","","100","","","","0.99","","000","","0","","","","","","","","","","","","","","","","","","","","","","","","","","","","","","","","","","","","","","","","","","","","","","","","","","","","","","","","","","","","","","","","","","","","","","","","","","","","","","","","","","","","","","","","","","","MET090MOBOB0 METAR 7026 //008 000000 290429Z AUTO 00000KT 1600 CLR 22/22 A2997 RMK CDP03661 CLR=","","","","","","","","","",""
"00702699999","2016-06-29T09:14:00","0.0","0.0","7026.0","WXPOD 7026, AF","FM-15","4","29.96","72","73","","","","","94","FEW:02 0","","","","","000","","0","","","","","","","","","","","","","","","","","","","","","","","","","","","","","","","","","","","","","","","","","","","","","","","","","","","","","","","","","","","","","","","","","","","","","","","","","","","","","","","","","","","","","","","","","","","MET108MOBOB0 METAR 7026 //008 000000 290444Z AUTO 00000KT //// FEW000 23/22 A2996 RMK CDP03661 FEW000 CLD AVG 007=","","","","","","","","","",""
"00702699999","2016-06-29T09:29:00","0.0","0.0","7026.0","WXPOD 7026, AF","FM-15","4","29.96","72","73","","","","","94","","","","1.49","","000","","0","","","","","","","","","","","","","","","","","","","","","","","","","","","","","","","","","","","","","","","","","","","","","","","","","","","","","","","","","","","","","","","","","","","","","","","","","","","","","","","","","","","","","","","","","","","MET090MOBOB0 METAR 7026 //008 000000 290459Z AUTO 00000KT 2400 CLR 23/22 A2996 RMK CDP03661 CLR=","","","","","","","","","",""
"00702699999","2016-06-29T09:44:00","0.0","0.0","7026.0","WXPOD 7026, AF","FM-15","4","29.95","72","72","","","","","100","FEW:02 13","","","0.87","","000","","0","","","","","","","","","","","","","","","","","","","","","","","","","","","","","","","","","","","","","","","","","","","","","","","","","","","","","","","","","","","","","","","","","","","","","","","","","","","","","","","","","","","","","","","","","","","MET108MOBOB0 METAR 7026 //008 000000 290514Z AUTO 00000KT 1400 FEW013 22/22 A2995 RMK CDP03661 FEW013 CLD AVG 013=","","","","","","","","","",""
"00702699999","2016-06-29T09:59:00","0.0","0.0","7026.0","WXPOD 7026, AF","FM-15","4","29.95","72","72","","","","","100","SCT:04 14","","","0.87","","000","","0","","","","","","","","","","","","","","","","","","","","","","","","","","","","","","","","","","","","","","","","","","","","","","","","","","","","","","","","","","","","","","","","","","","","","","","","","","","","","","","","","","","","","","","","","","","MET108MOBOB0 METAR 7026 //008 000000 290529Z AUTO 00000KT 1400 SCT014 22/22 A2995 RMK CDP03661 SCT014 CLD AVG 014=","","","","","","","","","",""
"00702699999","2016-06-29T10:14:00","0.0","0.0","7026.0","WXPOD 7026, AF","FM-15","4","29.94","72","72","","","","","100","","","","0.75","","000","","0","","","","","","","","","","","","","","","","","","","","","","","","","","","","","","","","","","","","","","","","","","","","","","","","","","","","","","","","","","","","","","","","","","","","","","","","","","","","","","","","","","","","","","","","","","","MET090MOBOB0 METAR 7026 //008 000000 290544Z AUTO 00000KT 1200 CLR 22/22 A2994 RMK CDP03661 CLR=","","","","","","","","","",""
"00702699999","2016-06-29T10:29:00","0.0","0.0","7026.0","WXPOD 7026, AF","FM-15","4","29.94","72","72","","","","","100","","","","0.37","","000","","0","","","","","","","","","","","","","","","","","","","","","","","","","","","","","","","","","","","","","","","","","","","","","","","","","","","","","","","","","","","","","","","","","","","","","","","","","","","","","","","","","","","","","","","","","","","MET090MOBOB0 METAR 7026 //008 000000 290559Z AUTO 00000KT 0600 CLR 22/22 A2994 RMK CDP03661 CLR=","","","","","","","","","",""
"00702699999","2016-06-29T10:44:00","0.0","0.0","7026.0","WXPOD 7026, AF","FM-15","4","29.94","72","72","","","","","100","","","","0.62","","000","","0","","","","","","","","","","","","","","","","","","","","","","","","","","","","","","","","","","","","","","","","","","","","","","","","","","","","","","","","","","","","","","","","","","","","","","","","","","","","","","","","","","","","","","","","","","","MET090MOBOB0 METAR 7026 //008 000000 290614Z AUTO 00000KT 1000 CLR 22/22 A2994 RMK CDP03661 CLR=","","","","","","","","","",""
"00702699999","2016-06-29T10:59:00","0.0","0.0","7026.0","WXPOD 7026, AF","FM-15","4","29.93","72","72","","","","","100","","","","0.37","","000","","0","","","","","","","","","","","","","","","","","","","","","","","","","","","","","","","","","","","","","","","","","","","","","","","","","","","","","","","","","","","","","","","","","","","","","","","","","","","","","","","","","","","","","","","","","","","MET090MOBOB0 METAR 7026 //008 000000 290629Z AUTO 00000KT 0600 CLR 22/22 A2993 RMK CDP03661 CLR=","","","","","","","","","",""
"00702699999","2016-06-29T11:14:00","0.0","0.0","7026.0","WXPOD 7026, AF","FM-15","4","29.93","72","72","","","","","100","","","","0.87","","000","","0","","","","","","","","","","","","","","","","","","","","","","","","","","","","","","","","","","","","","","","","","","","","","","","","","","","","","","","","","","","","","","","","","","","","","","","","","","","","","","","","","","","","","","","","","","","MET090MOBOB0 METAR 7026 //008 000000 290644Z AUTO 00000KT 1400 CLR 22/22 A2993 RMK CDP03661 CLR=","","","","","","","","","",""
"00702699999","2016-06-29T11:29:00","0.0","0.0","7026.0","WXPOD 7026, AF","FM-15","4","29.93","72","72","","","","","100","SCT:04 0","","","","","000","","0","","","","","","","","","","","","","","","","","","","","","","","","","","","","","","","","","","","","","","","","","","","","","","","","","","","","","","","","","","","","","","","","","","","","","","","","","","","","","","","","","","","","","","","","","","","MET108MOBOB0 METAR 7026 //008 000000 290659Z AUTO 00000KT //// SCT000 22/22 A2993 RMK CDP03661 SCT000 CLD AVG 000=","","","","","","","","","",""
"00702699999","2016-06-29T11:44:00","0.0","0.0","7026.0","WXPOD 7026, AF","FM-15","4","29.93","72","72","","","","","100","BKN:07 6","","","0.75","","000","","0","","","","","","","","","","","","","","","","","","","","","","","","","","","","","","","","","","","","","","","","","","","","","","","","","","","","","","","","","","","","","","","","","","","","","","","","","","","","","","","","","","","","","","","","","","","MET108MOBOB0 METAR 7026 //008 000000 290714Z AUTO 00000KT 1200 BKN006 22/22 A2993 RMK CDP03661 BKN006 CLD AVG 007=","","","","","","","","","",""
"00702699999","2016-06-29T11:59:00","0.0","0.0","7026.0","WXPOD 7026, AF","FM-15","4","29.93","72","72","","","","","100","","","","","","000","","0","","","","","","","","","","","","","","","","","","","","","","","","","","","","","","","","","","","","","","","","","","","","","","","","","","","","","","","","","","","","","","","","","","","","","","","","","","","","","","","","","","","","","","","","","","","MET090MOBOB0 METAR 7026 //008 000000 290729Z AUTO 00000KT //// CLR 22/22 A2993 RMK CDP03661 CLR=","","","","","","","","","",""
"00702699999","2016-06-29T12:14:00","0.0","0.0","7026.0","WXPOD 7026, AF","FM-15","4","29.93","72","72","","","","","100","SCT:04 3","","","1.24","","000","","0","","","","","","","","","","","","","","","","","","","","","","","","","","","","","","","","","","","","","","","","","","","","","","","","","","","","","","","","","","","","","","","","","","","","","","","","","","","","","","","","","","","","","","","","","","","MET108MOBOB0 METAR 7026 //008 000000 290744Z AUTO 00000KT 2000 SCT003 22/22 A2993 RMK CDP03661 SCT003 CLD AVG 004=","","","","","","","","","",""
"00702699999","2016-06-29T12:29:00","0.0","0.0","7026.0","WXPOD 7026, AF","FM-15","4","29.93","72","72","","","","","100","BKN:07 1","","","0.62","","000","","0","","","","","","","","","","","","","","","","","","","","","","","","","","","","","","","","","","","","","","","","","","","","","","","","","","","","","","","","","","","","","","","","","","","","","","","","","","","","","","","","","","","","","","","","","","","MET108MOBOB0 METAR 7026 //008 000000 290759Z AUTO 00000KT 1000 BKN001 22/22 A2993 RMK CDP03661 BKN001 CLD AVG 001=","","","","","","","","","",""
"00702699999","2016-06-29T12:44:00","0.0","0.0","7026.0","WXPOD 7026, AF","FM-15","4","29.93","72","73","","","","","94","OVC:08 0","","","0.19","","000","","0","","","","","","","","","","","","","","","","","","","","","","","","","","","","","","","","","","","","","","","","","","","","","","","","","","","","","","","","","","","","","","","","","","","","","","","","","","","","","","","","","","","","","","","","","","","MET108MOBOB0 METAR 7026 //008 000000 290814Z AUTO 00000KT 0300 OVC000 23/22 A2993 RMK CDP03661 OVC000 CLD AVG 000=","","","","","","","","","",""
"00702699999","2016-06-29T12:59:00","0.0","0.0","7026.0","WXPOD 7026, AF","FM-15","4","29.94","72","72","","","","","100","OVC:08 0","","","0.19","","000","","0","","","","","","","","","","","","","","","","","","","","","","","","","","","","","","","","","","","","","","","","","","","","","","","","","","","","","","","","","","","","","","","","","","","","","","","","","","","","","","","","","","","","","","","","","","","MET108MOBOB0 METAR 7026 //008 000000 290829Z AUTO 00000KT 0300 OVC000 22/22 A2994 RMK CDP03661 OVC000 CLD AVG 000=","","","","","","","","","",""
"00702699999","2016-06-29T13:14:00","0.0","0.0","7026.0","WXPOD 7026, AF","FM-15","4","29.94","72","72","","","","","100","OVC:08 0","","","","","000","","0","","","","","","","","","","","","","","","","","","","","","","","","","","","","","","","","","","","","","","","","","","","","","","","","","","","","","","","","","","","","","","","","","","","","","","","","","","","","","","","","","","","","","","","","","","","MET108MOBOB0 METAR 7026 //008 000000 290844Z AUTO 00000KT //// OVC000 22/22 A2994 RMK CDP03661 OVC000 CLD AVG 000=","","","","","","","","","",""
"00702699999","2016-06-29T13:29:00","0.0","0.0","7026.0","WXPOD 7026, AF","FM-15","4","29.93","72","72","","","","","100","OVC:08 0","","","0.12","","000","","0","","","","","","","","","","","","","","","","","","","","","","","","","","","","","","","","","","","","","","","","","","","","","","","","","","","","","","","","","","","","","","","","","","","","","","","","","","","","","","","","","","","","","","","","","","","MET108MOBOB0 METAR 7026 //008 000000 290859Z AUTO 00000KT 0200 OVC000 22/22 A2993 RMK CDP03661 OVC000 CLD AVG 000=","","","","","","","","","",""
"00702699999","2016-06-29T13:44:00","0.0","0.0","7026.0","WXPOD 7026, AF","FM-15","4","29.93","72","72","","","","","100","OVC:08 0","","","0.12","","000","","0","","","","","","","","","","","","","","","","","","","","","","","","","","","","","","","","","","","","","","","","","","","","","","","","","","","","","","","","","","","","","","","","","","","","","","","","","","","","","","","","","","","","","","","","","","","MET108MOBOB0 METAR 7026 //008 000000 290914Z AUTO 00000KT 0200 OVC000 22/22 A2993 RMK CDP03661 OVC000 CLD AVG 000=","","","","","","","","","",""
"00702699999","2016-06-29T13:59:00","0.0","0.0","7026.0","WXPOD 7026, AF","FM-15","4","29.93","72","72","","","","","100","OVC:08 0","","","","","000","","0","","","","","","","","","","","","","","","","","","","","","","","","","","","","","","","","","","","","","","","","","","","","","","","","","","","","","","","","","","","","","","","","","","","","","","","","","","","","","","","","","","","","","","","","","","","MET108MOBOB0 METAR 7026 //008 000000 290929Z AUTO 00000KT //// OVC000 22/22 A2993 RMK CDP03661 OVC000 CLD AVG 000=","","","","","","","","","",""
"00702699999","2016-06-29T14:14:00","0.0","0.0","7026.0","WXPOD 7026, AF","FM-15","4","29.94","72","72","","","","","100","OVC:08 0","","","0.19","","000","","0","","","","","","","","","","","","","","","","","","","","","","","","","","","","","","","","","","","","","","","","","","","","","","","","","","","","","","","","","","","","","","","","","","","","","","","","","","","","","","","","","","","","","","","","","","","MET108MOBOB0 METAR 7026 //008 000000 290944Z AUTO 00000KT 0300 OVC000 22/22 A2994 RMK CDP03661 OVC000 CLD AVG 000=","","","","","","","","","",""
"00702699999","2016-06-29T14:29:00","0.0","0.0","7026.0","WXPOD 7026, AF","FM-15","4","29.95","72","72","","","","","100","OVC:08 0","","","0.12","","000","","0","","","","","","","","","","","","","","","","","","","","","","","","","","","","","","","","","","","","","","","","","","","","","","","","","","","","","","","","","","","","","","","","","","","","","","","","","","","","","","","","","","","","","","","","","","","MET108MOBOB0 METAR 7026 //008 000000 290959Z AUTO 00000KT 0200 OVC000 22/22 A2995 RMK CDP03661 OVC000 CLD AVG 000=","","","","","","","","","",""
"00702699999","2016-06-29T14:44:00","0.0","0.0","7026.0","WXPOD 7026, AF","FM-15","4","29.95","72","72","","","","","100","OVC:08 0","","","0.06","","000","","0","","","","","","","","","","","","","","","","","","","","","","","","","","","","","","","","","","","","","","","","","","","","","","","","","","","","","","","","","","","","","","","","","","","","","","","","","","","","","","","","","","","","","","","","","","","MET108MOBOB0 METAR 7026 //008 000000 291014Z AUTO 00000KT 0100 OVC000 22/22 A2995 RMK CDP03661 OVC000 CLD AVG 000=","","","","","","","","","",""
"00702699999","2016-06-29T14:59:00","0.0","0.0","7026.0","WXPOD 7026, AF","FM-15","4","29.96","70","70","","","","","100","OVC:08 0","","","0.06","","000","","0","","","","","","","","","","","","","","","","","","","","","","","","","","","","","","","","","","","","","","","","","","","","","","","","","","","","","","","","","","","","","","","","","","","","","","","","","","","","","","","","","","","","","","","","","","","MET108MOBOB0 METAR 7026 //008 000000 291029Z AUTO 00000KT 0100 OVC000 21/21 A2996 RMK CDP03661 OVC000 CLD AVG 000=","","","","","","","","","",""
"00702699999","2016-06-29T15:14:00","0.0","0.0","7026.0","WXPOD 7026, AF","FM-15","4","29.97","70","70","","","","","100","OVC:08 0","","","0.12","","000","","0","","","","","","","","","","","","","","","","","","","","","","","","","","","","","","","","","","","","","","","","","","","","","","","","","","","","","","","","","","","","","","","","","","","","","","","","","","","","","","","","","","","","","","","","","","","MET108MOBOB0 METAR 7026 //008 000000 291044Z AUTO 00000KT 0200 OVC000 21/21 A2997 RMK CDP03661 OVC000 CLD AVG 000=","","","","","","","","","",""
"00702699999","2016-06-29T15:29:00","0.0","0.0","7026.0","WXPOD 7026, AF","FM-15","4","29.97","70","70","","","","","100","SCT:04 0","","","0.50","","000","","0","","","","","","","","","","","","","","","","","","","","","","","","","","","","","","","","","","","","","","","","","","","","","","","","","","","","","","","","","","","","","","","","","","","","","","","","","","","","","","","","","","","","","","","","","","","MET108MOBOB0 METAR 7026 //008 000000 291059Z AUTO 00000KT 0800 SCT000 21/21 A2997 RMK CDP03661 SCT000 CLD AVG 000=","","","","","","","","","",""
"00702699999","2016-06-29T15:44:00","0.0","0.0","7026.0","WXPOD 7026, AF","FM-15","4","29.97","72","72","","","","","100","BKN:07 0","","","","","000","","0","","","","","","","","","","","","","","","","","","","","","","","","","","","","","","","","","","","","","","","","","","","","","","","","","","","","","","","","","","","","","","","","","","","","","","","","","","","","","","","","","","","","","","","","","","","MET108MOBOB0 METAR 7026 //008 000000 291114Z AUTO 00000KT //// BKN000 22/22 A2997 RMK CDP03661 BKN000 CLD AVG 000=","","","","","","","","","",""
"00702699999","2016-06-29T15:59:00","0.0","0.0","7026.0","WXPOD 7026, AF","FM-15","4","29.97","72","72","","","","","100","","","","1.99","","000","","0","","","","","","","","","","","","","","","","","","","","","","","","","","","","","","","","","","","","","","","","","","","","","","","","","","","","","","","","","","","","","","","","","","","","","","","","","","","","","","","","","","","","","","","","","","","MET090MOBOB0 METAR 7026 //008 000000 291129Z AUTO 00000KT 3200 CLR 22/22 A2997 RMK CDP03661 CLR=","","","","","","","","","",""
"00702699999","2016-06-29T16:14:00","0.0","0.0","7026.0","WXPOD 7026, AF","FM-15","4","29.97","72","73","","","","","94","","","","3.73","","000","","0","","","","","","","","","","","","","","","","","","","","","","","","","","","","","","","","","","","","","","","","","","","","","","","","","","","","","","","","","","","","","","","","","","","","","","","","","","","","","","","","","","","","","","","","","","","MET090MOBOB0 METAR 7026 //008 000000 291144Z AUTO 00000KT 6000 CLR 23/22 A2997 RMK CDP03661 CLR=","","","","","","","","","",""
"00702699999","2016-06-29T16:29:00","0.0","0.0","7026.0","WXPOD 7026, AF","FM-15","4","29.97","72","73","","","","","94","","","","6.21","","000","","0","","","","","","","","","","","","","","","","","","","","","","","","","","","","","","","","","","","","","","","","","","","","","","","","","","","","","","","","","","","","","","","","","","","","","","","","","","","","","","","","","","","","","","","","","","","MET090MOBOB0 METAR 7026 //008 000000 291159Z AUTO 00000KT 9999 CLR 23/22 A2997 RMK CDP03661 CLR=","","","","","","","","","",""
"00702699999","2016-06-29T16:44:00","0.0","0.0","7026.0","WXPOD 7026, AF","FM-15","4","29.98","72","75","","","","","89","","","","6.21","","000","","0","","","","","","","","","","","","","","","","","","","","","","","","","","","","","","","","","","","","","","","","","","","","","","","","","","","","","","","","","","","","","","","","","","","","","","","","","","","","","","","","","","","","","","","","","","","MET090MOBOB0 METAR 7026 //008 000000 291214Z AUTO 00000KT 9999 CLR 24/22 A2998 RMK CDP03661 CLR=","","","","","","","","","",""
"00702699999","2016-06-29T16:59:00","0.0","0.0","7026.0","WXPOD 7026, AF","FM-15","4","29.98","72","77","","","","","83","","","","6.21","","000","","0","","","","","","","","","","","","","","","","","","","","","","","","","","","","","","","","","","","","","","","","","","","","","","","","","","","","","","","","","","","","","","","","","","","","","","","","","","","","","","","","","","","","","","","","","","","MET090MOBOB0 METAR 7026 //008 000000 291229Z AUTO 00000KT 9999 CLR 25/22 A2998 RMK CDP03661 CLR=","","","","","","","","","",""
"00702699999","2016-06-29T17:14:00","0.0","0.0","7026.0","WXPOD 7026, AF","FM-15","4","29.98","72","79","","","","","79","","","","6.21","","000","","0","","","","","","","","","","","","","","","","","","","","","","","","","","","","","","","","","","","","","","","","","","","","","","","","","","","","","","","","","","","","","","","","","","","","","","","","","","","","","","","","","","","","","","","","","","","MET090MOBOB0 METAR 7026 //008 000000 291244Z AUTO 00000KT 9999 CLR 26/22 A2998 RMK CDP03661 CLR=","","","","","","","","","",""
"00702699999","2016-06-29T17:29:00","0.0","0.0","7026.0","WXPOD 7026, AF","FM-15","4","29.99","72","79","","","","","79","","","","","","000","","0","","","","","","","","","","","","","","","","","","","","","","","","","","","","","","","","","","","","","","","","","","","","","","","","","","","","","","","","","","","","","","","","","","","","","","","","","","","","","","","","","","","","","","","","","","","MET090MOBOB0 METAR 7026 //008 000000 291259Z AUTO 00000KT //// CLR 26/22 A2999 RMK CDP03661 CLR=","","","","","","","","","",""
"00702699999","2016-06-29T17:44:00","0.0","0.0","7026.0","WXPOD 7026, AF","FM-15","4","29.98","72","81","","","","","74","","","","6.21","","000","","0","","","","","","","","","","","","","","","","","","","","","","","","","","","","","","","","","","","","","","","","","","","","","","","","","","","","","","","","","","","","","","","","","","","","","","","","","","","","","","","","","","","","","","","","","","","MET090MOBOB0 METAR 7026 //008 000000 291314Z AUTO 00000KT 9999 CLR 27/22 A2998 RMK CDP03661 CLR=","","","","","","","","","",""
"00702699999","2016-06-29T17:59:00","0.0","0.0","7026.0","WXPOD 7026, AF","FM-15","4","29.98","72","81","","","","","74","","","","6.21","","000","","0","","","","","","","","","","","","","","","","","","","","","","","","","","","","","","","","","","","","","","","","","","","","","","","","","","","","","","","","","","","","","","","","","","","","","","","","","","","","","","","","","","","","","","","","","","","MET090MOBOB0 METAR 7026 //008 000000 291329Z AUTO 00000KT 9999 CLR 27/22 A2998 RMK CDP03661 CLR=","","","","","","","","","",""
"00702699999","2016-06-29T18:14:00","0.0","0.0","7026.0","WXPOD 7026, AF","FM-15","4","29.98","72","82","","","","","70","","","","6.21","","000","","0","","","","","","","","","","","","","","","","","","","","","","","","","","","","","","","","","","","","","","","","","","","","","","","","","","","","","","","","","","","","","","","","","","","","","","","","","","","","","","","","","","","","","","","","","","","MET090MOBOB0 METAR 7026 //008 000000 291344Z AUTO 00000KT 9999 CLR 28/22 A2998 RMK CDP03661 CLR=","","","","","","","","","",""
"00702699999","2016-06-29T18:29:00","0.0","0.0","7026.0","WXPOD 7026, AF","FM-15","4","29.99","72","82","","","","","70","","","","6.21","","000","","0","","","","","","","","","","","","","","","","","","","","","","","","","","","","","","","","","","","","","","","","","","","","","","","","","","","","","","","","","","","","","","","","","","","","","","","","","","","","","","","","","","","","","","","","","","","MET090MOBOB0 METAR 7026 //008 000000 291359Z AUTO 00000KT 9999 CLR 28/22 A2999 RMK CDP03661 CLR=","","","","","","","","","",""
"00702699999","2016-06-29T18:44:00","0.0","0.0","7026.0","WXPOD 7026, AF","FM-15","4","29.98","73","82","","","","","74","","","","6.21","","000","","0","","","","","","","","","","","","","","","","","","","","","","","","","","","","","","","","","","","","","","","","","","","","","","","","","","","","","","","","","","","","","","","","","","","","","","","","","","","","","","","","","","","","","","","","","","","MET090MOBOB0 METAR 7026 //008 000000 291414Z AUTO 00000KT 9999 CLR 28/23 A2998 RMK CDP03661 CLR=","","","","","","","","","",""
"00702699999","2016-06-29T18:59:00","0.0","0.0","7026.0","WXPOD 7026, AF","FM-15","4","29.98","72","84","","","","","66","","","","","","000","","0","","","","","","","","","","","","","","","","","","","","","","","","","","","","","","","","","","","","","","","","","","","","","","","","","","","","","","","","","","","","","","","","","","","","","","","","","","","","","","","","","","","","","","","","","","","MET090MOBOB0 METAR 7026 //008 000000 291429Z AUTO 00000KT //// CLR 29/22 A2998 RMK CDP03661 CLR=","","","","","","","","","",""
"00702699999","2016-06-29T19:14:00","0.0","0.0","7026.0","WXPOD 7026, AF","FM-15","4","29.98","72","84","","","","","66","","","","6.21","","000","","0","","","","","","","","","","","","","","","","","","","","","","","","","","","","","","","","","","","","","","","","","","","","","","","","","","","","","","","","","","","","","","","","","","","","","","","","","","","","","","","","","","","","","","","","","","","MET090MOBOB0 METAR 7026 //008 000000 291444Z AUTO 00000KT 9999 CLR 29/22 A2998 RMK CDP03661 CLR=","","","","","","","","","",""
"00702699999","2016-06-29T19:29:00","0.0","0.0","7026.0","WXPOD 7026, AF","FM-15","4","29.98","72","86","","","","","62","","","","6.21","","000","","0","","","","","","","","","","","","","","","","","","","","","","","","","","","","","","","","","","","","","","","","","","","","","","","","","","","","","","","","","","","","","","","","","","","","","","","","","","","","","","","","","","","","","","","","","","","MET090MOBOB0 METAR 7026 //008 000000 291459Z AUTO 00000KT 9999 CLR 30/22 A2998 RMK CDP03661 CLR=","","","","","","","","","",""
