"STATION","DATE","LATITUDE","LONGITUDE","ELEVATION","NAME","REPORT_TYPE","SOURCE","HourlyAltimeterSetting","HourlyDewPointTemperature","HourlyDryBulbTemperature","HourlyPrecipitation","HourlyPresentWeatherType","HourlyPressureChange","HourlyPressureTendency","HourlyRelativeHumidity","HourlySkyConditions","HourlySeaLevelPressure","HourlyStationPressure","HourlyVisibility","HourlyWetBulbTemperature","HourlyWindDirection","HourlyWindGustSpeed","HourlyWindSpeed","Sunrise","Sunset","DailyAverageDewPointTemperature","DailyAverageDryBulbTemperature","DailyAverageRelativeHumidity","DailyAverageSeaLevelPressure","DailyAverageStationPressure","DailyAverageWetBulbTemperature","DailyAverageWindSpeed","DailyCoolingDegreeDays","DailyDepartureFromNormalAverageTemperature","DailyHeatingDegreeDays","DailyMaximumDryBulbTemperature","DailyMinimumDryBulbTemperature","DailyPeakWindDirection","DailyPeakWindSpeed","DailyPrecipitation","DailySnowDepth","DailySnowfall","DailySustainedWindDirection","DailySustainedWindSpeed","DailyWeather","MonthlyAverageRH","MonthlyDaysWithGT001Precip","MonthlyDaysWithGT010Precip","MonthlyDaysWithGT32Temp","MonthlyDaysWithGT90Temp","MonthlyDaysWithLT0Temp","MonthlyDaysWithLT32Temp","MonthlyDepartureFromNormalAverageTemperature","MonthlyDepartureFromNormalCoolingDegreeDays","MonthlyDepartureFromNormalHeatingDegreeDays","MonthlyDepartureFromNormalMaximumTemperature","MonthlyDepartureFromNormalMinimumTemperature","MonthlyDepartureFromNormalPrecipitation","MonthlyDewpointTemperature","MonthlyGreatestPrecip","MonthlyGreatestPrecipDate","MonthlyGreatestSnowDepth","MonthlyGreatestSnowDepthDate","MonthlyGreatestSnowfall","MonthlyGreatestSnowfallDate","MonthlyMaxSeaLevelPressureValue","MonthlyMaxSeaLevelPressureValueDate","MonthlyMaxSeaLevelPressureValueTime","MonthlyMaximumTemperature","MonthlyMeanTemperature","MonthlyMinSeaLevelPressureValue","MonthlyMinSeaLevelPressureValueDate","MonthlyMinSeaLevelPressureValueTime","MonthlyMinimumTemperature","MonthlySeaLevelPressure","MonthlyStationPressure","MonthlyTotalLiquidPrecipitation","MonthlyTotalSnowfall","MonthlyWetBulb","AWND","CDSD","CLDD","DSNW","HDSD","HTDD","DYTS","DYHF","NormalsCoolingDegreeDay","NormalsHeatingDegreeDay","ShortDurationEndDate005","ShortDurationEndDate010","ShortDurationEndDate015","ShortDurationEndDate020","ShortDurationEndDate030","ShortDurationEndDate045","ShortDurationEndDate060","ShortDurationEndDate080","ShortDurationEndDate100","ShortDurationEndDate120","ShortDurationEndDate150","ShortDurationEndDate180","ShortDurationPrecipitationValue005","ShortDurationPrecipitationValue010","ShortDurationPrecipitationValue015","ShortDurationPrecipitationValue020","ShortDurationPrecipitationValue030","ShortDurationPrecipitationValue045","ShortDurationPrecipitationValue060","ShortDurationPrecipitationValue080","ShortDurationPrecipitationValue100","ShortDurationPrecipitationValue120","ShortDurationPrecipitationValue150","ShortDurationPrecipitationValue180","REM","BackupDirection","BackupDistance","BackupDistanceUnit","BackupElements","BackupElevation","BackupEquipment","BackupLatitude","BackupLongitude","BackupName","WindEquipmentChangeDate"
"00707099999","2015-09-26T00:54:00","0.0","0.0","7070.0","WXPOD 7070, AF","FM-15","4","","39","84","","","","","20","","","","","","000","","0","","","","","","","","","","","","","","","","","","","","","","","","","","","","","","","","","","","","","","","","","","","","","","","","","","","","","","","","","","","","","","","","","","","","","","","","","","","","","","","","","","","","","","","","","","","MET069MOBOB0 METAR 7070 //008 000000 252024Z AUTO 00000KT //// 29/04 A2488=","","","","","","","","","",""
"00707099999","2015-09-26T01:00:00","0.0","0.0","7070.0","WXPOD 7070, AF","FM-15","4","","41","86","","","","","20","","","","","","VRB","","1","","","","","","","","","","","","","","","","","","","","","","","","","","","","","","","","","","","","","","","","","","","","","","","","","","","","","","","","","","","","","","","","","","","","","","","","","","","","","","","","","","","","","","","","","","","MET069MOBOB0 METAR 7070 //008 000000 252030Z AUTO VRB01KT //// 30/05 A2488=","","","","","","","","","",""
"00707099999","2015-09-26T01:05:00","0.0","0.0","7070.0","WXPOD 7070, AF","FM-15","4","","41","86","","","","","20","","","","","","000","","0","","","","","","","","","","","","","","","","","","","","","","","","","","","","","","","","","","","","","","","","","","","","","","","","","","","","","","","","","","","","","","","","","","","","","","","","","","","","","","","","","","","","","","","","","","","MET069MOBOB0 METAR 7070 //008 000000 252035Z AUTO 00000KT //// 30/05 A2488=","","","","","","","","","",""
"00707099999","2015-09-26T01:10:00","0.0","0.0","7070.0","WXPOD 7070, AF","FM-15","4","","43","90","","","","","20","","","","","","190","","1","","","","","","","","","","","","","","","","","","","","","","","","","","","","","","","","","","","","","","","","","","","","","","","","","","","","","","","","","","","","","","","","","","","","","","","","","","","","","","","","","","","","","","","","","","","MET069MOBOB0 METAR 7070 //008 000000 252040Z AUTO 19001KT //// 32/06 A2488=","","","","","","","","","",""
"00707099999","2015-09-26T01:15:00","0.0","0.0","7070.0","WXPOD 7070, AF","FM-15","4","","43","90","","","","","20","","","","","","000","","0","","","","","","","","","","","","","","","","","","","","","","","","","","","","","","","","","","","","","","","","","","","","","","","","","","","","","","","","","","","","","","","","","","","","","","","","","","","","","","","","","","","","","","","","","","","MET069MOBOB0 METAR 7070 //008 000000 252045Z AUTO 00000KT //// 32/06 A2488=","","","","","","","","","",""
"00707099999","2015-09-26T01:20:00","0.0","0.0","7070.0","WXPOD 7070, AF","FM-15","4","","41","90","","","","","18","","","","","","000","","0","","","","","","","","","","","","","","","","","","","","","","","","","","","","","","","","","","","","","","","","","","","","","","","","","","","","","","","","","","","","","","","","","","","","","","","","","","","","","","","","","","","","","","","","","","","MET069MOBOB0 METAR 7070 //008 000000 252050Z AUTO 00000KT //// 32/05 A2488=","","","","","","","","","",""
"00707099999","2015-09-26T01:25:00","0.0","0.0","7070.0","WXPOD 7070, AF","FM-15","4","","41","88","","","","","19","","","","","","000","","0","","","","","","","","","","","","","","","","","","","","","","","","","","","","","","","","","","","","","","","","","","","","","","","","","","","","","","","","","","","","","","","","","","","","","","","","","","","","","","","","","","","","","","","","","","","MET069MOBOB0 METAR 7070 //008 000000 252055Z AUTO 00000KT //// 31/05 A2487=","","","","","","","","","",""
"00707099999","2015-09-26T01:30:00","0.0","0.0","7070.0","WXPOD 7070, AF","FM-15","4","","41","88","","","","","19","","","","","","000","","0","","","","","","","","","","","","","","","","","","","","","","","","","","","","","","","","","","","","","","","","","","","","","","","","","","","","","","","","","","","","","","","","","","","","","","","","","","","","","","","","","","","","","","","","","","","MET069MOBOB0 METAR 7070 //008 000000 252100Z AUTO 00000KT //// 31/05 A2487=","","","","","","","","","",""
"00707099999","2015-09-26T01:35:00","0.0","0.0","7070.0","WXPOD 7070, AF","FM-15","4","","39","88","","","","","18","","","","","","200","","1","","","","","","","","","","","","","","","","","","","","","","","","","","","","","","","","","","","","","","","","","","","","","","","","","","","","","","","","","","","","","","","","","","","","","","","","","","","","","","","","","","","","","","","","","","","MET069MOBOB0 METAR 7070 //008 000000 252105Z AUTO 20001KT //// 31/04 A2487=","","","","","","","","","",""
"00707099999","2015-09-26T01:40:00","0.0","0.0","7070.0","WXPOD 7070, AF","FM-15","4","","41","90","","","","","18","","","","","","190","","1","","","","","","","","","","","","","","","","","","","","","","","","","","","","","","","","","","","","","","","","","","","","","","","","","","","","","","","","","","","","","","","","","","","","","","","","","","","","","","","","","","","","","","","","","","","MET069MOBOB0 METAR 7070 //008 000000 252110Z AUTO 19001KT //// 32/05 A2487=","","","","","","","","","",""
"00707099999","2015-09-26T01:45:00","0.0","0.0","7070.0","WXPOD 7070, AF","FM-15","4","","39","90","","","","","17","","","","","","200","","1","","","","","","","","","","","","","","","","","","","","","","","","","","","","","","","","","","","","","","","","","","","","","","","","","","","","","","","","","","","","","","","","","","","","","","","","","","","","","","","","","","","","","","","","","","","MET069MOBOB0 METAR 7070 //008 000000 252115Z AUTO 20001KT //// 32/04 A2487=","","","","","","","","","",""
"00707099999","2015-09-26T01:50:00","0.0","0.0","7070.0","WXPOD 7070, AF","FM-15","4","","41","90","","","","","18","","","","","","190","","1","","","","","","","","","","","","","","","","","","","","","","","","","","","","","","","","","","","","","","","","","","","","","","","","","","","","","","","","","","","","","","","","","","","","","","","","","","","","","","","","","","","","","","","","","","","MET069MOBOB0 METAR 7070 //008 000000 252120Z AUTO 19001KT //// 32/05 A2487=","","","","","","","","","",""
"00707099999","2015-09-26T02:08:00","0.0","0.0","7070.0","WXPOD 7070, AF","FM-15","4","","41","90","","","","","18","","","","","","000","","0","","","","","","","","","","","","","","","","","","","","","","","","","","","","","","","","","","","","","","","","","","","","","","","","","","","","","","","","","","","","","","","","","","","","","","","","","","","","","","","","","","","","","","","","","","","MET069MOBOB0 METAR 7070 //008 000000 252138Z AUTO 00000KT //// 32/05 A2487=","","","","","","","","","",""
"00707099999","2015-09-26T02:14:00","0.0","0.0","7070.0","WXPOD 7070, AF","FM-15","4","","41","91","","","","","17","","","","","","000","","0","","","","","","","","","","","","","","","","","","","","","","","","","","","","","","","","","","","","","","","","","","","","","","","","","","","","","","","","","","","","","","","","","","","","","","","","","","","","","","","","","","","","","","","","","","","MET069MOBOB0 METAR 7070 //008 000000 252144Z AUTO 00000KT //// 33/05 A2486=","","","","","","","","","",""
"00707099999","2015-09-26T02:19:00","0.0","0.0","7070.0","WXPOD 7070, AF","FM-15","4","","43","90","","","","","20","","","","","","000","","0","","","","","","","","","","","","","","","","","","","","","","","","","","","","","","","","","","","","","","","","","","","","","","","","","","","","","","","","","","","","","","","","","","","","","","","","","","","","","","","","","","","","","","","","","","","MET069MOBOB0 METAR 7070 //008 000000 252149Z AUTO 00000KT //// 32/06 A2486=","","","","","","","","","",""
"00707099999","2015-09-26T02:25:00","0.0","0.0","7070.0","WXPOD 7070, AF","FM-15","4","","43","91","","","","","18","","","","","","000","","0","","","","","","","","","","","","","","","","","","","","","","","","","","","","","","","","","","","","","","","","","","","","","","","","","","","","","","","","","","","","","","","","","","","","","","","","","","","","","","","","","","","","","","","","","","","MET069MOBOB0 METAR 7070 //008 000000 252155Z AUTO 00000KT //// 33/06 A2486=","","","","","","","","","",""
"00707099999","2015-09-26T02:30:00","0.0","0.0","7070.0","WXPOD 7070, AF","FM-15","4","","41","91","","","","","17","","","","","","190","","1","","","","","","","","","","","","","","","","","","","","","","","","","","","","","","","","","","","","","","","","","","","","","","","","","","","","","","","","","","","","","","","","","","","","","","","","","","","","","","","","","","","","","","","","","","","MET069MOBOB0 METAR 7070 //008 000000 252200Z AUTO 19001KT //// 33/05 A2486=","","","","","","","","","",""
"00707099999","2015-09-26T02:35:00","0.0","0.0","7070.0","WXPOD 7070, AF","FM-15","4","","41","91","","","","","17","","","","","","000","","0","","","","","","","","","","","","","","","","","","","","","","","","","","","","","","","","","","","","","","","","","","","","","","","","","","","","","","","","","","","","","","","","","","","","","","","","","","","","","","","","","","","","","","","","","","","MET069MOBOB0 METAR 7070 //008 000000 252205Z AUTO 00000KT //// 33/05 A2486=","","","","","","","","","",""
"00707099999","2015-09-26T02:40:00","0.0","0.0","7070.0","WXPOD 7070, AF","FM-15","4","","43","93","","","","","17","","","","","","000","","0","","","","","","","","","","","","","","","","","","","","","","","","","","","","","","","","","","","","","","","","","","","","","","","","","","","","","","","","","","","","","","","","","","","","","","","","","","","","","","","","","","","","","","","","","","","MET069MOBOB0 METAR 7070 //008 000000 252210Z AUTO 00000KT //// 34/06 A2486=","","","","","","","","","",""
"00707099999","2015-09-26T02:45:00","0.0","0.0","7070.0","WXPOD 7070, AF","FM-15","4","","41","91","","","","","17","","","","","","000","","0","","","","","","","","","","","","","","","","","","","","","","","","","","","","","","","","","","","","","","","","","","","","","","","","","","","","","","","","","","","","","","","","","","","","","","","","","","","","","","","","","","","","","","","","","","","MET069MOBOB0 METAR 7070 //008 000000 252215Z AUTO 00000KT //// 33/05 A2485=","","","","","","","","","",""
"00707099999","2015-09-26T02:50:00","0.0","0.0","7070.0","WXPOD 7070, AF","FM-15","4","","39","91","","","","","16","","","","","","100","","1","","","","","","","","","","","","","","","","","","","","","","","","","","","","","","","","","","","","","","","","","","","","","","","","","","","","","","","","","","","","","","","","","","","","","","","","","","","","","","","","","","","","","","","","","","","MET069MOBOB0 METAR 7070 //008 000000 252220Z AUTO 10001KT //// 33/04 A2485=","","","","","","","","","",""
"00707099999","2015-09-26T02:55:00","0.0","0.0","7070.0","WXPOD 7070, AF","FM-15","4","","41","91","","","","","17","","","","","","180","","1","","","","","","","","","","","","","","","","","","","","","","","","","","","","","","","","","","","","","","","","","","","","","","","","","","","","","","","","","","","","","","","","","","","","","","","","","","","","","","","","","","","","","","","","","","","MET069MOBOB0 METAR 7070 //008 000000 252225Z AUTO 18001KT //// 33/05 A2485=","","","","","","","","","",""
"00707099999","2015-09-26T03:00:00","0.0","0.0","7070.0","WXPOD 7070, AF","FM-15","4","","41","90","","","","","18","","","","","","000","","0","","","","","","","","","","","","","","","","","","","","","","","","","","","","","","","","","","","","","","","","","","","","","","","","","","","","","","","","","","","","","","","","","","","","","","","","","","","","","","","","","","","","","","","","","","","MET069MOBOB0 METAR 7070 //008 000000 252230Z AUTO 00000KT //// 32/05 A2485=","","","","","","","","","",""
"00707099999","2015-09-26T03:05:00","0.0","0.0","7070.0","WXPOD 7070, AF","FM-15","4","","43","91","","","","","18","","","","","","000","","0","","","","","","","","","","","","","","","","","","","","","","","","","","","","","","","","","","","","","","","","","","","","","","","","","","","","","","","","","","","","","","","","","","","","","","","","","","","","","","","","","","","","","","","","","","","MET069MOBOB0 METAR 7070 //008 000000 252235Z AUTO 00000KT //// 33/06 A2485=","","","","","","","","","",""
"00707099999","2015-09-26T03:10:00","0.0","0.0","7070.0","WXPOD 7070, AF","FM-15","4","","41","90","","","","","18","","","","","","000","","0","","","","","","","","","","","","","","","","","","","","","","","","","","","","","","","","","","","","","","","","","","","","","","","","","","","","","","","","","","","","","","","","","","","","","","","","","","","","","","","","","","","","","","","","","","","MET069MOBOB0 METAR 7070 //008 000000 252240Z AUTO 00000KT //// 32/05 A2485=","","","","","","","","","",""
"00707099999","2015-09-26T03:15:00","0.0","0.0","7070.0","WXPOD 7070, AF","FM-15","4","","41","90","","","","","18","","","","","","000","","0","","","","","","","","","","","","","","","","","","","","","","","","","","","","","","","","","","","","","","","","","","","","","","","","","","","","","","","","","","","","","","","","","","","","","","","","","","","","","","","","","","","","","","","","","","","MET069MOBOB0 METAR 7070 //008 000000 252245Z AUTO 00000KT //// 32/05 A2485=","","","","","","","","","",""
"00707099999","2015-09-26T03:20:00","0.0","0.0","7070.0","WXPOD 7070, AF","FM-15","4","","41","90","","","","","18","","","","","","000","","0","","","","","","","","","","","","","","","","","","","","","","","","","","","","","","","","","","","","","","","","","","","","","","","","","","","","","","","","","","","","","","","","","","","","","","","","","","","","","","","","","","","","","","","","","","","MET069MOBOB0 METAR 7070 //008 000000 252250Z AUTO 00000KT //// 32/05 A2485=","","","","","","","","","",""
"00707099999","2015-09-26T03:26:00","0.0","0.0","7070.0","WXPOD 7070, AF","FM-15","4","","39","91","","","","","16","","","","","","000","","0","","","","","","","","","","","","","","","","","","","","","","","","","","","","","","","","","","","","","","","","","","","","","","","","","","","","","","","","","","","","","","","","","","","","","","","","","","","","","","","","","","","","","","","","","","","MET069MOBOB0 METAR 7070 //008 000000 252256Z AUTO 00000KT //// 33/04 A2485=","","","","","","","","","",""
"00707099999","2015-09-26T03:34:00","0.0","0.0","7070.0","WXPOD 7070, AF","FM-15","4","","39","90","","","","","17","","","","","","000","","0","","","","","","","","","","","","","","","","","","","","","","","","","","","","","","","","","","","","","","","","","","","","","","","","","","","","","","","","","","","","","","","","","","","","","","","","","","","","","","","","","","","","","","","","","","","MET069MOBOB0 METAR 7070 //008 000000 252304Z AUTO 00000KT //// 32/04 A2485=","","","","","","","","","",""
"00707099999","2015-09-26T03:39:00","0.0","0.0","7070.0","WXPOD 7070, AF","FM-15","4","","39","90","","","","","17","","","","","","000","","0","","","","","","","","","","","","","","","","","","","","","","","","","","","","","","","","","","","","","","","","","","","","","","","","","","","","","","","","","","","","","","","","","","","","","","","","","","","","","","","","","","","","","","","","","","","MET069MOBOB0 METAR 7070 //008 000000 252309Z AUTO 00000KT //// 32/04 A2485=","","","","","","","","","",""
"00707099999","2015-09-26T03:45:00","0.0","0.0","7070.0","WXPOD 7070, AF","FM-15","4","","39","90","","","","","17","","","","","","000","","0","","","","","","","","","","","","","","","","","","","","","","","","","","","","","","","","","","","","","","","","","","","","","","","","","","","","","","","","","","","","","","","","","","","","","","","","","","","","","","","","","","","","","","","","","","","MET069MOBOB0 METAR 7070 //008 000000 252315Z AUTO 00000KT //// 32/04 A2485=","","","","","","","","","",""
"00707099999","2015-09-26T03:50:00","0.0","0.0","7070.0","WXPOD 7070, AF","FM-15","4","","39","90","","","","","17","","","","","","000","","0","","","","","","","","","","","","","","","","","","","","","","","","","","","","","","","","","","","","","","","","","","","","","","","","","","","","","","","","","","","","","","","","","","","","","","","","","","","","","","","","","","","","","","","","","","","MET069MOBOB0 METAR 7070 //008 000000 252320Z AUTO 00000KT //// 32/04 A2485=","","","","","","","","","",""
"00707099999","2015-09-26T03:55:00","0.0","0.0","7070.0","WXPOD 7070, AF","FM-15","4","","39","90","","","","","17","","","","","","000","","0","","","","","","","","","","","","","","","","","","","","","","","","","","","","","","","","","","","","","","","","","","","","","","","","","","","","","","","","","","","","","","","","","","","","","","","","","","","","","","","","","","","","","","","","","","","MET069MOBOB0 METAR 7070 //008 000000 252325Z AUTO 00000KT //// 32/04 A2485=","","","","","","","","","",""
"00707099999","2015-09-26T04:00:00","0.0","0.0","7070.0","WXPOD 7070, AF","FM-15","4","","39","90","","","","","17","","","","","","000","","0","","","","","","","","","","","","","","","","","","","","","","","","","","","","","","","","","","","","","","","","","","","","","","","","","","","","","","","","","","","","","","","","","","","","","","","","","","","","","","","","","","","","","","","","","","","MET069MOBOB0 METAR 7070 //008 000000 252330Z AUTO 00000KT //// 32/04 A2485=","","","","","","","","","",""
"00707099999","2015-09-26T04:05:00","0.0","0.0","7070.0","WXPOD 7070, AF","FM-15","4","","41","90","","","","","18","","","","","","000","","0","","","","","","","","","","","","","","","","","","","","","","","","","","","","","","","","","","","","","","","","","","","","","","","","","","","","","","","","","","","","","","","","","","","","","","","","","","","","","","","","","","","","","","","","","","","MET069MOBOB0 METAR 7070 //008 000000 252335Z AUTO 00000KT //// 32/05 A2486=","","","","","","","","","",""
"00707099999","2015-09-26T04:10:00","0.0","0.0","7070.0","WXPOD 7070, AF","FM-15","4","","41","88","","","","","19","","","","","","000","","0","","","","","","","","","","","","","","","","","","","","","","","","","","","","","","","","","","","","","","","","","","","","","","","","","","","","","","","","","","","","","","","","","","","","","","","","","","","","","","","","","","","","","","","","","","","MET069MOBOB0 METAR 7070 //008 000000 252340Z AUTO 00000KT //// 31/05 A2486=","","","","","","","","","",""
"00707099999","2015-09-26T04:15:00","0.0","0.0","7070.0","WXPOD 7070, AF","FM-15","4","","41","86","","","","","20","","","","","","000","","0","","","","","","","","","","","","","","","","","","","","","","","","","","","","","","","","","","","","","","","","","","","","","","","","","","","","","","","","","","","","","","","","","","","","","","","","","","","","","","","","","","","","","","","","","","","MET069MOBOB0 METAR 7070 //008 000000 252345Z AUTO 00000KT //// 30/05 A2486=","","","","","","","","","",""
"00707099999","2015-09-26T04:20:00","0.0","0.0","7070.0","WXPOD 7070, AF","FM-15","4","","41","86","","","","","20","","","","","","000","","0","","","","","","","","","","","","","","","","","","","","","","","","","","","","","","","","","","","","","","","","","","","","","","","","","","","","","","","","","","","","","","","","","","","","","","","","","","","","","","","","","","","","","","","","","","","MET069MOBOB0 METAR 7070 //008 000000 252350Z AUTO 00000KT //// 30/05 A2486=","","","","","","","","","",""
"00707099999","2015-09-26T04:25:00","0.0","0.0","7070.0","WXPOD 7070, AF","FM-15","4","","41","84","","","","","22","","","","","","000","","0","","","","","","","","","","","","","","","","","","","","","","","","","","","","","","","","","","","","","","","","","","","","","","","","","","","","","","","","","","","","","","","","","","","","","","","","","","","","","","","","","","","","","","","","","","","MET069MOBOB0 METAR 7070 //008 000000 252355Z AUTO 00000KT //// 29/05 A2486=","","","","","","","","","",""
"00707099999","2015-09-26T04:30:00","0.0","0.0","7070.0","WXPOD 7070, AF","FM-15","4","","41","86","","","","","20","","","","","","000","","0","","","","","","","","","","","","","","","","","","","","","","","","","","","","","","","","","","","","","","","","","","","","","","","","","","","","","","","","","","","","","","","","","","","","","","","","","","","","","","","","","","","","","","","","","","","MET069MOBOB0 METAR 7070 //008 000000 260000Z AUTO 00000KT //// 30/05 A2486=","","","","","","","","","",""
"00707099999","2015-09-26T04:35:00","0.0","0.0","7070.0","WXPOD 7070, AF","FM-15","4","","43","82","","","","","25","","","","","","110","","1","","","","","","","","","","","","","","","","","","","","","","","","","","","","","","","","","","","","","","","","","","","","","","","","","","","","","","","","","","","","","","","","","","","","","","","","","","","","","","","","","","","","","","","","","","","MET069MOBOB0 METAR 7070 //008 000000 260005Z AUTO 11001KT //// 28/06 A2486=","","","","","","","","","",""
"00707099999","2015-09-26T04:40:00","0.0","0.0","7070.0","WXPOD 7070, AF","FM-15","4","","43","81","","","","","26","","","","","","000","","0","","","","","","","","","","","","","","","","","","","","","","","","","","","","","","","","","","","","","","","","","","","","","","","","","","","","","","","","","","","","","","","","","","","","","","","","","","","","","","","","","","","","","","","","","","","MET069MOBOB0 METAR 7070 //008 000000 260010Z AUTO 00000KT //// 27/06 A2486=","","","","","","","","","",""
"00707099999","2015-09-26T04:45:00","0.0","0.0","7070.0","WXPOD 7070, AF","FM-15","4","","45","81","","","","","28","","","","","","000","","0","","","","","","","","","","","","","","","","","","","","","","","","","","","","","","","","","","","","","","","","","","","","","","","","","","","","","","","","","","","","","","","","","","","","","","","","","","","","","","","","","","","","","","","","","","","MET069MOBOB0 METAR 7070 //008 000000 260015Z AUTO 00000KT //// 27/07 A2486=","","","","","","","","","",""
"00707099999","2015-09-26T04:50:00","0.0","0.0","7070.0","WXPOD 7070, AF","FM-15","4","","43","79","","","","","28","","","","","","000","","0","","","","","","","","","","","","","","","","","","","","","","","","","","","","","","","","","","","","","","","","","","","","","","","","","","","","","","","","","","","","","","","","","","","","","","","","","","","","","","","","","","","","","","","","","","","MET069MOBOB0 METAR 7070 //008 000000 260020Z AUTO 00000KT //// 26/06 A2486=","","","","","","","","","",""
"00707099999","2015-09-26T04:55:00","0.0","0.0","7070.0","WXPOD 7070, AF","FM-15","4","","43","79","","","","","28","","","","","","000","","0","","","","","","","","","","","","","","","","","","","","","","","","","","","","","","","","","","","","","","","","","","","","","","","","","","","","","","","","","","","","","","","","","","","","","","","","","","","","","","","","","","","","","","","","","","","MET069MOBOB0 METAR 7070 //008 000000 260025Z AUTO 00000KT //// 26/06 A2486=","","","","","","","","","",""
"00707099999","2015-09-26T05:00:00","0.0","0.0","7070.0","WXPOD 7070, AF","FM-15","4","","43","79","","","","","28","","","","","","000","","0","","","","","","","","","","","","","","","","","","","","","","","","","","","","","","","","","","","","","","","","","","","","","","","","","","","","","","","","","","","","","","","","","","","","","","","","","","","","","","","","","","","","","","","","","","","MET069MOBOB0 METAR 7070 //008 000000 260030Z AUTO 00000KT //// 26/06 A2486=","","","","","","","","","",""
"00707099999","2015-09-26T05:05:00","0.0","0.0","7070.0","WXPOD 7070, AF","FM-15","4","","43","77","","","","","30","","","","","","000","","0","","","","","","","","","","","","","","","","","","","","","","","","","","","","","","","","","","","","","","","","","","","","","","","","","","","","","","","","","","","","","","","","","","","","","","","","","","","","","","","","","","","","","","","","","","","MET069MOBOB0 METAR 7070 //008 000000 260035Z AUTO 00000KT //// 25/06 A2486=","","","","","","","","","",""
"00707099999","2015-09-26T05:10:00","0.0","0.0","7070.0","WXPOD 7070, AF","FM-15","4","","43","77","","","","","30","","","","","","000","","0","","","","","","","","","","","","","","","","","","","","","","","","","","","","","","","","","","","","","","","","","","","","","","","","","","","","","","","","","","","","","","","","","","","","","","","","","","","","","","","","","","","","","","","","","","","MET069MOBOB0 METAR 7070 //008 000000 260040Z AUTO 00000KT //// 25/06 A2486=","","","","","","","","","",""
"00707099999","2015-09-26T05:15:00","0.0","0.0","7070.0","WXPOD 7070, AF","FM-15","4","","43","75","","","","","31","","","","","","000","","0","","","","","","","","","","","","","","","","","","","","","","","","","","","","","","","","","","","","","","","","","","","","","","","","","","","","","","","","","","","","","","","","","","","","","","","","","","","","","","","","","","","","","","","","","","","MET069MOBOB0 METAR 7070 //008 000000 260045Z AUTO 00000KT //// 24/06 A2486=","","","","","","","","","",""
"00707099999","2015-09-26T05:20:00","0.0","0.0","7070.0","WXPOD 7070, AF","FM-15","4","","41","75","","","","","29","","","","","","000","","0","","","","","","","","","","","","","","","","","","","","","","","","","","","","","","","","","","","","","","","","","","","","","","","","","","","","","","","","","","","","","","","","","","","","","","","","","","","","","","","","","","","","","","","","","","","MET069MOBOB0 METAR 7070 //008 000000 260050Z AUTO 00000KT //// 24/05 A2487=","","","","","","","","","",""
"00707099999","2015-09-26T05:25:00","0.0","0.0","7070.0","WXPOD 7070, AF","FM-15","4","","43","75","","","","","31","","","","","","000","","0","","","","","","","","","","","","","","","","","","","","","","","","","","","","","","","","","","","","","","","","","","","","","","","","","","","","","","","","","","","","","","","","","","","","","","","","","","","","","","","","","","","","","","","","","","","MET069MOBOB0 METAR 7070 //008 000000 260055Z AUTO 00000KT //// 24/06 A2487=","","","","","","","","","",""
"00707099999","2015-09-26T05:30:00","0.0","0.0","7070.0","WXPOD 7070, AF","FM-15","4","","43","73","","","","","33","","","","","","000","","0","","","","","","","","","","","","","","","","","","","","","","","","","","","","","","","","","","","","","","","","","","","","","","","","","","","","","","","","","","","","","","","","","","","","","","","","","","","","","","","","","","","","","","","","","","","MET069MOBOB0 METAR 7070 //008 000000 260100Z AUTO 00000KT //// 23/06 A2486=","","","","","","","","","",""
"00707099999","2015-09-26T05:35:00","0.0","0.0","7070.0","WXPOD 7070, AF","FM-15","4","","41","73","","","","","31","","","","","","000","","0","","","","","","","","","","","","","","","","","","","","","","","","","","","","","","","","","","","","","","","","","","","","","","","","","","","","","","","","","","","","","","","","","","","","","","","","","","","","","","","","","","","","","","","","","","","MET069MOBOB0 METAR 7070 //008 000000 260105Z AUTO 00000KT //// 23/05 A2487=","","","","","","","","","",""
"00707099999","2015-09-26T05:40:00","0.0","0.0","7070.0","WXPOD 7070, AF","FM-15","4","","41","73","","","","","31","","","","","","000","","0","","","","","","","","","","","","","","","","","","","","","","","","","","","","","","","","","","","","","","","","","","","","","","","","","","","","","","","","","","","","","","","","","","","","","","","","","","","","","","","","","","","","","","","","","","","MET069MOBOB0 METAR 7070 //008 000000 260110Z AUTO 00000KT //// 23/05 A2487=","","","","","","","","","",""
"00707099999","2015-09-26T05:45:00","0.0","0.0","7070.0","WXPOD 7070, AF","FM-15","4","","41","73","","","","","31","","","","","","000","","0","","","","","","","","","","","","","","","","","","","","","","","","","","","","","","","","","","","","","","","","","","","","","","","","","","","","","","","","","","","","","","","","","","","","","","","","","","","","","","","","","","","","","","","","","","","MET069MOBOB0 METAR 7070 //008 000000 260115Z AUTO 00000KT //// 23/05 A2487=","","","","","","","","","",""
"00707099999","2015-09-26T05:50:00","0.0","0.0","7070.0","WXPOD 7070, AF","FM-15","4","","43","73","","","","","33","","","","","","000","","0","","","","","","","","","","","","","","","","","","","","","","","","","","","","","","","","","","","","","","","","","","","","","","","","","","","","","","","","","","","","","","","","","","","","","","","","","","","","","","","","","","","","","","","","","","","MET069MOBOB0 METAR 7070 //008 000000 260120Z AUTO 00000KT //// 23/06 A2487=","","","","","","","","","",""
"00707099999","2015-09-26T05:55:00","0.0","0.0","7070.0","WXPOD 7070, AF","FM-15","4","","43","72","","","","","36","","","","","","000","","0","","","","","","","","","","","","","","","","","","","","","","","","","","","","","","","","","","","","","","","","","","","","","","","","","","","","","","","","","","","","","","","","","","","","","","","","","","","","","","","","","","","","","","","","","","","MET069MOBOB0 METAR 7070 //008 000000 260125Z AUTO 00000KT //// 22/06 A2487=","","","","","","","","","",""
"00707099999","2015-09-26T06:00:00","0.0","0.0","7070.0","WXPOD 7070, AF","FM-15","4","","45","72","","","","","38","","","","","","000","","0","","","","","","","","","","","","","","","","","","","","","","","","","","","","","","","","","","","","","","","","","","","","","","","","","","","","","","","","","","","","","","","","","","","","","","","","","","","","","","","","","","","","","","","","","","","MET069MOBOB0 METAR 7070 //008 000000 260130Z AUTO 00000KT //// 22/07 A2487=","","","","","","","","","",""
"00707099999","2015-09-26T06:05:00","0.0","0.0","7070.0","WXPOD 7070, AF","FM-15","4","","43","70","","","","","38","","","","","","000","","0","","","","","","","","","","","","","","","","","","","","","","","","","","","","","","","","","","","","","","","","","","","","","","","","","","","","","","","","","","","","","","","","","","","","","","","","","","","","","","","","","","","","","","","","","","","MET069MOBOB0 METAR 7070 //008 000000 260135Z AUTO 00000KT //// 21/06 A2487=","","","","","","","","","",""
"00707099999","2015-09-26T06:10:00","0.0","0.0","7070.0","WXPOD 7070, AF","FM-15","4","","43","70","","","","","38","","","","","","000","","0","","","","","","","","","","","","","","","","","","","","","","","","","","","","","","","","","","","","","","","","","","","","","","","","","","","","","","","","","","","","","","","","","","","","","","","","","","","","","","","","","","","","","","","","","","","MET069MOBOB0 METAR 7070 //008 000000 260140Z AUTO 00000KT //// 21/06 A2487=","","","","","","","","","",""
"00707099999","2015-09-26T06:15:00","0.0","0.0","7070.0","WXPOD 7070, AF","FM-15","4","","43","70","","","","","38","","","","","","000","","0","","","","","","","","","","","","","","","","","","","","","","","","","","","","","","","","","","","","","","","","","","","","","","","","","","","","","","","","","","","","","","","","","","","","","","","","","","","","","","","","","","","","","","","","","","","MET069MOBOB0 METAR 7070 //008 000000 260145Z AUTO 00000KT //// 21/06 A2488=","","","","","","","","","",""
"00707099999","2015-09-26T06:20:00","0.0","0.0","7070.0","WXPOD 7070, AF","FM-15","4","","43","70","","","","","38","","","","","","000","","0","","","","","","","","","","","","","","","","","","","","","","","","","","","","","","","","","","","","","","","","","","","","","","","","","","","","","","","","","","","","","","","","","","","","","","","","","","","","","","","","","","","","","","","","","","","MET069MOBOB0 METAR 7070 //008 000000 260150Z AUTO 00000KT //// 21/06 A2488=","","","","","","","","","",""
"00707099999","2015-09-26T06:25:00","0.0","0.0","7070.0","WXPOD 7070, AF","FM-15","4","","43","70","","","","","38","","","","","","000","","0","","","","","","","","","","","","","","","","","","","","","","","","","","","","","","","","","","","","","","","","","","","","","","","","","","","","","","","","","","","","","","","","","","","","","","","","","","","","","","","","","","","","","","","","","","","MET069MOBOB0 METAR 7070 //008 000000 260155Z AUTO 00000KT //// 21/06 A2488=","","","","","","","","","",""
"00707099999","2015-09-26T06:30:00","0.0","0.0","7070.0","WXPOD 7070, AF","FM-15","4","","41","70","","","","","35","","","","","","000","","0","","","","","","","","","","","","","","","","","","","","","","","","","","","","","","","","","","","","","","","","","","","","","","","","","","","","","","","","","","","","","","","","","","","","","","","","","","","","","","","","","","","","","","","","","","","MET069MOBOB0 METAR 7070 //008 000000 260200Z AUTO 00000KT //// 21/05 A2488=","","","","","","","","","",""
"00707099999","2015-09-26T06:35:00","0.0","0.0","7070.0","WXPOD 7070, AF","FM-15","4","","41","70","","","","","35","","","","","","000","","0","","","","","","","","","","","","","","","","","","","","","","","","","","","","","","","","","","","","","","","","","","","","","","","","","","","","","","","","","","","","","","","","","","","","","","","","","","","","","","","","","","","","","","","","","","","MET069MOBOB0 METAR 7070 //008 000000 260205Z AUTO 00000KT //// 21/05 A2488=","","","","","","","","","",""
"00707099999","2015-09-26T06:40:00","0.0","0.0","7070.0","WXPOD 7070, AF","FM-15","4","","41","70","","","","","35","","","","","","000","","0","","","","","","","","","","","","","","","","","","","","","","","","","","","","","","","","","","","","","","","","","","","","","","","","","","","","","","","","","","","","","","","","","","","","","","","","","","","","","","","","","","","","","","","","","","","MET069MOBOB0 METAR 7070 //008 000000 260210Z AUTO 00000KT //// 21/05 A2488=","","","","","","","","","",""
"00707099999","2015-09-26T06:45:00","0.0","0.0","7070.0","WXPOD 7070, AF","FM-15","4","","41","70","","","","","35","","","","","","000","","0","","","","","","","","","","","","","","","","","","","","","","","","","","","","","","","","","","","","","","","","","","","","","","","","","","","","","","","","","","","","","","","","","","","","","","","","","","","","","","","","","","","","","","","","","","","MET069MOBOB0 METAR 7070 //008 000000 260215Z AUTO 00000KT //// 21/05 A2488=","","","","","","","","","",""
"00707099999","2015-09-26T06:50:00","0.0","0.0","7070.0","WXPOD 7070, AF","FM-15","4","","41","70","","","","","35","","","","","","000","","0","","","","","","","","","","","","","","","","","","","","","","","","","","","","","","","","","","","","","","","","","","","","","","","","","","","","","","","","","","","","","","","","","","","","","","","","","","","","","","","","","","","","","","","","","","","MET069MOBOB0 METAR 7070 //008 000000 260220Z AUTO 00000KT //// 21/05 A2489=","","","","","","","","","",""
"00707099999","2015-09-26T06:55:00","0.0","0.0","7070.0","WXPOD 7070, AF","FM-15","4","","41","68","","","","","38","","","","","","000","","0","","","","","","","","","","","","","","","","","","","","","","","","","","","","","","","","","","","","","","","","","","","","","","","","","","","","","","","","","","","","","","","","","","","","","","","","","","","","","","","","","","","","","","","","","","","MET069MOBOB0 METAR 7070 //008 000000 260225Z AUTO 00000KT //// 20/05 A2489=","","","","","","","","","",""
"00707099999","2015-09-26T07:00:00","0.0","0.0","7070.0","WXPOD 7070, AF","FM-15","4","","41","68","","","","","38","","","","","","000","","0","","","","","","","","","","","","","","","","","","","","","","","","","","","","","","","","","","","","","","","","","","","","","","","","","","","","","","","","","","","","","","","","","","","","","","","","","","","","","","","","","","","","","","","","","","","MET069MOBOB0 METAR 7070 //008 000000 260230Z AUTO 00000KT //// 20/05 A2489=","","","","","","","","","",""
"00707099999","2015-09-26T07:05:00","0.0","0.0","7070.0","WXPOD 7070, AF","FM-15","4","","41","68","","","","","38","","","","","","000","","0","","","","","","","","","","","","","","","","","","","","","","","","","","","","","","","","","","","","","","","","","","","","","","","","","","","","","","","","","","","","","","","","","","","","","","","","","","","","","","","","","","","","","","","","","","","MET069MOBOB0 METAR 7070 //008 000000 260235Z AUTO 00000KT //// 20/05 A2489=","","","","","","","","","",""
"00707099999","2015-09-26T07:10:00","0.0","0.0","7070.0","WXPOD 7070, AF","FM-15","4","","43","68","","","","","40","","","","","","000","","0","","","","","","","","","","","","","","","","","","","","","","","","","","","","","","","","","","","","","","","","","","","","","","","","","","","","","","","","","","","","","","","","","","","","","","","","","","","","","","","","","","","","","","","","","","","MET069MOBOB0 METAR 7070 //008 000000 260240Z AUTO 00000KT //// 20/06 A2490=","","","","","","","","","",""
"00707099999","2015-09-26T07:15:00","0.0","0.0","7070.0","WXPOD 7070, AF","FM-15","4","","41","68","","","","","38","","","","","","000","","0","","","","","","","","","","","","","","","","","","","","","","","","","","","","","","","","","","","","","","","","","","","","","","","","","","","","","","","","","","","","","","","","","","","","","","","","","","","","","","","","","","","","","","","","","","","MET069MOBOB0 METAR 7070 //008 000000 260245Z AUTO 00000KT //// 20/05 A2490=","","","","","","","","","",""
"00707099999","2015-09-26T07:20:00","0.0","0.0","7070.0","WXPOD 7070, AF","FM-15","4","","43","68","","","","","40","","","","","","000","","0","","","","","","","","","","","","","","","","","","","","","","","","","","","","","","","","","","","","","","","","","","","","","","","","","","","","","","","","","","","","","","","","","","","","","","","","","","","","","","","","","","","","","","","","","","","MET069MOBOB0 METAR 7070 //008 000000 260250Z AUTO 00000KT //// 20/06 A2490=","","","","","","","","","",""
"00707099999","2015-09-26T07:25:00","0.0","0.0","7070.0","WXPOD 7070, AF","FM-15","4","","43","66","","","","","43","","","","","","000","","0","","","","","","","","","","","","","","","","","","","","","","","","","","","","","","","","","","","","","","","","","","","","","","","","","","","","","","","","","","","","","","","","","","","","","","","","","","","","","","","","","","","","","","","","","","","MET069MOBOB0 METAR 7070 //008 000000 260255Z AUTO 00000KT //// 19/06 A2490=","","","","","","","","","",""
"00707099999","2015-09-26T07:30:00","0.0","0.0","7070.0","WXPOD 7070, AF","FM-15","4","","41","66","","","","","40","","","","","","000","","0","","","","","","","","","","","","","","","","","","","","","","","","","","","","","","","","","","","","","","","","","","","","","","","","","","","","","","","","","","","","","","","","","","","","","","","","","","","","","","","","","","","","","","","","","","","MET069MOBOB0 METAR 7070 //008 000000 260300Z AUTO 00000KT //// 19/05 A2490=","","","","","","","","","",""
"00707099999","2015-09-26T07:35:00","0.0","0.0","7070.0","WXPOD 7070, AF","FM-15","4","","43","66","","","","","43","","","","","","000","","0","","","","","","","","","","","","","","","","","","","","","","","","","","","","","","","","","","","","","","","","","","","","","","","","","","","","","","","","","","","","","","","","","","","","","","","","","","","","","","","","","","","","","","","","","","","MET069MOBOB0 METAR 7070 //008 000000 260305Z AUTO 00000KT //// 19/06 A2490=","","","","","","","","","",""
"00707099999","2015-09-26T07:40:00","0.0","0.0","7070.0","WXPOD 7070, AF","FM-15","4","","43","66","","","","","43","","","","","","000","","0","","","","","","","","","","","","","","","","","","","","","","","","","","","","","","","","","","","","","","","","","","","","","","","","","","","","","","","","","","","","","","","","","","","","","","","","","","","","","","","","","","","","","","","","","","","MET069MOBOB0 METAR 7070 //008 000000 260310Z AUTO 00000KT //// 19/06 A2490=","","","","","","","","","",""
"00707099999","2015-09-26T07:45:00","0.0","0.0","7070.0","WXPOD 7070, AF","FM-15","4","","43","66","","","","","43","","","","","","000","","0","","","","","","","","","","","","","","","","","","","","","","","","","","","","","","","","","","","","","","","","","","","","","","","","","","","","","","","","","","","","","","","","","","","","","","","","","","","","","","","","","","","","","","","","","","","MET069MOBOB0 METAR 7070 //008 000000 260315Z AUTO 00000KT //// 19/06 A2490=","","","","","","","","","",""
"00707099999","2015-09-26T07:50:00","0.0","0.0","7070.0","WXPOD 7070, AF","FM-15","4","","43","64","","","","","46","","","","","","000","","0","","","","","","","","","","","","","","","","","","","","","","","","","","","","","","","","","","","","","","","","","","","","","","","","","","","","","","","","","","","","","","","","","","","","","","","","","","","","","","","","","","","","","","","","","","","MET069MOBOB0 METAR 7070 //008 000000 260320Z AUTO 00000KT //// 18/06 A2490=","","","","","","","","","",""
"00707099999","2015-09-26T07:55:00","0.0","0.0","7070.0","WXPOD 7070, AF","FM-15","4","","43","64","","","","","46","","","","","","120","","1","","","","","","","","","","","","","","","","","","","","","","","","","","","","","","","","","","","","","","","","","","","","","","","","","","","","","","","","","","","","","","","","","","","","","","","","","","","","","","","","","","","","","","","","","","","MET069MOBOB0 METAR 7070 //008 000000 260325Z AUTO 12001KT //// 18/06 A2490=","","","","","","","","","",""
"00707099999","2015-09-26T08:00:00","0.0","0.0","7070.0","WXPOD 7070, AF","FM-15","4","","43","64","","","","","46","","","","","","000","","0","","","","","","","","","","","","","","","","","","","","","","","","","","","","","","","","","","","","","","","","","","","","","","","","","","","","","","","","","","","","","","","","","","","","","","","","","","","","","","","","","","","","","","","","","","","MET069MOBOB0 METAR 7070 //008 000000 260330Z AUTO 00000KT //// 18/06 A2491=","","","","","","","","","",""
"00707099999","2015-09-26T08:05:00","0.0","0.0","7070.0","WXPOD 7070, AF","FM-15","4","","43","64","","","","","46","","","","","","000","","0","","","","","","","","","","","","","","","","","","","","","","","","","","","","","","","","","","","","","","","","","","","","","","","","","","","","","","","","","","","","","","","","","","","","","","","","","","","","","","","","","","","","","","","","","","","MET069MOBOB0 METAR 7070 //008 000000 260335Z AUTO 00000KT //// 18/06 A2491=","","","","","","","","","",""
"00707099999","2015-09-26T08:10:00","0.0","0.0","7070.0","WXPOD 7070, AF","FM-15","4","","43","64","","","","","46","","","","","","000","","0","","","","","","","","","","","","","","","","","","","","","","","","","","","","","","","","","","","","","","","","","","","","","","","","","","","","","","","","","","","","","","","","","","","","","","","","","","","","","","","","","","","","","","","","","","","MET069MOBOB0 METAR 7070 //008 000000 260340Z AUTO 00000KT //// 18/06 A2491=","","","","","","","","","",""
"00707099999","2015-09-26T08:15:00","0.0","0.0","7070.0","WXPOD 7070, AF","FM-15","4","","43","63","","","","","49","","","","","","000","","0","","","","","","","","","","","","","","","","","","","","","","","","","","","","","","","","","","","","","","","","","","","","","","","","","","","","","","","","","","","","","","","","","","","","","","","","","","","","","","","","","","","","","","","","","","","MET069MOBOB0 METAR 7070 //008 000000 260345Z AUTO 00000KT //// 17/06 A2491=","","","","","","","","","",""
"00707099999","2015-09-26T08:20:00","0.0","0.0","7070.0","WXPOD 7070, AF","FM-15","4","","43","64","","","","","46","","","","","","000","","0","","","","","","","","","","","","","","","","","","","","","","","","","","","","","","","","","","","","","","","","","","","","","","","","","","","","","","","","","","","","","","","","","","","","","","","","","","","","","","","","","","","","","","","","","","","MET069MOBOB0 METAR 7070 //008 000000 260350Z AUTO 00000KT //// 18/06 A2491=","","","","","","","","","",""
"00707099999","2015-09-26T08:25:00","0.0","0.0","7070.0","WXPOD 7070, AF","FM-15","4","","43","63","","","","","49","","","","","","000","","0","","","","","","","","","","","","","","","","","","","","","","","","","","","","","","","","","","","","","","","","","","","","","","","","","","","","","","","","","","","","","","","","","","","","","","","","","","","","","","","","","","","","","","","","","","","MET069MOBOB0 METAR 7070 //008 000000 260355Z AUTO 00000KT //// 17/06 A2491=","","","","","","","","","",""
"00707099999","2015-09-26T08:30:00","0.0","0.0","7070.0","WXPOD 7070, AF","FM-15","4","","43","63","","","","","49","","","","","","000","","0","","","","","","","","","","","","","","","","","","","","","","","","","","","","","","","","","","","","","","","","","","","","","","","","","","","","","","","","","","","","","","","","","","","","","","","","","","","","","","","","","","","","","","","","","","","MET069MOBOB0 METAR 7070 //008 000000 260400Z AUTO 00000KT //// 17/06 A2490=","","","","","","","","","",""
"00707099999","2015-09-26T08:35:00","0.0","0.0","7070.0","WXPOD 7070, AF","FM-15","4","","43","63","","","","","49","","","","","","000","","0","","","","","","","","","","","","","","","","","","","","","","","","","","","","","","","","","","","","","","","","","","","","","","","","","","","","","","","","","","","","","","","","","","","","","","","","","","","","","","","","","","","","","","","","","","","MET069MOBOB0 METAR 7070 //008 000000 260405Z AUTO 00000KT //// 17/06 A2490=","","","","","","","","","",""
"00707099999","2015-09-26T08:40:00","0.0","0.0","7070.0","WXPOD 7070, AF","FM-15","4","","45","63","","","","","52","","","","","","000","","0","","","","","","","","","","","","","","","","","","","","","","","","","","","","","","","","","","","","","","","","","","","","","","","","","","","","","","","","","","","","","","","","","","","","","","","","","","","","","","","","","","","","","","","","","","","MET069MOBOB0 METAR 7070 //008 000000 260410Z AUTO 00000KT //// 17/07 A2490=","","","","","","","","","",""
"00707099999","2015-09-26T08:45:00","0.0","0.0","7070.0","WXPOD 7070, AF","FM-15","4","","43","63","","","","","49","","","","","","000","","0","","","","","","","","","","","","","","","","","","","","","","","","","","","","","","","","","","","","","","","","","","","","","","","","","","","","","","","","","","","","","","","","","","","","","","","","","","","","","","","","","","","","","","","","","","","MET069MOBOB0 METAR 7070 //008 000000 260415Z AUTO 00000KT //// 17/06 A2490=","","","","","","","","","",""
"00707099999","2015-09-26T08:50:00","0.0","0.0","7070.0","WXPOD 7070, AF","FM-15","4","","43","63","","","","","49","","","","","","000","","0","","","","","","","","","","","","","","","","","","","","","","","","","","","","","","","","","","","","","","","","","","","","","","","","","","","","","","","","","","","","","","","","","","","","","","","","","","","","","","","","","","","","","","","","","","","MET069MOBOB0 METAR 7070 //008 000000 260420Z AUTO 00000KT //// 17/06 A2490=","","","","","","","","","",""
"00707099999","2015-09-26T08:55:00","0.0","0.0","7070.0","WXPOD 7070, AF","FM-15","4","","43","63","","","","","49","","","","","","200","","1","","","","","","","","","","","","","","","","","","","","","","","","","","","","","","","","","","","","","","","","","","","","","","","","","","","","","","","","","","","","","","","","","","","","","","","","","","","","","","","","","","","","","","","","","","","MET069MOBOB0 METAR 7070 //008 000000 260425Z AUTO 20001KT //// 17/06 A2490=","","","","","","","","","",""
"00707099999","2015-09-26T09:00:00","0.0","0.0","7070.0","WXPOD 7070, AF","FM-15","4","","43","63","","","","","49","","","","","","000","","0","","","","","","","","","","","","","","","","","","","","","","","","","","","","","","","","","","","","","","","","","","","","","","","","","","","","","","","","","","","","","","","","","","","","","","","","","","","","","","","","","","","","","","","","","","","MET069MOBOB0 METAR 7070 //008 000000 260430Z AUTO 00000KT //// 17/06 A2490=","","","","","","","","","",""
"00707099999","2015-09-26T09:05:00","0.0","0.0","7070.0","WXPOD 7070, AF","FM-15","4","","43","63","","","","","49","","","","","","000","","0","","","","","","","","","","","","","","","","","","","","","","","","","","","","","","","","","","","","","","","","","","","","","","","","","","","","","","","","","","","","","","","","","","","","","","","","","","","","","","","","","","","","","","","","","","","MET069MOBOB0 METAR 7070 //008 000000 260435Z AUTO 00000KT //// 17/06 A2490=","","","","","","","","","",""
"00707099999","2015-09-26T09:10:00","0.0","0.0","7070.0","WXPOD 7070, AF","FM-15","4","","43","63","","","","","49","","","","","","000","","0","","","","","","","","","","","","","","","","","","","","","","","","","","","","","","","","","","","","","","","","","","","","","","","","","","","","","","","","","","","","","","","","","","","","","","","","","","","","","","","","","","","","","","","","","","","MET069MOBOB0 METAR 7070 //008 000000 260440Z AUTO 00000KT //// 17/06 A2490=","","","","","","","","","",""
"00707099999","2015-09-26T09:15:00","0.0","0.0","7070.0","WXPOD 7070, AF","FM-15","4","","43","63","","","","","49","","","","","","000","","0","","","","","","","","","","","","","","","","","","","","","","","","","","","","","","","","","","","","","","","","","","","","","","","","","","","","","","","","","","","","","","","","","","","","","","","","","","","","","","","","","","","","","","","","","","","MET069MOBOB0 METAR 7070 //008 000000 260445Z AUTO 00000KT //// 17/06 A2490=","","","","","","","","","",""
"00707099999","2015-09-26T09:23:00","0.0","0.0","7070.0","WXPOD 7070, AF","FM-15","4","","41","63","","","","","45","","","","","","000","","0","","","","","","","","","","","","","","","","","","","","","","","","","","","","","","","","","","","","","","","","","","","","","","","","","","","","","","","","","","","","","","","","","","","","","","","","","","","","","","","","","","","","","","","","","","","MET069MOBOB0 METAR 7070 //008 000000 260453Z AUTO 00000KT //// 17/05 A2489=","","","","","","","","","",""
"00707099999","2015-09-26T09:29:00","0.0","0.0","7070.0","WXPOD 7070, AF","FM-15","4","","43","63","","","","","49","","","","","","000","","0","","","","","","","","","","","","","","","","","","","","","","","","","","","","","","","","","","","","","","","","","","","","","","","","","","","","","","","","","","","","","","","","","","","","","","","","","","","","","","","","","","","","","","","","","","","MET069MOBOB0 METAR 7070 //008 000000 260459Z AUTO 00000KT //// 17/06 A2489=","","","","","","","","","",""
"00707099999","2015-09-26T09:34:00","0.0","0.0","7070.0","WXPOD 7070, AF","FM-15","4","","43","63","","","","","49","","","","","","000","","0","","","","","","","","","","","","","","","","","","","","","","","","","","","","","","","","","","","","","","","","","","","","","","","","","","","","","","","","","","","","","","","","","","","","","","","","","","","","","","","","","","","","","","","","","","","MET069MOBOB0 METAR 7070 //008 000000 260504Z AUTO 00000KT //// 17/06 A2489=","","","","","","","","","",""
"00707099999","2015-09-26T09:40:00","0.0","0.0","7070.0","WXPOD 7070, AF","FM-15","4","","45","63","","","","","52","","","","","","000","","0","","","","","","","","","","","","","","","","","","","","","","","","","","","","","","","","","","","","","","","","","","","","","","","","","","","","","","","","","","","","","","","","","","","","","","","","","","","","","","","","","","","","","","","","","","","MET069MOBOB0 METAR 7070 //008 000000 260510Z AUTO 00000KT //// 17/07 A2489=","","","","","","","","","",""
"00707099999","2015-09-26T09:45:00","0.0","0.0","7070.0","WXPOD 7070, AF","FM-15","4","","45","61","","","","","55","","","","","","000","","0","","","","","","","","","","","","","","","","","","","","","","","","","","","","","","","","","","","","","","","","","","","","","","","","","","","","","","","","","","","","","","","","","","","","","","","","","","","","","","","","","","","","","","","","","","","MET069MOBOB0 METAR 7070 //008 000000 260515Z AUTO 00000KT //// 16/07 A2489=","","","","","","","","","",""
"00707099999","2015-09-26T09:51:00","0.0","0.0","7070.0","WXPOD 7070, AF","FM-15","4","","45","61","","","","","55","","","","","","000","","0","","","","","","","","","","","","","","","","","","","","","","","","","","","","","","","","","","","","","","","","","","","","","","","","","","","","","","","","","","","","","","","","","","","","","","","","","","","","","","","","","","","","","","","","","","","MET069MOBOB0 METAR 7070 //008 000000 260521Z AUTO 00000KT //// 16/07 A2489=","","","","","","","","","",""
"00707099999","2015-09-26T09:55:00","0.0","0.0","7070.0","WXPOD 7070, AF","FM-15","4","","43","61","","","","","52","","","","","","000","","0","","","","","","","","","","","","","","","","","","","","","","","","","","","","","","","","","","","","","","","","","","","","","","","","","","","","","","","","","","","","","","","","","","","","","","","","","","","","","","","","","","","","","","","","","","","MET069MOBOB0 METAR 7070 //008 000000 260525Z AUTO 00000KT //// 16/06 A2489=","","","","","","","","","",""
"00707099999","2015-09-26T10:00:00","0.0","0.0","7070.0","WXPOD 7070, AF","FM-15","4","","43","61","","","","","52","","","","","","000","","0","","","","","","","","","","","","","","","","","","","","","","","","","","","","","","","","","","","","","","","","","","","","","","","","","","","","","","","","","","","","","","","","","","","","","","","","","","","","","","","","","","","","","","","","","","","MET069MOBOB0 METAR 7070 //008 000000 260530Z AUTO 00000KT //// 16/06 A2489=","","","","","","","","","",""
"00707099999","2015-09-26T10:05:00","0.0","0.0","7070.0","WXPOD 7070, AF","FM-15","4","","43","59","","","","","55","","","","","","000","","0","","","","","","","","","","","","","","","","","","","","","","","","","","","","","","","","","","","","","","","","","","","","","","","","","","","","","","","","","","","","","","","","","","","","","","","","","","","","","","","","","","","","","","","","","","","MET069MOBOB0 METAR 7070 //008 000000 260535Z AUTO 00000KT //// 15/06 A2488=","","","","","","","","","",""
"00707099999","2015-09-26T10:10:00","0.0","0.0","7070.0","WXPOD 7070, AF","FM-15","4","","45","61","","","","","55","","","","","","000","","0","","","","","","","","","","","","","","","","","","","","","","","","","","","","","","","","","","","","","","","","","","","","","","","","","","","","","","","","","","","","","","","","","","","","","","","","","","","","","","","","","","","","","","","","","","","MET069MOBOB0 METAR 7070 //008 000000 260540Z AUTO 00000KT //// 16/07 A2488=","","","","","","","","","",""
"00707099999","2015-09-26T10:15:00","0.0","0.0","7070.0","WXPOD 7070, AF","FM-15","4","","45","59","","","","","59","","","","","","000","","0","","","","","","","","","","","","","","","","","","","","","","","","","","","","","","","","","","","","","","","","","","","","","","","","","","","","","","","","","","","","","","","","","","","","","","","","","","","","","","","","","","","","","","","","","","","MET069MOBOB0 METAR 7070 //008 000000 260545Z AUTO 00000KT //// 15/07 A2488=","","","","","","","","","",""
"00707099999","2015-09-26T10:20:00","0.0","0.0","7070.0","WXPOD 7070, AF","FM-15","4","","43","59","","","","","55","","","","","","000","","0","","","","","","","","","","","","","","","","","","","","","","","","","","","","","","","","","","","","","","","","","","","","","","","","","","","","","","","","","","","","","","","","","","","","","","","","","","","","","","","","","","","","","","","","","","","MET069MOBOB0 METAR 7070 //008 000000 260550Z AUTO 00000KT //// 15/06 A2488=","","","","","","","","","",""
"00707099999","2015-09-26T10:25:00","0.0","0.0","7070.0","WXPOD 7070, AF","FM-15","4","","43","59","","","","","55","","","","","","000","","0","","","","","","","","","","","","","","","","","","","","","","","","","","","","","","","","","","","","","","","","","","","","","","","","","","","","","","","","","","","","","","","","","","","","","","","","","","","","","","","","","","","","","","","","","","","MET069MOBOB0 METAR 7070 //008 000000 260555Z AUTO 00000KT //// 15/06 A2488=","","","","","","","","","",""
"00707099999","2015-09-26T10:30:00","0.0","0.0","7070.0","WXPOD 7070, AF","FM-15","4","","43","59","","","","","55","","","","","","000","","0","","","","","","","","","","","","","","","","","","","","","","","","","","","","","","","","","","","","","","","","","","","","","","","","","","","","","","","","","","","","","","","","","","","","","","","","","","","","","","","","","","","","","","","","","","","MET069MOBOB0 METAR 7070 //008 000000 260600Z AUTO 00000KT //// 15/06 A2488=","","","","","","","","","",""
"00707099999","2015-09-26T10:35:00","0.0","0.0","7070.0","WXPOD 7070, AF","FM-15","4","","41","61","","","","","48","","","","","","000","","0","","","","","","","","","","","","","","","","","","","","","","","","","","","","","","","","","","","","","","","","","","","","","","","","","","","","","","","","","","","","","","","","","","","","","","","","","","","","","","","","","","","","","","","","","","","MET069MOBOB0 METAR 7070 //008 000000 260605Z AUTO 00000KT //// 16/05 A2488=","","","","","","","","","",""
"00707099999","2015-09-26T10:40:00","0.0","0.0","7070.0","WXPOD 7070, AF","FM-15","4","","41","61","","","","","48","","","","","","000","","0","","","","","","","","","","","","","","","","","","","","","","","","","","","","","","","","","","","","","","","","","","","","","","","","","","","","","","","","","","","","","","","","","","","","","","","","","","","","","","","","","","","","","","","","","","","MET069MOBOB0 METAR 7070 //008 000000 260610Z AUTO 00000KT //// 16/05 A2488=","","","","","","","","","",""
"00707099999","2015-09-26T10:45:00","0.0","0.0","7070.0","WXPOD 7070, AF","FM-15","4","","41","61","","","","","48","","","","","","000","","0","","","","","","","","","","","","","","","","","","","","","","","","","","","","","","","","","","","","","","","","","","","","","","","","","","","","","","","","","","","","","","","","","","","","","","","","","","","","","","","","","","","","","","","","","","","MET069MOBOB0 METAR 7070 //008 000000 260615Z AUTO 00000KT //// 16/05 A2488=","","","","","","","","","",""
"00707099999","2015-09-26T10:50:00","0.0","0.0","7070.0","WXPOD 7070, AF","FM-15","4","","41","61","","","","","48","","","","","","000","","0","","","","","","","","","","","","","","","","","","","","","","","","","","","","","","","","","","","","","","","","","","","","","","","","","","","","","","","","","","","","","","","","","","","","","","","","","","","","","","","","","","","","","","","","","","","MET069MOBOB0 METAR 7070 //008 000000 260620Z AUTO 00000KT //// 16/05 A2488=","","","","","","","","","",""
"00707099999","2015-09-26T10:55:00","0.0","0.0","7070.0","WXPOD 7070, AF","FM-15","4","","41","61","","","","","48","","","","","","000","","0","","","","","","","","","","","","","","","","","","","","","","","","","","","","","","","","","","","","","","","","","","","","","","","","","","","","","","","","","","","","","","","","","","","","","","","","","","","","","","","","","","","","","","","","","","","MET069MOBOB0 METAR 7070 //008 000000 260625Z AUTO 00000KT //// 16/05 A2488=","","","","","","","","","",""
"00707099999","2015-09-26T11:00:00","0.0","0.0","7070.0","WXPOD 7070, AF","FM-15","4","","41","61","","","","","48","","","","","","000","","0","","","","","","","","","","","","","","","","","","","","","","","","","","","","","","","","","","","","","","","","","","","","","","","","","","","","","","","","","","","","","","","","","","","","","","","","","","","","","","","","","","","","","","","","","","","MET069MOBOB0 METAR 7070 //008 000000 260630Z AUTO 00000KT //// 16/05 A2488=","","","","","","","","","",""
"00707099999","2015-09-26T11:05:00","0.0","0.0","7070.0","WXPOD 7070, AF","FM-15","4","","41","61","","","","","48","","","","","","000","","0","","","","","","","","","","","","","","","","","","","","","","","","","","","","","","","","","","","","","","","","","","","","","","","","","","","","","","","","","","","","","","","","","","","","","","","","","","","","","","","","","","","","","","","","","","","MET069MOBOB0 METAR 7070 //008 000000 260635Z AUTO 00000KT //// 16/05 A2488=","","","","","","","","","",""
"00707099999","2015-09-26T11:10:00","0.0","0.0","7070.0","WXPOD 7070, AF","FM-15","4","","41","61","","","","","48","","","","","","000","","0","","","","","","","","","","","","","","","","","","","","","","","","","","","","","","","","","","","","","","","","","","","","","","","","","","","","","","","","","","","","","","","","","","","","","","","","","","","","","","","","","","","","","","","","","","","MET069MOBOB0 METAR 7070 //008 000000 260640Z AUTO 00000KT //// 16/05 A2487=","","","","","","","","","",""
"00707099999","2015-09-26T11:15:00","0.0","0.0","7070.0","WXPOD 7070, AF","FM-15","4","","41","61","","","","","48","","","","","","000","","0","","","","","","","","","","","","","","","","","","","","","","","","","","","","","","","","","","","","","","","","","","","","","","","","","","","","","","","","","","","","","","","","","","","","","","","","","","","","","","","","","","","","","","","","","","","MET069MOBOB0 METAR 7070 //008 000000 260645Z AUTO 00000KT //// 16/05 A2488=","","","","","","","","","",""
"00707099999","2015-09-26T11:20:00","0.0","0.0","7070.0","WXPOD 7070, AF","FM-15","4","","41","61","","","","","48","","","","","","000","","0","","","","","","","","","","","","","","","","","","","","","","","","","","","","","","","","","","","","","","","","","","","","","","","","","","","","","","","","","","","","","","","","","","","","","","","","","","","","","","","","","","","","","","","","","","","MET069MOBOB0 METAR 7070 //008 000000 260650Z AUTO 00000KT //// 16/05 A2488=","","","","","","","","","",""
"00707099999","2015-09-26T11:25:00","0.0","0.0","7070.0","WXPOD 7070, AF","FM-15","4","","43","61","","","","","52","","","","","","000","","0","","","","","","","","","","","","","","","","","","","","","","","","","","","","","","","","","","","","","","","","","","","","","","","","","","","","","","","","","","","","","","","","","","","","","","","","","","","","","","","","","","","","","","","","","","","MET069MOBOB0 METAR 7070 //008 000000 260655Z AUTO 00000KT //// 16/06 A2488=","","","","","","","","","",""
"00707099999","2015-09-26T11:30:00","0.0","0.0","7070.0","WXPOD 7070, AF","FM-15","4","","43","59","","","","","55","","","","","","000","","0","","","","","","","","","","","","","","","","","","","","","","","","","","","","","","","","","","","","","","","","","","","","","","","","","","","","","","","","","","","","","","","","","","","","","","","","","","","","","","","","","","","","","","","","","","","MET069MOBOB0 METAR 7070 //008 000000 260700Z AUTO 00000KT //// 15/06 A2488=","","","","","","","","","",""
"00707099999","2015-09-26T11:35:00","0.0","0.0","7070.0","WXPOD 7070, AF","FM-15","4","","43","59","","","","","55","","","","","","000","","0","","","","","","","","","","","","","","","","","","","","","","","","","","","","","","","","","","","","","","","","","","","","","","","","","","","","","","","","","","","","","","","","","","","","","","","","","","","","","","","","","","","","","","","","","","","MET069MOBOB0 METAR 7070 //008 000000 260705Z AUTO 00000KT //// 15/06 A2488=","","","","","","","","","",""
"00707099999","2015-09-26T11:40:00","0.0","0.0","7070.0","WXPOD 7070, AF","FM-15","4","","43","59","","","","","55","","","","","","000","","0","","","","","","","","","","","","","","","","","","","","","","","","","","","","","","","","","","","","","","","","","","","","","","","","","","","","","","","","","","","","","","","","","","","","","","","","","","","","","","","","","","","","","","","","","","","MET069MOBOB0 METAR 7070 //008 000000 260710Z AUTO 00000KT //// 15/06 A2487=","","","","","","","","","",""
"00707099999","2015-09-26T11:45:00","0.0","0.0","7070.0","WXPOD 7070, AF","FM-15","4","","43","59","","","","","55","","","","","","000","","0","","","","","","","","","","","","","","","","","","","","","","","","","","","","","","","","","","","","","","","","","","","","","","","","","","","","","","","","","","","","","","","","","","","","","","","","","","","","","","","","","","","","","","","","","","","MET069MOBOB0 METAR 7070 //008 000000 260715Z AUTO 00000KT //// 15/06 A2487=","","","","","","","","","",""
"00707099999","2015-09-26T11:50:00","0.0","0.0","7070.0","WXPOD 7070, AF","FM-15","4","","43","59","","","","","55","","","","","","000","","0","","","","","","","","","","","","","","","","","","","","","","","","","","","","","","","","","","","","","","","","","","","","","","","","","","","","","","","","","","","","","","","","","","","","","","","","","","","","","","","","","","","","","","","","","","","MET069MOBOB0 METAR 7070 //008 000000 260720Z AUTO 00000KT //// 15/06 A2487=","","","","","","","","","",""
"00707099999","2015-09-26T11:55:00","0.0","0.0","7070.0","WXPOD 7070, AF","FM-15","4","","43","57","","","","","59","","","","","","000","","0","","","","","","","","","","","","","","","","","","","","","","","","","","","","","","","","","","","","","","","","","","","","","","","","","","","","","","","","","","","","","","","","","","","","","","","","","","","","","","","","","","","","","","","","","","","MET069MOBOB0 METAR 7070 //008 000000 260725Z AUTO 00000KT //// 14/06 A2487=","","","","","","","","","",""
"00707099999","2015-09-26T12:05:00","0.0","0.0","7070.0","WXPOD 7070, AF","FM-15","4","","45","57","","","","","63","","","","","","000","","0","","","","","","","","","","","","","","","","","","","","","","","","","","","","","","","","","","","","","","","","","","","","","","","","","","","","","","","","","","","","","","","","","","","","","","","","","","","","","","","","","","","","","","","","","","","MET069MOBOB0 METAR 7070 //008 000000 260735Z AUTO 00000KT //// 14/07 A2487=","","","","","","","","","",""
"00707099999","2015-09-26T12:07:00","0.0","0.0","7070.0","WXPOD 7070, AF","FM-15","4","","43","57","","","","","59","","","","","","000","","0","","","","","","","","","","","","","","","","","","","","","","","","","","","","","","","","","","","","","","","","","","","","","","","","","","","","","","","","","","","","","","","","","","","","","","","","","","","","","","","","","","","","","","","","","","","MET069MOBOB0 METAR 7070 //008 000000 260737Z AUTO 00000KT //// 14/06 A2487=","","","","","","","","","",""
"00707099999","2015-09-26T12:15:00","0.0","0.0","7070.0","WXPOD 7070, AF","FM-15","4","","43","57","","","","","59","","","","","","000","","0","","","","","","","","","","","","","","","","","","","","","","","","","","","","","","","","","","","","","","","","","","","","","","","","","","","","","","","","","","","","","","","","","","","","","","","","","","","","","","","","","","","","","","","","","","","MET069MOBOB0 METAR 7070 //008 000000 260745Z AUTO 00000KT //// 14/06 A2487=","","","","","","","","","",""
"00707099999","2015-09-26T12:20:00","0.0","0.0","7070.0","WXPOD 7070, AF","FM-15","4","","43","57","","","","","59","","","","","","000","","0","","","","","","","","","","","","","","","","","","","","","","","","","","","","","","","","","","","","","","","","","","","","","","","","","","","","","","","","","","","","","","","","","","","","","","","","","","","","","","","","","","","","","","","","","","","MET069MOBOB0 METAR 7070 //008 000000 260750Z AUTO 00000KT //// 14/06 A2488=","","","","","","","","","",""
"00707099999","2015-09-26T12:25:00","0.0","0.0","7070.0","WXPOD 7070, AF","FM-15","4","","41","57","","","","","55","","","","","","000","","0","","","","","","","","","","","","","","","","","","","","","","","","","","","","","","","","","","","","","","","","","","","","","","","","","","","","","","","","","","","","","","","","","","","","","","","","","","","","","","","","","","","","","","","","","","","MET069MOBOB0 METAR 7070 //008 000000 260755Z AUTO 00000KT //// 14/05 A2487=","","","","","","","","","",""
"00707099999","2015-09-26T12:30:00","0.0","0.0","7070.0","WXPOD 7070, AF","FM-15","4","","41","55","","","","","59","","","","","","000","","0","","","","","","","","","","","","","","","","","","","","","","","","","","","","","","","","","","","","","","","","","","","","","","","","","","","","","","","","","","","","","","","","","","","","","","","","","","","","","","","","","","","","","","","","","","","MET069MOBOB0 METAR 7070 //008 000000 260800Z AUTO 00000KT //// 13/05 A2488=","","","","","","","","","",""
"00707099999","2015-09-26T12:35:00","0.0","0.0","7070.0","WXPOD 7070, AF","FM-15","4","","41","55","","","","","59","","","","","","000","","0","","","","","","","","","","","","","","","","","","","","","","","","","","","","","","","","","","","","","","","","","","","","","","","","","","","","","","","","","","","","","","","","","","","","","","","","","","","","","","","","","","","","","","","","","","","MET069MOBOB0 METAR 7070 //008 000000 260805Z AUTO 00000KT //// 13/05 A2488=","","","","","","","","","",""
"00707099999","2015-09-26T12:40:00","0.0","0.0","7070.0","WXPOD 7070, AF","FM-15","4","","41","55","","","","","59","","","","","","000","","0","","","","","","","","","","","","","","","","","","","","","","","","","","","","","","","","","","","","","","","","","","","","","","","","","","","","","","","","","","","","","","","","","","","","","","","","","","","","","","","","","","","","","","","","","","","MET069MOBOB0 METAR 7070 //008 000000 260810Z AUTO 00000KT //// 13/05 A2488=","","","","","","","","","",""
"00707099999","2015-09-26T12:45:00","0.0","0.0","7070.0","WXPOD 7070, AF","FM-15","4","","41","57","","","","","55","","","","","","000","","0","","","","","","","","","","","","","","","","","","","","","","","","","","","","","","","","","","","","","","","","","","","","","","","","","","","","","","","","","","","","","","","","","","","","","","","","","","","","","","","","","","","","","","","","","","","MET069MOBOB0 METAR 7070 //008 000000 260815Z AUTO 00000KT //// 14/05 A2488=","","","","","","","","","",""
"00707099999","2015-09-26T12:50:00","0.0","0.0","7070.0","WXPOD 7070, AF","FM-15","4","","41","57","","","","","55","","","","","","000","","0","","","","","","","","","","","","","","","","","","","","","","","","","","","","","","","","","","","","","","","","","","","","","","","","","","","","","","","","","","","","","","","","","","","","","","","","","","","","","","","","","","","","","","","","","","","MET069MOBOB0 METAR 7070 //008 000000 260820Z AUTO 00000KT //// 14/05 A2488=","","","","","","","","","",""
"00707099999","2015-09-26T12:55:00","0.0","0.0","7070.0","WXPOD 7070, AF","FM-15","4","","41","57","","","","","55","","","","","","000","","0","","","","","","","","","","","","","","","","","","","","","","","","","","","","","","","","","","","","","","","","","","","","","","","","","","","","","","","","","","","","","","","","","","","","","","","","","","","","","","","","","","","","","","","","","","","MET069MOBOB0 METAR 7070 //008 000000 260825Z AUTO 00000KT //// 14/05 A2488=","","","","","","","","","",""
"00707099999","2015-09-26T13:00:00","0.0","0.0","7070.0","WXPOD 7070, AF","FM-15","4","","41","55","","","","","59","","","","","","000","","0","","","","","","","","","","","","","","","","","","","","","","","","","","","","","","","","","","","","","","","","","","","","","","","","","","","","","","","","","","","","","","","","","","","","","","","","","","","","","","","","","","","","","","","","","","","MET069MOBOB0 METAR 7070 //008 000000 260830Z AUTO 00000KT //// 13/05 A2488=","","","","","","","","","",""
"00707099999","2015-09-26T13:06:00","0.0","0.0","7070.0","WXPOD 7070, AF","FM-15","4","","43","55","","","","","63","","","","","","000","","0","","","","","","","","","","","","","","","","","","","","","","","","","","","","","","","","","","","","","","","","","","","","","","","","","","","","","","","","","","","","","","","","","","","","","","","","","","","","","","","","","","","","","","","","","","","MET069MOBOB0 METAR 7070 //008 000000 260836Z AUTO 00000KT //// 13/06 A2487=","","","","","","","","","",""
"00707099999","2015-09-26T13:14:00","0.0","0.0","7070.0","WXPOD 7070, AF","FM-15","4","","41","55","","","","","59","","","","","","000","","0","","","","","","","","","","","","","","","","","","","","","","","","","","","","","","","","","","","","","","","","","","","","","","","","","","","","","","","","","","","","","","","","","","","","","","","","","","","","","","","","","","","","","","","","","","","MET069MOBOB0 METAR 7070 //008 000000 260844Z AUTO 00000KT //// 13/05 A2487=","","","","","","","","","",""
"00707099999","2015-09-26T13:19:00","0.0","0.0","7070.0","WXPOD 7070, AF","FM-15","4","","41","55","","","","","59","","","","","","000","","0","","","","","","","","","","","","","","","","","","","","","","","","","","","","","","","","","","","","","","","","","","","","","","","","","","","","","","","","","","","","","","","","","","","","","","","","","","","","","","","","","","","","","","","","","","","MET069MOBOB0 METAR 7070 //008 000000 260849Z AUTO 00000KT //// 13/05 A2487=","","","","","","","","","",""
"00707099999","2015-09-26T13:25:00","0.0","0.0","7070.0","WXPOD 7070, AF","FM-15","4","","41","55","","","","","59","","","","","","000","","0","","","","","","","","","","","","","","","","","","","","","","","","","","","","","","","","","","","","","","","","","","","","","","","","","","","","","","","","","","","","","","","","","","","","","","","","","","","","","","","","","","","","","","","","","","","MET069MOBOB0 METAR 7070 //008 000000 260855Z AUTO 00000KT //// 13/05 A2487=","","","","","","","","","",""
"00707099999","2015-09-26T13:30:00","0.0","0.0","7070.0","WXPOD 7070, AF","FM-15","4","","41","54","","","","","63","","","","","","000","","0","","","","","","","","","","","","","","","","","","","","","","","","","","","","","","","","","","","","","","","","","","","","","","","","","","","","","","","","","","","","","","","","","","","","","","","","","","","","","","","","","","","","","","","","","","","MET069MOBOB0 METAR 7070 //008 000000 260900Z AUTO 00000KT //// 12/05 A2487=","","","","","","","","","",""
"00707099999","2015-09-26T13:35:00","0.0","0.0","7070.0","WXPOD 7070, AF","FM-15","4","","41","54","","","","","63","","","","","","000","","0","","","","","","","","","","","","","","","","","","","","","","","","","","","","","","","","","","","","","","","","","","","","","","","","","","","","","","","","","","","","","","","","","","","","","","","","","","","","","","","","","","","","","","","","","","","MET069MOBOB0 METAR 7070 //008 000000 260905Z AUTO 00000KT //// 12/05 A2487=","","","","","","","","","",""
"00707099999","2015-09-26T13:40:00","0.0","0.0","7070.0","WXPOD 7070, AF","FM-15","4","","41","54","","","","","63","","","","","","000","","0","","","","","","","","","","","","","","","","","","","","","","","","","","","","","","","","","","","","","","","","","","","","","","","","","","","","","","","","","","","","","","","","","","","","","","","","","","","","","","","","","","","","","","","","","","","MET069MOBOB0 METAR 7070 //008 000000 260910Z AUTO 00000KT //// 12/05 A2486=","","","","","","","","","",""
"00707099999","2015-09-26T13:45:00","0.0","0.0","7070.0","WXPOD 7070, AF","FM-15","4","","41","54","","","","","63","","","","","","000","","0","","","","","","","","","","","","","","","","","","","","","","","","","","","","","","","","","","","","","","","","","","","","","","","","","","","","","","","","","","","","","","","","","","","","","","","","","","","","","","","","","","","","","","","","","","","MET069MOBOB0 METAR 7070 //008 000000 260915Z AUTO 00000KT //// 12/05 A2486=","","","","","","","","","",""
"00707099999","2015-09-26T13:50:00","0.0","0.0","7070.0","WXPOD 7070, AF","FM-15","4","","41","54","","","","","63","","","","","","000","","0","","","","","","","","","","","","","","","","","","","","","","","","","","","","","","","","","","","","","","","","","","","","","","","","","","","","","","","","","","","","","","","","","","","","","","","","","","","","","","","","","","","","","","","","","","","MET069MOBOB0 METAR 7070 //008 000000 260920Z AUTO 00000KT //// 12/05 A2486=","","","","","","","","","",""
"00707099999","2015-09-26T13:55:00","0.0","0.0","7070.0","WXPOD 7070, AF","FM-15","4","","41","54","","","","","63","","","","","","000","","0","","","","","","","","","","","","","","","","","","","","","","","","","","","","","","","","","","","","","","","","","","","","","","","","","","","","","","","","","","","","","","","","","","","","","","","","","","","","","","","","","","","","","","","","","","","MET069MOBOB0 METAR 7070 //008 000000 260925Z AUTO 00000KT //// 12/05 A2486=","","","","","","","","","",""
"00707099999","2015-09-26T14:00:00","0.0","0.0","7070.0","WXPOD 7070, AF","FM-15","4","","41","54","","","","","63","","","","","","000","","0","","","","","","","","","","","","","","","","","","","","","","","","","","","","","","","","","","","","","","","","","","","","","","","","","","","","","","","","","","","","","","","","","","","","","","","","","","","","","","","","","","","","","","","","","","","MET069MOBOB0 METAR 7070 //008 000000 260930Z AUTO 00000KT //// 12/05 A2486=","","","","","","","","","",""
"00707099999","2015-09-26T14:05:00","0.0","0.0","7070.0","WXPOD 7070, AF","FM-15","4","","41","54","","","","","63","","","","","","000","","0","","","","","","","","","","","","","","","","","","","","","","","","","","","","","","","","","","","","","","","","","","","","","","","","","","","","","","","","","","","","","","","","","","","","","","","","","","","","","","","","","","","","","","","","","","","MET069MOBOB0 METAR 7070 //008 000000 260935Z AUTO 00000KT //// 12/05 A2486=","","","","","","","","","",""
"00707099999","2015-09-26T14:10:00","0.0","0.0","7070.0","WXPOD 7070, AF","FM-15","4","","41","54","","","","","63","","","","","","000","","0","","","","","","","","","","","","","","","","","","","","","","","","","","","","","","","","","","","","","","","","","","","","","","","","","","","","","","","","","","","","","","","","","","","","","","","","","","","","","","","","","","","","","","","","","","","MET069MOBOB0 METAR 7070 //008 000000 260940Z AUTO 00000KT //// 12/05 A2486=","","","","","","","","","",""
"00707099999","2015-09-26T14:15:00","0.0","0.0","7070.0","WXPOD 7070, AF","FM-15","4","","41","54","","","","","63","","","","","","000","","0","","","","","","","","","","","","","","","","","","","","","","","","","","","","","","","","","","","","","","","","","","","","","","","","","","","","","","","","","","","","","","","","","","","","","","","","","","","","","","","","","","","","","","","","","","","MET069MOBOB0 METAR 7070 //008 000000 260945Z AUTO 00000KT //// 12/05 A2486=","","","","","","","","","",""
"00707099999","2015-09-26T14:20:00","0.0","0.0","7070.0","WXPOD 7070, AF","FM-15","4","","41","54","","","","","63","","","","","","000","","0","","","","","","","","","","","","","","","","","","","","","","","","","","","","","","","","","","","","","","","","","","","","","","","","","","","","","","","","","","","","","","","","","","","","","","","","","","","","","","","","","","","","","","","","","","","MET069MOBOB0 METAR 7070 //008 000000 260950Z AUTO 00000KT //// 12/05 A2485=","","","","","","","","","",""
"00707099999","2015-09-26T14:25:00","0.0","0.0","7070.0","WXPOD 7070, AF","FM-15","4","","41","52","","","","","67","","","","","","000","","0","","","","","","","","","","","","","","","","","","","","","","","","","","","","","","","","","","","","","","","","","","","","","","","","","","","","","","","","","","","","","","","","","","","","","","","","","","","","","","","","","","","","","","","","","","","MET069MOBOB0 METAR 7070 //008 000000 260955Z AUTO 00000KT //// 11/05 A2485=","","","","","","","","","",""
"00707099999","2015-09-26T14:30:00","0.0","0.0","7070.0","WXPOD 7070, AF","FM-15","4","","41","52","","","","","67","","","","","","000","","0","","","","","","","","","","","","","","","","","","","","","","","","","","","","","","","","","","","","","","","","","","","","","","","","","","","","","","","","","","","","","","","","","","","","","","","","","","","","","","","","","","","","","","","","","","","MET069MOBOB0 METAR 7070 //008 000000 261000Z AUTO 00000KT //// 11/05 A2485=","","","","","","","","","",""
"00707099999","2015-09-26T14:35:00","0.0","0.0","7070.0","WXPOD 7070, AF","FM-15","4","","41","52","","","","","67","","","","","","000","","0","","","","","","","","","","","","","","","","","","","","","","","","","","","","","","","","","","","","","","","","","","","","","","","","","","","","","","","","","","","","","","","","","","","","","","","","","","","","","","","","","","","","","","","","","","","MET069MOBOB0 METAR 7070 //008 000000 261005Z AUTO 00000KT //// 11/05 A2485=","","","","","","","","","",""
"00707099999","2015-09-26T14:40:00","0.0","0.0","7070.0","WXPOD 7070, AF","FM-15","4","","41","52","","","","","67","","","","","","000","","0","","","","","","","","","","","","","","","","","","","","","","","","","","","","","","","","","","","","","","","","","","","","","","","","","","","","","","","","","","","","","","","","","","","","","","","","","","","","","","","","","","","","","","","","","","","MET069MOBOB0 METAR 7070 //008 000000 261010Z AUTO 00000KT //// 11/05 A2485=","","","","","","","","","",""
"00707099999","2015-09-26T14:45:00","0.0","0.0","7070.0","WXPOD 7070, AF","FM-15","4","","43","52","","","","","72","","","","","","000","","0","","","","","","","","","","","","","","","","","","","","","","","","","","","","","","","","","","","","","","","","","","","","","","","","","","","","","","","","","","","","","","","","","","","","","","","","","","","","","","","","","","","","","","","","","","","MET069MOBOB0 METAR 7070 //008 000000 261015Z AUTO 00000KT //// 11/06 A2485=","","","","","","","","","",""
"00707099999","2015-09-26T14:50:00","0.0","0.0","7070.0","WXPOD 7070, AF","FM-15","4","","41","52","","","","","67","","","","","","000","","0","","","","","","","","","","","","","","","","","","","","","","","","","","","","","","","","","","","","","","","","","","","","","","","","","","","","","","","","","","","","","","","","","","","","","","","","","","","","","","","","","","","","","","","","","","","MET069MOBOB0 METAR 7070 //008 000000 261020Z AUTO 00000KT //// 11/05 A2485=","","","","","","","","","",""
"00707099999","2015-09-26T14:55:00","0.0","0.0","7070.0","WXPOD 7070, AF","FM-15","4","","41","52","","","","","67","","","","","","000","","0","","","","","","","","","","","","","","","","","","","","","","","","","","","","","","","","","","","","","","","","","","","","","","","","","","","","","","","","","","","","","","","","","","","","","","","","","","","","","","","","","","","","","","","","","","","MET069MOBOB0 METAR 7070 //008 000000 261025Z AUTO 00000KT //// 11/05 A2485=","","","","","","","","","",""
"00707099999","2015-09-26T15:00:00","0.0","0.0","7070.0","WXPOD 7070, AF","FM-15","4","","41","52","","","","","67","","","","","","000","","0","","","","","","","","","","","","","","","","","","","","","","","","","","","","","","","","","","","","","","","","","","","","","","","","","","","","","","","","","","","","","","","","","","","","","","","","","","","","","","","","","","","","","","","","","","","MET069MOBOB0 METAR 7070 //008 000000 261030Z AUTO 00000KT //// 11/05 A2485=","","","","","","","","","",""
"00707099999","2015-09-26T15:05:00","0.0","0.0","7070.0","WXPOD 7070, AF","FM-15","4","","41","52","","","","","67","","","","","","000","","0","","","","","","","","","","","","","","","","","","","","","","","","","","","","","","","","","","","","","","","","","","","","","","","","","","","","","","","","","","","","","","","","","","","","","","","","","","","","","","","","","","","","","","","","","","","MET069MOBOB0 METAR 7070 //008 000000 261035Z AUTO 00000KT //// 11/05 A2485=","","","","","","","","","",""
"00707099999","2015-09-26T15:10:00","0.0","0.0","7070.0","WXPOD 7070, AF","FM-15","4","","41","52","","","","","67","","","","","","000","","0","","","","","","","","","","","","","","","","","","","","","","","","","","","","","","","","","","","","","","","","","","","","","","","","","","","","","","","","","","","","","","","","","","","","","","","","","","","","","","","","","","","","","","","","","","","MET069MOBOB0 METAR 7070 //008 000000 261040Z AUTO 00000KT //// 11/05 A2485=","","","","","","","","","",""
"00707099999","2015-09-26T15:15:00","0.0","0.0","7070.0","WXPOD 7070, AF","FM-15","4","","41","52","","","","","67","","","","","","000","","0","","","","","","","","","","","","","","","","","","","","","","","","","","","","","","","","","","","","","","","","","","","","","","","","","","","","","","","","","","","","","","","","","","","","","","","","","","","","","","","","","","","","","","","","","","","MET069MOBOB0 METAR 7070 //008 000000 261045Z AUTO 00000KT //// 11/05 A2485=","","","","","","","","","",""
"00707099999","2015-09-26T15:20:00","0.0","0.0","7070.0","WXPOD 7070, AF","FM-15","4","","41","52","","","","","67","","","","","","000","","0","","","","","","","","","","","","","","","","","","","","","","","","","","","","","","","","","","","","","","","","","","","","","","","","","","","","","","","","","","","","","","","","","","","","","","","","","","","","","","","","","","","","","","","","","","","MET069MOBOB0 METAR 7070 //008 000000 261050Z AUTO 00000KT //// 11/05 A2485=","","","","","","","","","",""
"00707099999","2015-09-26T15:25:00","0.0","0.0","7070.0","WXPOD 7070, AF","FM-15","4","","41","52","","","","","67","","","","","","000","","0","","","","","","","","","","","","","","","","","","","","","","","","","","","","","","","","","","","","","","","","","","","","","","","","","","","","","","","","","","","","","","","","","","","","","","","","","","","","","","","","","","","","","","","","","","","MET069MOBOB0 METAR 7070 //008 000000 261055Z AUTO 00000KT //// 11/05 A2485=","","","","","","","","","",""
"00707099999","2015-09-26T15:30:00","0.0","0.0","7070.0","WXPOD 7070, AF","FM-15","4","","41","52","","","","","67","","","","","","000","","0","","","","","","","","","","","","","","","","","","","","","","","","","","","","","","","","","","","","","","","","","","","","","","","","","","","","","","","","","","","","","","","","","","","","","","","","","","","","","","","","","","","","","","","","","","","MET069MOBOB0 METAR 7070 //008 000000 261100Z AUTO 00000KT //// 11/05 A2485=","","","","","","","","","",""
"00707099999","2015-09-26T15:35:00","0.0","0.0","7070.0","WXPOD 7070, AF","FM-15","4","","39","52","","","","","62","","","","","","000","","0","","","","","","","","","","","","","","","","","","","","","","","","","","","","","","","","","","","","","","","","","","","","","","","","","","","","","","","","","","","","","","","","","","","","","","","","","","","","","","","","","","","","","","","","","","","MET069MOBOB0 METAR 7070 //008 000000 261105Z AUTO 00000KT //// 11/04 A2485=","","","","","","","","","",""
"00707099999","2015-09-26T15:40:00","0.0","0.0","7070.0","WXPOD 7070, AF","FM-15","4","","39","52","","","","","62","","","","","","000","","0","","","","","","","","","","","","","","","","","","","","","","","","","","","","","","","","","","","","","","","","","","","","","","","","","","","","","","","","","","","","","","","","","","","","","","","","","","","","","","","","","","","","","","","","","","","MET069MOBOB0 METAR 7070 //008 000000 261110Z AUTO 00000KT //// 11/04 A2485=","","","","","","","","","",""
"00707099999","2015-09-26T15:45:00","0.0","0.0","7070.0","WXPOD 7070, AF","FM-15","4","","39","52","","","","","62","","","","","","000","","0","","","","","","","","","","","","","","","","","","","","","","","","","","","","","","","","","","","","","","","","","","","","","","","","","","","","","","","","","","","","","","","","","","","","","","","","","","","","","","","","","","","","","","","","","","","MET069MOBOB0 METAR 7070 //008 000000 261115Z AUTO 00000KT //// 11/04 A2485=","","","","","","","","","",""
"00707099999","2015-09-26T15:50:00","0.0","0.0","7070.0","WXPOD 7070, AF","FM-15","4","","39","52","","","","","62","","","","","","000","","0","","","","","","","","","","","","","","","","","","","","","","","","","","","","","","","","","","","","","","","","","","","","","","","","","","","","","","","","","","","","","","","","","","","","","","","","","","","","","","","","","","","","","","","","","","","MET069MOBOB0 METAR 7070 //008 000000 261120Z AUTO 00000KT //// 11/04 A2485=","","","","","","","","","",""
"00707099999","2015-09-26T15:55:00","0.0","0.0","7070.0","WXPOD 7070, AF","FM-15","4","","39","52","","","","","62","","","","","","000","","0","","","","","","","","","","","","","","","","","","","","","","","","","","","","","","","","","","","","","","","","","","","","","","","","","","","","","","","","","","","","","","","","","","","","","","","","","","","","","","","","","","","","","","","","","","","MET069MOBOB0 METAR 7070 //008 000000 261125Z AUTO 00000KT //// 11/04 A2485=","","","","","","","","","",""
"00707099999","2015-09-26T16:00:00","0.0","0.0","7070.0","WXPOD 7070, AF","FM-15","4","","39","52","","","","","62","","","","","","000","","0","","","","","","","","","","","","","","","","","","","","","","","","","","","","","","","","","","","","","","","","","","","","","","","","","","","","","","","","","","","","","","","","","","","","","","","","","","","","","","","","","","","","","","","","","","","MET069MOBOB0 METAR 7070 //008 000000 261130Z AUTO 00000KT //// 11/04 A2485=","","","","","","","","","",""
"00707099999","2015-09-26T16:05:00","0.0","0.0","7070.0","WXPOD 7070, AF","FM-15","4","","41","52","","","","","67","","","","","","000","","0","","","","","","","","","","","","","","","","","","","","","","","","","","","","","","","","","","","","","","","","","","","","","","","","","","","","","","","","","","","","","","","","","","","","","","","","","","","","","","","","","","","","","","","","","","","MET069MOBOB0 METAR 7070 //008 000000 261135Z AUTO 00000KT //// 11/05 A2485=","","","","","","","","","",""
"00707099999","2015-09-26T16:10:00","0.0","0.0","7070.0","WXPOD 7070, AF","FM-15","4","","41","52","","","","","67","","","","","","000","","0","","","","","","","","","","","","","","","","","","","","","","","","","","","","","","","","","","","","","","","","","","","","","","","","","","","","","","","","","","","","","","","","","","","","","","","","","","","","","","","","","","","","","","","","","","","MET069MOBOB0 METAR 7070 //008 000000 261140Z AUTO 00000KT //// 11/05 A2485=","","","","","","","","","",""
"00707099999","2015-09-26T16:15:00","0.0","0.0","7070.0","WXPOD 7070, AF","FM-15","4","","41","52","","","","","67","","","","","","000","","0","","","","","","","","","","","","","","","","","","","","","","","","","","","","","","","","","","","","","","","","","","","","","","","","","","","","","","","","","","","","","","","","","","","","","","","","","","","","","","","","","","","","","","","","","","","MET069MOBOB0 METAR 7070 //008 000000 261145Z AUTO 00000KT //// 11/05 A2485=","","","","","","","","","",""
"00707099999","2015-09-26T16:20:00","0.0","0.0","7070.0","WXPOD 7070, AF","FM-15","4","","39","52","","","","","62","","","","","","350","","1","","","","","","","","","","","","","","","","","","","","","","","","","","","","","","","","","","","","","","","","","","","","","","","","","","","","","","","","","","","","","","","","","","","","","","","","","","","","","","","","","","","","","","","","","","","MET069MOBOB0 METAR 7070 //008 000000 261150Z AUTO 35001KT //// 11/04 A2485=","","","","","","","","","",""
"00707099999","2015-09-26T16:25:00","0.0","0.0","7070.0","WXPOD 7070, AF","FM-15","4","","39","52","","","","","62","","","","","","000","","0","","","","","","","","","","","","","","","","","","","","","","","","","","","","","","","","","","","","","","","","","","","","","","","","","","","","","","","","","","","","","","","","","","","","","","","","","","","","","","","","","","","","","","","","","","","MET069MOBOB0 METAR 7070 //008 000000 261155Z AUTO 00000KT //// 11/04 A2485=","","","","","","","","","",""
"00707099999","2015-09-26T16:30:00","0.0","0.0","7070.0","WXPOD 7070, AF","FM-15","4","","39","52","","","","","62","","","","","","000","","0","","","","","","","","","","","","","","","","","","","","","","","","","","","","","","","","","","","","","","","","","","","","","","","","","","","","","","","","","","","","","","","","","","","","","","","","","","","","","","","","","","","","","","","","","","","MET069MOBOB0 METAR 7070 //008 000000 261200Z AUTO 00000KT //// 11/04 A2485=","","","","","","","","","",""
"00707099999","2015-09-26T16:35:00","0.0","0.0","7070.0","WXPOD 7070, AF","FM-15","4","","39","50","","","","","67","","","","","","000","","0","","","","","","","","","","","","","","","","","","","","","","","","","","","","","","","","","","","","","","","","","","","","","","","","","","","","","","","","","","","","","","","","","","","","","","","","","","","","","","","","","","","","","","","","","","","MET069MOBOB0 METAR 7070 //008 000000 261205Z AUTO 00000KT //// 10/04 A2485=","","","","","","","","","",""
"00707099999","2015-09-26T16:40:00","0.0","0.0","7070.0","WXPOD 7070, AF","FM-15","4","","39","50","","","","","67","","","","","","000","","0","","","","","","","","","","","","","","","","","","","","","","","","","","","","","","","","","","","","","","","","","","","","","","","","","","","","","","","","","","","","","","","","","","","","","","","","","","","","","","","","","","","","","","","","","","","MET069MOBOB0 METAR 7070 //008 000000 261210Z AUTO 00000KT //// 10/04 A2485=","","","","","","","","","",""
"00707099999","2015-09-26T16:45:00","0.0","0.0","7070.0","WXPOD 7070, AF","FM-15","4","","39","50","","","","","67","","","","","","000","","0","","","","","","","","","","","","","","","","","","","","","","","","","","","","","","","","","","","","","","","","","","","","","","","","","","","","","","","","","","","","","","","","","","","","","","","","","","","","","","","","","","","","","","","","","","","MET069MOBOB0 METAR 7070 //008 000000 261215Z AUTO 00000KT //// 10/04 A2485=","","","","","","","","","",""
"00707099999","2015-09-26T16:50:00","0.0","0.0","7070.0","WXPOD 7070, AF","FM-15","4","","39","52","","","","","62","","","","","","000","","0","","","","","","","","","","","","","","","","","","","","","","","","","","","","","","","","","","","","","","","","","","","","","","","","","","","","","","","","","","","","","","","","","","","","","","","","","","","","","","","","","","","","","","","","","","","MET069MOBOB0 METAR 7070 //008 000000 261220Z AUTO 00000KT //// 11/04 A2485=","","","","","","","","","",""
"00707099999","2015-09-26T16:55:00","0.0","0.0","7070.0","WXPOD 7070, AF","FM-15","4","","39","52","","","","","62","","","","","","000","","0","","","","","","","","","","","","","","","","","","","","","","","","","","","","","","","","","","","","","","","","","","","","","","","","","","","","","","","","","","","","","","","","","","","","","","","","","","","","","","","","","","","","","","","","","","","MET069MOBOB0 METAR 7070 //008 000000 261225Z AUTO 00000KT //// 11/04 A2484=","","","","","","","","","",""
"00707099999","2015-09-26T17:00:00","0.0","0.0","7070.0","WXPOD 7070, AF","FM-15","4","","39","50","","","","","67","","","","","","000","","0","","","","","","","","","","","","","","","","","","","","","","","","","","","","","","","","","","","","","","","","","","","","","","","","","","","","","","","","","","","","","","","","","","","","","","","","","","","","","","","","","","","","","","","","","","","MET069MOBOB0 METAR 7070 //008 000000 261230Z AUTO 00000KT //// 10/04 A2484=","","","","","","","","","",""
"00707099999","2015-09-26T17:05:00","0.0","0.0","7070.0","WXPOD 7070, AF","FM-15","4","","39","50","","","","","67","","","","","","000","","0","","","","","","","","","","","","","","","","","","","","","","","","","","","","","","","","","","","","","","","","","","","","","","","","","","","","","","","","","","","","","","","","","","","","","","","","","","","","","","","","","","","","","","","","","","","MET069MOBOB0 METAR 7070 //008 000000 261235Z AUTO 00000KT //// 10/04 A2484=","","","","","","","","","",""
"00707099999","2015-09-26T17:10:00","0.0","0.0","7070.0","WXPOD 7070, AF","FM-15","4","","39","50","","","","","67","","","","","","000","","0","","","","","","","","","","","","","","","","","","","","","","","","","","","","","","","","","","","","","","","","","","","","","","","","","","","","","","","","","","","","","","","","","","","","","","","","","","","","","","","","","","","","","","","","","","","MET069MOBOB0 METAR 7070 //008 000000 261240Z AUTO 00000KT //// 10/04 A2485=","","","","","","","","","",""
"00707099999","2015-09-26T17:15:00","0.0","0.0","7070.0","WXPOD 7070, AF","FM-15","4","","39","50","","","","","67","","","","","","000","","0","","","","","","","","","","","","","","","","","","","","","","","","","","","","","","","","","","","","","","","","","","","","","","","","","","","","","","","","","","","","","","","","","","","","","","","","","","","","","","","","","","","","","","","","","","","MET069MOBOB0 METAR 7070 //008 000000 261245Z AUTO 00000KT //// 10/04 A2485=","","","","","","","","","",""
"00707099999","2015-09-26T17:20:00","0.0","0.0","7070.0","WXPOD 7070, AF","FM-15","4","","39","50","","","","","67","","","","","","000","","0","","","","","","","","","","","","","","","","","","","","","","","","","","","","","","","","","","","","","","","","","","","","","","","","","","","","","","","","","","","","","","","","","","","","","","","","","","","","","","","","","","","","","","","","","","","MET069MOBOB0 METAR 7070 //008 000000 261250Z AUTO 00000KT //// 10/04 A2485=","","","","","","","","","",""
"00707099999","2015-09-26T17:25:00","0.0","0.0","7070.0","WXPOD 7070, AF","FM-15","4","","39","50","","","","","67","","","","","","000","","0","","","","","","","","","","","","","","","","","","","","","","","","","","","","","","","","","","","","","","","","","","","","","","","","","","","","","","","","","","","","","","","","","","","","","","","","","","","","","","","","","","","","","","","","","","","MET069MOBOB0 METAR 7070 //008 000000 261255Z AUTO 00000KT //// 10/04 A2485=","","","","","","","","","",""
"00707099999","2015-09-26T17:30:00","0.0","0.0","7070.0","WXPOD 7070, AF","FM-15","4","","39","50","","","","","67","","","","","","000","","0","","","","","","","","","","","","","","","","","","","","","","","","","","","","","","","","","","","","","","","","","","","","","","","","","","","","","","","","","","","","","","","","","","","","","","","","","","","","","","","","","","","","","","","","","","","MET069MOBOB0 METAR 7070 //008 000000 261300Z AUTO 00000KT //// 10/04 A2485=","","","","","","","","","",""
"00707099999","2015-09-26T17:35:00","0.0","0.0","7070.0","WXPOD 7070, AF","FM-15","4","","37","50","","","","","62","","","","","","000","","0","","","","","","","","","","","","","","","","","","","","","","","","","","","","","","","","","","","","","","","","","","","","","","","","","","","","","","","","","","","","","","","","","","","","","","","","","","","","","","","","","","","","","","","","","","","MET069MOBOB0 METAR 7070 //008 000000 261305Z AUTO 00000KT //// 10/03 A2485=","","","","","","","","","",""
"00707099999","2015-09-26T17:40:00","0.0","0.0","7070.0","WXPOD 7070, AF","FM-15","4","","37","50","","","","","62","","","","","","000","","0","","","","","","","","","","","","","","","","","","","","","","","","","","","","","","","","","","","","","","","","","","","","","","","","","","","","","","","","","","","","","","","","","","","","","","","","","","","","","","","","","","","","","","","","","","","MET069MOBOB0 METAR 7070 //008 000000 261310Z AUTO 00000KT //// 10/03 A2485=","","","","","","","","","",""
"00707099999","2015-09-26T17:45:00","0.0","0.0","7070.0","WXPOD 7070, AF","FM-15","4","","39","50","","","","","67","","","","","","000","","0","","","","","","","","","","","","","","","","","","","","","","","","","","","","","","","","","","","","","","","","","","","","","","","","","","","","","","","","","","","","","","","","","","","","","","","","","","","","","","","","","","","","","","","","","","","MET069MOBOB0 METAR 7070 //008 000000 261315Z AUTO 00000KT //// 10/04 A2485=","","","","","","","","","",""
"00707099999","2015-09-26T17:50:00","0.0","0.0","7070.0","WXPOD 7070, AF","FM-15","4","","39","50","","","","","67","","","","","","000","","0","","","","","","","","","","","","","","","","","","","","","","","","","","","","","","","","","","","","","","","","","","","","","","","","","","","","","","","","","","","","","","","","","","","","","","","","","","","","","","","","","","","","","","","","","","","MET069MOBOB0 METAR 7070 //008 000000 261320Z AUTO 00000KT //// 10/04 A2485=","","","","","","","","","",""
"00707099999","2015-09-26T17:55:00","0.0","0.0","7070.0","WXPOD 7070, AF","FM-15","4","","39","50","","","","","67","","","","","","000","","0","","","","","","","","","","","","","","","","","","","","","","","","","","","","","","","","","","","","","","","","","","","","","","","","","","","","","","","","","","","","","","","","","","","","","","","","","","","","","","","","","","","","","","","","","","","MET069MOBOB0 METAR 7070 //008 000000 261325Z AUTO 00000KT //// 10/04 A2485=","","","","","","","","","",""
