"STATION","DATE","LATITUDE","LONGITUDE","ELEVATION","NAME","REPORT_TYPE","SOURCE","HourlyAltimeterSetting","HourlyDewPointTemperature","HourlyDryBulbTemperature","HourlyPrecipitation","HourlyPresentWeatherType","HourlyPressureChange","HourlyPressureTendency","HourlyRelativeHumidity","HourlySkyConditions","HourlySeaLevelPressure","HourlyStationPressure","HourlyVisibility","HourlyWetBulbTemperature","HourlyWindDirection","HourlyWindGustSpeed","HourlyWindSpeed","Sunrise","Sunset","DailyAverageDewPointTemperature","DailyAverageDryBulbTemperature","DailyAverageRelativeHumidity","DailyAverageSeaLevelPressure","DailyAverageStationPressure","DailyAverageWetBulbTemperature","DailyAverageWindSpeed","DailyCoolingDegreeDays","DailyDepartureFromNormalAverageTemperature","DailyHeatingDegreeDays","DailyMaximumDryBulbTemperature","DailyMinimumDryBulbTemperature","DailyPeakWindDirection","DailyPeakWindSpeed","DailyPrecipitation","DailySnowDepth","DailySnowfall","DailySustainedWindDirection","DailySustainedWindSpeed","DailyWeather","MonthlyAverageRH","MonthlyDaysWithGT001Precip","MonthlyDaysWithGT010Precip","MonthlyDaysWithGT32Temp","MonthlyDaysWithGT90Temp","MonthlyDaysWithLT0Temp","MonthlyDaysWithLT32Temp","MonthlyDepartureFromNormalAverageTemperature","MonthlyDepartureFromNormalCoolingDegreeDays","MonthlyDepartureFromNormalHeatingDegreeDays","MonthlyDepartureFromNormalMaximumTemperature","MonthlyDepartureFromNormalMinimumTemperature","MonthlyDepartureFromNormalPrecipitation","MonthlyDewpointTemperature","MonthlyGreatestPrecip","MonthlyGreatestPrecipDate","MonthlyGreatestSnowDepth","MonthlyGreatestSnowDepthDate","MonthlyGreatestSnowfall","MonthlyGreatestSnowfallDate","MonthlyMaxSeaLevelPressureValue","MonthlyMaxSeaLevelPressureValueDate","MonthlyMaxSeaLevelPressureValueTime","MonthlyMaximumTemperature","MonthlyMeanTemperature","MonthlyMinSeaLevelPressureValue","MonthlyMinSeaLevelPressureValueDate","MonthlyMinSeaLevelPressureValueTime","MonthlyMinimumTemperature","MonthlySeaLevelPressure","MonthlyStationPressure","MonthlyTotalLiquidPrecipitation","MonthlyTotalSnowfall","MonthlyWetBulb","AWND","CDSD","CLDD","DSNW","HDSD","HTDD","DYTS","DYHF","NormalsCoolingDegreeDay","NormalsHeatingDegreeDay","ShortDurationEndDate005","ShortDurationEndDate010","ShortDurationEndDate015","ShortDurationEndDate020","ShortDurationEndDate030","ShortDurationEndDate045","ShortDurationEndDate060","ShortDurationEndDate080","ShortDurationEndDate100","ShortDurationEndDate120","ShortDurationEndDate150","ShortDurationEndDate180","ShortDurationPrecipitationValue005","ShortDurationPrecipitationValue010","ShortDurationPrecipitationValue015","ShortDurationPrecipitationValue020","ShortDurationPrecipitationValue030","ShortDurationPrecipitationValue045","ShortDurationPrecipitationValue060","ShortDurationPrecipitationValue080","ShortDurationPrecipitationValue100","ShortDurationPrecipitationValue120","ShortDurationPrecipitationValue150","ShortDurationPrecipitationValue180","REM","BackupDirection","BackupDistance","BackupDistanceUnit","BackupElements","BackupElevation","BackupEquipment","BackupLatitude","BackupLongitude","BackupName","WindEquipmentChangeDate"
"00702699999","2012-07-13T16:30:00","0.0","0.0","7026.0","WXPOD 7026, AF","FM-15","4","30.27","73","75","","","","","94","","","","","","110","","1","","","","","","","","","","","","","","","","","","","","","","","","","","","","","","","","","","","","","","","","","","","","","","","","","","","","","","","","","","","","","","","","","","","","","","","","","","","","","","","","","","","","","","","","","","","MET069MOBOB0 METAR 7026 //010 000000 131159Z AUTO 11001KT //// 24/23 A3027;","","","","","","","","","",""
"00702699999","2012-07-13T16:44:00","0.0","0.0","7026.0","WXPOD 7026, AF","FM-16","4","30.27","73","77","","","","","89","","","","","","000","","0","","","","","","","","","","","","","","","","","","","","","","","","","","","","","","","","","","","","","","","","","","","","","","","","","","","","","","","","","","","","","","","","","","","","","","","","","","","","","","","","","","","","","","","","","","","MET069MOBOB0 METAR 7026 //010 000000 131214Z AUTO 00000KT //// 25/23 A3027;","","","","","","","","","",""
"00702699999","2012-07-13T16:59:00","0.0","0.0","7026.0","WXPOD 7026, AF","FM-16","4","30.27","73","79","","","","","84","","","","","","190","","1","","","","","","","","","","","","","","","","","","","","","","","","","","","","","","","","","","","","","","","","","","","","","","","","","","","","","","","","","","","","","","","","","","","","","","","","","","","","","","","","","","","","","","","","","","","MET069MOBOB0 METAR 7026 //010 000000 131229Z AUTO 19001KT //// 26/23 A3027;","","","","","","","","","",""
"00702699999","2012-07-13T17:14:00","0.0","0.0","7026.0","WXPOD 7026, AF","FM-16","4","30.28","73","79","","","","","84","","","","","","080","","1","","","","","","","","","","","","","","","","","","","","","","","","","","","","","","","","","","","","","","","","","","","","","","","","","","","","","","","","","","","","","","","","","","","","","","","","","","","","","","","","","","","","","","","","","","","MET069MOBOB0 METAR 7026 //010 000000 131244Z AUTO 08001KT //// 26/23 A3028;","","","","","","","","","",""
"00702699999","2012-07-13T17:30:00","0.0","0.0","7026.0","WXPOD 7026, AF","FM-15","4","30.28","73","81","","","","","79","","","","","","000","","0","","","","","","","","","","","","","","","","","","","","","","","","","","","","","","","","","","","","","","","","","","","","","","","","","","","","","","","","","","","","","","","","","","","","","","","","","","","","","","","","","","","","","","","","","","","MET069MOBOB0 METAR 7026 //010 000000 131259Z AUTO 00000KT //// 27/23 A3028;","","","","","","","","","",""
"00702699999","2012-07-13T17:44:00","0.0","0.0","7026.0","WXPOD 7026, AF","FM-16","4","30.29","73","81","","","","","79","","","","","","090","","1","","","","","","","","","","","","","","","","","","","","","","","","","","","","","","","","","","","","","","","","","","","","","","","","","","","","","","","","","","","","","","","","","","","","","","","","","","","","","","","","","","","","","","","","","","","MET069MOBOB0 METAR 7026 //010 000000 131314Z AUTO 09001KT //// 27/23 A3029;","","","","","","","","","",""
"00702699999","2012-07-13T18:14:00","0.0","0.0","7026.0","WXPOD 7026, AF","FM-16","4","30.29","75","82","","","","","79","","","","","","150","","1","","","","","","","","","","","","","","","","","","","","","","","","","","","","","","","","","","","","","","","","","","","","","","","","","","","","","","","","","","","","","","","","","","","","","","","","","","","","","","","","","","","","","","","","","","","MET069MOBOB0 METAR 7026 //010 000000 131344Z AUTO 15001KT //// 28/24 A3029;","","","","","","","","","",""
"00702699999","2012-07-13T18:30:00","0.0","0.0","7026.0","WXPOD 7026, AF","FM-15","4","30.29","75","84","","","","","74","","","","","","000","","0","","","","","","","","","","","","","","","","","","","","","","","","","","","","","","","","","","","","","","","","","","","","","","","","","","","","","","","","","","","","","","","","","","","","","","","","","","","","","","","","","","","","","","","","","","","MET069MOBOB0 METAR 7026 //010 000000 131359Z AUTO 00000KT //// 29/24 A3029;","","","","","","","","","",""
"00702699999","2012-07-13T18:44:00","0.0","0.0","7026.0","WXPOD 7026, AF","FM-16","4","30.21","75","82","","","","","79","","","","","","120","","1","","","","","","","","","","","","","","","","","","","","","","","","","","","","","","","","","","","","","","","","","","","","","","","","","","","","","","","","","","","","","","","","","","","","","","","","","","","","","","","","","","","","","","","","","","","MET069MOBOB0 METAR 7026 //008 000000 131414Z AUTO 12001KT //// 28/24 A3021;","","","","","","","","","",""
"00702699999","2012-07-13T19:14:00","0.0","0.0","7026.0","WXPOD 7026, AF","FM-16","4","30.20","75","86","","","","","70","","","","","","100","","1","","","","","","","","","","","","","","","","","","","","","","","","","","","","","","","","","","","","","","","","","","","","","","","","","","","","","","","","","","","","","","","","","","","","","","","","","","","","","","","","","","","","","","","","","","","MET069MOBOB0 METAR 7026 //008 000000 131444Z AUTO 10001KT //// 30/24 A3020;","","","","","","","","","",""
"00702699999","2012-07-13T19:30:00","0.0","0.0","7026.0","WXPOD 7026, AF","FM-15","4","30.20","75","88","","","","","66","","","","","","100","","1","","","","","","","","","","","","","","","","","","","","","","","","","","","","","","","","","","","","","","","","","","","","","","","","","","","","","","","","","","","","","","","","","","","","","","","","","","","","","","","","","","","","","","","","","","","MET069MOBOB0 METAR 7026 //008 000000 131459Z AUTO 10001KT //// 31/24 A3020;","","","","","","","","","",""
"00702699999","2012-07-13T19:44:00","0.0","0.0","7026.0","WXPOD 7026, AF","FM-16","4","30.20","75","88","","","","","66","","","","","","000","","0","","","","","","","","","","","","","","","","","","","","","","","","","","","","","","","","","","","","","","","","","","","","","","","","","","","","","","","","","","","","","","","","","","","","","","","","","","","","","","","","","","","","","","","","","","","MET069MOBOB0 METAR 7026 //008 000000 131514Z AUTO 00000KT //// 31/24 A3020;","","","","","","","","","",""
"00702699999","2012-07-13T19:59:00","0.0","0.0","7026.0","WXPOD 7026, AF","FM-16","4","30.20","75","88","","","","","66","","","","","","VRB","","1","","","","","","","","","","","","","","","","","","","","","","","","","","","","","","","","","","","","","","","","","","","","","","","","","","","","","","","","","","","","","","","","","","","","","","","","","","","","","","","","","","","","","","","","","","","MET069MOBOB0 METAR 7026 //008 000000 131529Z AUTO VRB01KT //// 31/24 A3020;","","","","","","","","","",""
"00702699999","2012-07-13T20:14:00","0.0","0.0","7026.0","WXPOD 7026, AF","FM-16","4","30.19","77","91","","","","","63","","","","","","VRB","","1","","","","","","","","","","","","","","","","","","","","","","","","","","","","","","","","","","","","","","","","","","","","","","","","","","","","","","","","","","","","","","","","","","","","","","","","","","","","","","","","","","","","","","","","","","","MET069MOBOB0 METAR 7026 //008 000000 131544Z AUTO VRB01KT //// 33/25 A3019;","","","","","","","","","",""
"00702699999","2012-07-13T20:30:00","0.0","0.0","7026.0","WXPOD 7026, AF","FM-15","4","30.19","75","90","","","","","63","","","","","","VRB","","1","","","","","","","","","","","","","","","","","","","","","","","","","","","","","","","","","","","","","","","","","","","","","","","","","","","","","","","","","","","","","","","","","","","","","","","","","","","","","","","","","","","","","","","","","","","MET069MOBOB0 METAR 7026 //008 000000 131559Z AUTO VRB01KT //// 32/24 A3019;","","","","","","","","","",""
"00702699999","2012-07-13T20:44:00","0.0","0.0","7026.0","WXPOD 7026, AF","FM-16","4","30.19","75","91","","","","","59","","","","","","120","","1","","","","","","","","","","","","","","","","","","","","","","","","","","","","","","","","","","","","","","","","","","","","","","","","","","","","","","","","","","","","","","","","","","","","","","","","","","","","","","","","","","","","","","","","","","","MET069MOBOB0 METAR 7026 //008 000000 131614Z AUTO 12001KT //// 33/24 A3019;","","","","","","","","","",""
"00702699999","2012-07-13T21:14:00","0.0","0.0","7026.0","WXPOD 7026, AF","FM-16","4","30.18","75","91","","","","","59","","","","","","360","","1","","","","","","","","","","","","","","","","","","","","","","","","","","","","","","","","","","","","","","","","","","","","","","","","","","","","","","","","","","","","","","","","","","","","","","","","","","","","","","","","","","","","","","","","","","","MET069MOBOB0 METAR 7026 //008 000000 131644Z AUTO 36001KT //// 33/24 A3018;","","","","","","","","","",""
"00702699999","2012-07-13T21:30:00","0.0","0.0","7026.0","WXPOD 7026, AF","FM-15","4","30.18","77","86","","","","","75","","","","","","260","","1","","","","","","","","","","","","","","","","","","","","","","","","","","","","","","","","","","","","","","","","","","","","","","","","","","","","","","","","","","","","","","","","","","","","","","","","","","","","","","","","","","","","","","","","","","","MET069MOBOB0 METAR 7026 //008 000000 131659Z AUTO 26001KT //// 30/25 A3018;","","","","","","","","","",""
"00702699999","2012-07-13T21:44:00","0.0","0.0","7026.0","WXPOD 7026, AF","FM-16","4","30.20","77","84","","","","","79","","","","","","000","","0","","","","","","","","","","","","","","","","","","","","","","","","","","","","","","","","","","","","","","","","","","","","","","","","","","","","","","","","","","","","","","","","","","","","","","","","","","","","","","","","","","","","","","","","","","","MET069MOBOB0 METAR 7026 //008 000000 131714Z AUTO 00000KT //// 29/25 A3020;","","","","","","","","","",""
"00702699999","2012-07-13T21:59:00","0.0","0.0","7026.0","WXPOD 7026, AF","FM-16","4","30.20","77","79","","","","","94","","","","","","060","","1","","","","","","","","","","","","","","","","","","","","","","","","","","","","","","","","","","","","","","","","","","","","","","","","","","","","","","","","","","","","","","","","","","","","","","","","","","","","","","","","","","","","","","","","","","","MET069MOBOB0 METAR 7026 //008 000000 131729Z AUTO 06001KT //// 26/25 A3020;","","","","","","","","","",""
"00702699999","2012-07-13T22:14:00","0.0","0.0","7026.0","WXPOD 7026, AF","FM-16","4","30.18","77","79","","","","","94","","","","","","000","","0","","","","","","","","","","","","","","","","","","","","","","","","","","","","","","","","","","","","","","","","","","","","","","","","","","","","","","","","","","","","","","","","","","","","","","","","","","","","","","","","","","","","","","","","","","","MET069MOBOB0 METAR 7026 //008 000000 131744Z AUTO 00000KT //// 26/25 A3018;","","","","","","","","","",""
"00702699999","2012-07-13T22:30:00","0.0","0.0","7026.0","WXPOD 7026, AF","FM-15","4","30.18","77","81","","","","","89","","","","","","VRB","","1","","","","","","","","","","","","","","","","","","","","","","","","","","","","","","","","","","","","","","","","","","","","","","","","","","","","","","","","","","","","","","","","","","","","","","","","","","","","","","","","","","","","","","","","","","","MET069MOBOB0 METAR 7026 //008 000000 131759Z AUTO VRB01KT //// 27/25 A3018;","","","","","","","","","",""
"00702699999","2012-07-13T22:44:00","0.0","0.0","7026.0","WXPOD 7026, AF","FM-16","4","30.19","79","81","","","","","94","","","","","","050","","1","","","","","","","","","","","","","","","","","","","","","","","","","","","","","","","","","","","","","","","","","","","","","","","","","","","","","","","","","","","","","","","","","","","","","","","","","","","","","","","","","","","","","","","","","","","MET069MOBOB0 METAR 7026 //008 000000 131814Z AUTO 05001KT //// 27/26 A3019;","","","","","","","","","",""
"00702699999","2012-07-13T22:59:00","0.0","0.0","7026.0","WXPOD 7026, AF","FM-16","4","30.19","79","81","","","","","94","","","","","","000","","0","","","","","","","","","","","","","","","","","","","","","","","","","","","","","","","","","","","","","","","","","","","","","","","","","","","","","","","","","","","","","","","","","","","","","","","","","","","","","","","","","","","","","","","","","","","MET069MOBOB0 METAR 7026 //008 000000 131829Z AUTO 00000KT //// 27/26 A3019;","","","","","","","","","",""
"00702699999","2012-07-13T23:14:00","0.0","0.0","7026.0","WXPOD 7026, AF","FM-16","4","30.19","77","82","","","","","84","","","","","","000","","0","","","","","","","","","","","","","","","","","","","","","","","","","","","","","","","","","","","","","","","","","","","","","","","","","","","","","","","","","","","","","","","","","","","","","","","","","","","","","","","","","","","","","","","","","","","MET069MOBOB0 METAR 7026 //008 000000 131844Z AUTO 00000KT //// 28/25 A3019;","","","","","","","","","",""
"00702699999","2012-07-13T23:30:00","0.0","0.0","7026.0","WXPOD 7026, AF","FM-15","4","30.20","77","82","","","","","84","","","","","","000","","0","","","","","","","","","","","","","","","","","","","","","","","","","","","","","","","","","","","","","","","","","","","","","","","","","","","","","","","","","","","","","","","","","","","","","","","","","","","","","","","","","","","","","","","","","","","MET069MOBOB0 METAR 7026 //008 000000 131859Z AUTO 00000KT //// 28/25 A3020;","","","","","","","","","",""
"00702699999","2012-07-13T23:44:00","0.0","0.0","7026.0","WXPOD 7026, AF","FM-16","4","30.20","75","81","","","","","84","","","","","","060","","1","","","","","","","","","","","","","","","","","","","","","","","","","","","","","","","","","","","","","","","","","","","","","","","","","","","","","","","","","","","","","","","","","","","","","","","","","","","","","","","","","","","","","","","","","","","MET069MOBOB0 METAR 7026 //008 000000 131914Z AUTO 06001KT //// 27/24 A3020;","","","","","","","","","",""
"00702699999","2012-07-13T23:59:00","0.0","0.0","7026.0","WXPOD 7026, AF","FM-16","4","30.20","75","79","","","","","89","","","","","","000","","0","","","","","","","","","","","","","","","","","","","","","","","","","","","","","","","","","","","","","","","","","","","","","","","","","","","","","","","","","","","","","","","","","","","","","","","","","","","","","","","","","","","","","","","","","","","MET069MOBOB0 METAR 7026 //008 000000 131929Z AUTO 00000KT //// 26/24 A3020;","","","","","","","","","",""
"00702699999","2012-07-14T00:14:00","0.0","0.0","7026.0","WXPOD 7026, AF","FM-16","4","30.20","75","79","","","","","89","","","","","","000","","0","","","","","","","","","","","","","","","","","","","","","","","","","","","","","","","","","","","","","","","","","","","","","","","","","","","","","","","","","","","","","","","","","","","","","","","","","","","","","","","","","","","","","","","","","","","MET069MOBOB0 METAR 7026 //008 000000 131944Z AUTO 00000KT //// 26/24 A3020;","","","","","","","","","",""
"00702699999","2012-07-14T00:30:00","0.0","0.0","7026.0","WXPOD 7026, AF","FM-15","4","30.20","75","79","","","","","89","","","","","","000","","0","","","","","","","","","","","","","","","","","","","","","","","","","","","","","","","","","","","","","","","","","","","","","","","","","","","","","","","","","","","","","","","","","","","","","","","","","","","","","","","","","","","","","","","","","","","MET069MOBOB0 METAR 7026 //008 000000 131959Z AUTO 00000KT //// 26/24 A3020;","","","","","","","","","",""
"00702699999","2012-07-14T00:44:00","0.0","0.0","7026.0","WXPOD 7026, AF","FM-16","4","30.18","75","79","","","","","89","","","","","","050","","1","","","","","","","","","","","","","","","","","","","","","","","","","","","","","","","","","","","","","","","","","","","","","","","","","","","","","","","","","","","","","","","","","","","","","","","","","","","","","","","","","","","","","","","","","","","MET069MOBOB0 METAR 7026 //008 000000 132014Z AUTO 05001KT //// 26/24 A3018;","","","","","","","","","",""
"00702699999","2012-07-14T00:59:00","0.0","0.0","7026.0","WXPOD 7026, AF","FM-16","4","30.19","75","79","","","","","89","","","","","","000","","0","","","","","","","","","","","","","","","","","","","","","","","","","","","","","","","","","","","","","","","","","","","","","","","","","","","","","","","","","","","","","","","","","","","","","","","","","","","","","","","","","","","","","","","","","","","MET069MOBOB0 METAR 7026 //008 000000 132029Z AUTO 00000KT //// 26/24 A3019;","","","","","","","","","",""
"00702699999","2012-07-14T01:14:00","0.0","0.0","7026.0","WXPOD 7026, AF","FM-16","4","30.19","77","79","","","","","94","","","","","","080","","1","","","","","","","","","","","","","","","","","","","","","","","","","","","","","","","","","","","","","","","","","","","","","","","","","","","","","","","","","","","","","","","","","","","","","","","","","","","","","","","","","","","","","","","","","","","MET069MOBOB0 METAR 7026 //008 000000 132044Z AUTO 08001KT //// 26/25 A3019;","","","","","","","","","",""
"00702699999","2012-07-14T01:30:00","0.0","0.0","7026.0","WXPOD 7026, AF","FM-15","4","30.18","77","81","","","","","89","","","","","","270","","1","","","","","","","","","","","","","","","","","","","","","","","","","","","","","","","","","","","","","","","","","","","","","","","","","","","","","","","","","","","","","","","","","","","","","","","","","","","","","","","","","","","","","","","","","","","MET069MOBOB0 METAR 7026 //008 000000 132059Z AUTO 27001KT //// 27/25 A3018;","","","","","","","","","",""
"00702699999","2012-07-14T01:45:00","0.0","0.0","7026.0","WXPOD 7026, AF","FM-16","4","30.18","77","81","","","","","89","","","","","","000","","0","","","","","","","","","","","","","","","","","","","","","","","","","","","","","","","","","","","","","","","","","","","","","","","","","","","","","","","","","","","","","","","","","","","","","","","","","","","","","","","","","","","","","","","","","","","MET069MOBOB0 METAR 7026 //008 000000 132115Z AUTO 00000KT //// 27/25 A3018;","","","","","","","","","",""
"00702699999","2012-07-14T02:14:00","0.0","0.0","7026.0","WXPOD 7026, AF","FM-16","4","30.17","75","81","","","","","84","","","","","","000","","0","","","","","","","","","","","","","","","","","","","","","","","","","","","","","","","","","","","","","","","","","","","","","","","","","","","","","","","","","","","","","","","","","","","","","","","","","","","","","","","","","","","","","","","","","","","MET069MOBOB0 METAR 7026 //008 000000 132144Z AUTO 00000KT //// 27/24 A3017;","","","","","","","","","",""
"00702699999","2012-07-14T02:30:00","0.0","0.0","7026.0","WXPOD 7026, AF","FM-15","4","30.16","75","81","","","","","84","","","","","","250","","1","","","","","","","","","","","","","","","","","","","","","","","","","","","","","","","","","","","","","","","","","","","","","","","","","","","","","","","","","","","","","","","","","","","","","","","","","","","","","","","","","","","","","","","","","","","MET069MOBOB0 METAR 7026 //008 000000 132159Z AUTO 25001KT //// 27/24 A3016;","","","","","","","","","",""
"00702699999","2012-07-14T02:44:00","0.0","0.0","7026.0","WXPOD 7026, AF","FM-16","4","30.16","75","81","","","","","84","","","","","","000","","0","","","","","","","","","","","","","","","","","","","","","","","","","","","","","","","","","","","","","","","","","","","","","","","","","","","","","","","","","","","","","","","","","","","","","","","","","","","","","","","","","","","","","","","","","","","MET069MOBOB0 METAR 7026 //008 000000 132214Z AUTO 00000KT //// 27/24 A3016;","","","","","","","","","",""
"00702699999","2012-07-14T02:59:00","0.0","0.0","7026.0","WXPOD 7026, AF","FM-16","4","30.16","75","81","","","","","84","","","","","","350","","1","","","","","","","","","","","","","","","","","","","","","","","","","","","","","","","","","","","","","","","","","","","","","","","","","","","","","","","","","","","","","","","","","","","","","","","","","","","","","","","","","","","","","","","","","","","MET069MOBOB0 METAR 7026 //008 000000 132229Z AUTO 35001KT //// 27/24 A3016;","","","","","","","","","",""
"00702699999","2012-07-14T03:14:00","0.0","0.0","7026.0","WXPOD 7026, AF","FM-16","4","30.16","75","79","","","","","89","","","","","","000","","0","","","","","","","","","","","","","","","","","","","","","","","","","","","","","","","","","","","","","","","","","","","","","","","","","","","","","","","","","","","","","","","","","","","","","","","","","","","","","","","","","","","","","","","","","","","MET069MOBOB0 METAR 7026 //008 000000 132244Z AUTO 00000KT //// 26/24 A3016;","","","","","","","","","",""
"00702699999","2012-07-14T03:30:00","0.0","0.0","7026.0","WXPOD 7026, AF","FM-15","4","30.16","75","79","","","","","89","","","","","","VRB","","1","","","","","","","","","","","","","","","","","","","","","","","","","","","","","","","","","","","","","","","","","","","","","","","","","","","","","","","","","","","","","","","","","","","","","","","","","","","","","","","","","","","","","","","","","","","MET069MOBOB0 METAR 7026 //008 000000 132259Z AUTO VRB01KT //// 26/24 A3016;","","","","","","","","","",""
"00702699999","2012-07-14T03:44:00","0.0","0.0","7026.0","WXPOD 7026, AF","FM-16","4","30.15","73","79","","","","","84","","","","","","100","","1","","","","","","","","","","","","","","","","","","","","","","","","","","","","","","","","","","","","","","","","","","","","","","","","","","","","","","","","","","","","","","","","","","","","","","","","","","","","","","","","","","","","","","","","","","","MET069MOBOB0 METAR 7026 //008 000000 132314Z AUTO 10001KT //// 26/23 A3015;","","","","","","","","","",""
"00702699999","2012-07-14T03:59:00","0.0","0.0","7026.0","WXPOD 7026, AF","FM-16","4","30.16","75","79","","","","","89","","","","","","000","","0","","","","","","","","","","","","","","","","","","","","","","","","","","","","","","","","","","","","","","","","","","","","","","","","","","","","","","","","","","","","","","","","","","","","","","","","","","","","","","","","","","","","","","","","","","","MET069MOBOB0 METAR 7026 //008 000000 132329Z AUTO 00000KT //// 26/24 A3016;","","","","","","","","","",""
"00702699999","2012-07-14T04:14:00","0.0","0.0","7026.0","WXPOD 7026, AF","FM-16","4","30.16","75","79","","","","","89","","","","","","270","","1","","","","","","","","","","","","","","","","","","","","","","","","","","","","","","","","","","","","","","","","","","","","","","","","","","","","","","","","","","","","","","","","","","","","","","","","","","","","","","","","","","","","","","","","","","","MET069MOBOB0 METAR 7026 //008 000000 132344Z AUTO 27001KT //// 26/24 A3016;","","","","","","","","","",""
"00702699999","2012-07-14T04:30:00","0.0","0.0","7026.0","WXPOD 7026, AF","FM-15","4","30.17","75","79","","","","","89","","","","","","000","","0","","","","","","","","","","","","","","","","","","","","","","","","","","","","","","","","","","","","","","","","","","","","","","","","","","","","","","","","","","","","","","","","","","","","","","","","","","","","","","","","","","","","","","","","","","","MET069MOBOB0 METAR 7026 //008 000000 132359Z AUTO 00000KT //// 26/24 A3017;","","","","","","","","","",""
"00702699999","2012-07-14T04:44:00","0.0","0.0","7026.0","WXPOD 7026, AF","FM-16","4","30.18","75","77","","","","","94","","","","","","000","","0","","","","","","","","","","","","","","","","","","","","","","","","","","","","","","","","","","","","","","","","","","","","","","","","","","","","","","","","","","","","","","","","","","","","","","","","","","","","","","","","","","","","","","","","","","","MET069MOBOB0 METAR 7026 //008 000000 140014Z AUTO 00000KT //// 25/24 A3018;","","","","","","","","","",""
"00702699999","2012-07-14T05:01:00","0.0","0.0","7026.0","WXPOD 7026, AF","FM-16","4","30.18","75","77","","","","","94","","","","","","000","","0","","","","","","","","","","","","","","","","","","","","","","","","","","","","","","","","","","","","","","","","","","","","","","","","","","","","","","","","","","","","","","","","","","","","","","","","","","","","","","","","","","","","","","","","","","","MET069MOBOB0 METAR 7026 //008 000000 140031Z AUTO 00000KT //// 25/24 A3018;","","","","","","","","","",""
"00702699999","2012-07-14T05:30:00","0.0","0.0","7026.0","WXPOD 7026, AF","FM-15","4","30.19","75","77","","","","","94","","","","","","000","","0","","","","","","","","","","","","","","","","","","","","","","","","","","","","","","","","","","","","","","","","","","","","","","","","","","","","","","","","","","","","","","","","","","","","","","","","","","","","","","","","","","","","","","","","","","","MET069MOBOB0 METAR 7026 //008 000000 140059Z AUTO 00000KT //// 25/24 A3019;","","","","","","","","","",""
"00702699999","2012-07-14T05:44:00","0.0","0.0","7026.0","WXPOD 7026, AF","FM-16","4","30.19","75","77","","","","","94","","","","","","000","","0","","","","","","","","","","","","","","","","","","","","","","","","","","","","","","","","","","","","","","","","","","","","","","","","","","","","","","","","","","","","","","","","","","","","","","","","","","","","","","","","","","","","","","","","","","","MET069MOBOB0 METAR 7026 //008 000000 140114Z AUTO 00000KT //// 25/24 A3019;","","","","","","","","","",""
"00702699999","2012-07-14T05:59:00","0.0","0.0","7026.0","WXPOD 7026, AF","FM-16","4","30.19","75","77","","","","","94","","","","","","000","","0","","","","","","","","","","","","","","","","","","","","","","","","","","","","","","","","","","","","","","","","","","","","","","","","","","","","","","","","","","","","","","","","","","","","","","","","","","","","","","","","","","","","","","","","","","","MET069MOBOB0 METAR 7026 //008 000000 140129Z AUTO 00000KT //// 25/24 A3019;","","","","","","","","","",""
"00702699999","2012-07-14T06:14:00","0.0","0.0","7026.0","WXPOD 7026, AF","FM-16","4","30.19","75","77","","","","","94","","","","","","000","","0","","","","","","","","","","","","","","","","","","","","","","","","","","","","","","","","","","","","","","","","","","","","","","","","","","","","","","","","","","","","","","","","","","","","","","","","","","","","","","","","","","","","","","","","","","","MET069MOBOB0 METAR 7026 //008 000000 140144Z AUTO 00000KT //// 25/24 A3019;","","","","","","","","","",""
"00702699999","2012-07-14T06:30:00","0.0","0.0","7026.0","WXPOD 7026, AF","FM-15","4","30.20","75","75","","","","","100","","","","","","000","","0","","","","","","","","","","","","","","","","","","","","","","","","","","","","","","","","","","","","","","","","","","","","","","","","","","","","","","","","","","","","","","","","","","","","","","","","","","","","","","","","","","","","","","","","","","","MET069MOBOB0 METAR 7026 //008 000000 140159Z AUTO 00000KT //// 24/24 A3020;","","","","","","","","","",""
"00702699999","2012-07-14T06:44:00","0.0","0.0","7026.0","WXPOD 7026, AF","FM-16","4","30.20","75","75","","","","","100","","","","","","000","","0","","","","","","","","","","","","","","","","","","","","","","","","","","","","","","","","","","","","","","","","","","","","","","","","","","","","","","","","","","","","","","","","","","","","","","","","","","","","","","","","","","","","","","","","","","","MET069MOBOB0 METAR 7026 //008 000000 140214Z AUTO 00000KT //// 24/24 A3020;","","","","","","","","","",""
"00702699999","2012-07-14T06:59:00","0.0","0.0","7026.0","WXPOD 7026, AF","FM-16","4","30.20","75","75","","","","","100","","","","","","000","","0","","","","","","","","","","","","","","","","","","","","","","","","","","","","","","","","","","","","","","","","","","","","","","","","","","","","","","","","","","","","","","","","","","","","","","","","","","","","","","","","","","","","","","","","","","","MET069MOBOB0 METAR 7026 //008 000000 140229Z AUTO 00000KT //// 24/24 A3020;","","","","","","","","","",""
"00702699999","2012-07-14T07:14:00","0.0","0.0","7026.0","WXPOD 7026, AF","FM-16","4","30.20","75","77","","","","","94","","","","","","000","","0","","","","","","","","","","","","","","","","","","","","","","","","","","","","","","","","","","","","","","","","","","","","","","","","","","","","","","","","","","","","","","","","","","","","","","","","","","","","","","","","","","","","","","","","","","","MET069MOBOB0 METAR 7026 //008 000000 140244Z AUTO 00000KT //// 25/24 A3020;","","","","","","","","","",""
"00702699999","2012-07-14T07:30:00","0.0","0.0","7026.0","WXPOD 7026, AF","FM-15","4","30.21","75","75","","","","","100","","","","","","000","","0","","","","","","","","","","","","","","","","","","","","","","","","","","","","","","","","","","","","","","","","","","","","","","","","","","","","","","","","","","","","","","","","","","","","","","","","","","","","","","","","","","","","","","","","","","","MET069MOBOB0 METAR 7026 //008 000000 140259Z AUTO 00000KT //// 24/24 A3021;","","","","","","","","","",""
"00702699999","2012-07-14T07:44:00","0.0","0.0","7026.0","WXPOD 7026, AF","FM-16","4","30.21","75","75","","","","","100","","","","","","000","","0","","","","","","","","","","","","","","","","","","","","","","","","","","","","","","","","","","","","","","","","","","","","","","","","","","","","","","","","","","","","","","","","","","","","","","","","","","","","","","","","","","","","","","","","","","","MET069MOBOB0 METAR 7026 //008 000000 140314Z AUTO 00000KT //// 24/24 A3021;","","","","","","","","","",""
"00702699999","2012-07-14T08:14:00","0.0","0.0","7026.0","WXPOD 7026, AF","FM-16","4","30.21","75","75","","","","","100","","","","","","000","","0","","","","","","","","","","","","","","","","","","","","","","","","","","","","","","","","","","","","","","","","","","","","","","","","","","","","","","","","","","","","","","","","","","","","","","","","","","","","","","","","","","","","","","","","","","","MET069MOBOB0 METAR 7026 //008 000000 140344Z AUTO 00000KT //// 24/24 A3021;","","","","","","","","","",""
"00702699999","2012-07-14T08:30:00","0.0","0.0","7026.0","WXPOD 7026, AF","FM-15","4","30.21","75","75","","","","","100","","","","","","000","","0","","","","","","","","","","","","","","","","","","","","","","","","","","","","","","","","","","","","","","","","","","","","","","","","","","","","","","","","","","","","","","","","","","","","","","","","","","","","","","","","","","","","","","","","","","","MET069MOBOB0 METAR 7026 //008 000000 140359Z AUTO 00000KT //// 24/24 A3021;","","","","","","","","","",""
"00702699999","2012-07-14T08:44:00","0.0","0.0","7026.0","WXPOD 7026, AF","FM-16","4","30.21","75","77","","","","","94","","","","","","080","","1","","","","","","","","","","","","","","","","","","","","","","","","","","","","","","","","","","","","","","","","","","","","","","","","","","","","","","","","","","","","","","","","","","","","","","","","","","","","","","","","","","","","","","","","","","","MET069MOBOB0 METAR 7026 //008 000000 140414Z AUTO 08001KT //// 25/24 A3021;","","","","","","","","","",""
"00702699999","2012-07-14T08:59:00","0.0","0.0","7026.0","WXPOD 7026, AF","FM-16","4","30.21","75","77","","","","","94","","","","","","000","","0","","","","","","","","","","","","","","","","","","","","","","","","","","","","","","","","","","","","","","","","","","","","","","","","","","","","","","","","","","","","","","","","","","","","","","","","","","","","","","","","","","","","","","","","","","","MET069MOBOB0 METAR 7026 //008 000000 140429Z AUTO 00000KT //// 25/24 A3021;","","","","","","","","","",""
"00702699999","2012-07-14T09:14:00","0.0","0.0","7026.0","WXPOD 7026, AF","FM-16","4","30.21","75","77","","","","","94","","","","","","100","","1","","","","","","","","","","","","","","","","","","","","","","","","","","","","","","","","","","","","","","","","","","","","","","","","","","","","","","","","","","","","","","","","","","","","","","","","","","","","","","","","","","","","","","","","","","","MET069MOBOB0 METAR 7026 //008 000000 140444Z AUTO 10001KT //// 25/24 A3021;","","","","","","","","","",""
"00702699999","2012-07-14T09:30:00","0.0","0.0","7026.0","WXPOD 7026, AF","FM-15","4","30.21","75","77","","","","","94","","","","","","280","","1","","","","","","","","","","","","","","","","","","","","","","","","","","","","","","","","","","","","","","","","","","","","","","","","","","","","","","","","","","","","","","","","","","","","","","","","","","","","","","","","","","","","","","","","","","","MET069MOBOB0 METAR 7026 //008 000000 140459Z AUTO 28001KT //// 25/24 A3021;","","","","","","","","","",""
"00702699999","2012-07-14T09:44:00","0.0","0.0","7026.0","WXPOD 7026, AF","FM-16","4","30.21","75","77","","","","","94","","","","","","090","","1","","","","","","","","","","","","","","","","","","","","","","","","","","","","","","","","","","","","","","","","","","","","","","","","","","","","","","","","","","","","","","","","","","","","","","","","","","","","","","","","","","","","","","","","","","","MET069MOBOB0 METAR 7026 //008 000000 140514Z AUTO 09001KT //// 25/24 A3021;","","","","","","","","","",""
"00702699999","2012-07-14T09:59:00","0.0","0.0","7026.0","WXPOD 7026, AF","FM-16","4","30.21","75","77","","","","","94","","","","","","000","","0","","","","","","","","","","","","","","","","","","","","","","","","","","","","","","","","","","","","","","","","","","","","","","","","","","","","","","","","","","","","","","","","","","","","","","","","","","","","","","","","","","","","","","","","","","","MET069MOBOB0 METAR 7026 //008 000000 140529Z AUTO 00000KT //// 25/24 A3021;","","","","","","","","","",""
"00702699999","2012-07-14T10:14:00","0.0","0.0","7026.0","WXPOD 7026, AF","FM-16","4","30.21","75","77","","","","","94","","","","","","000","","0","","","","","","","","","","","","","","","","","","","","","","","","","","","","","","","","","","","","","","","","","","","","","","","","","","","","","","","","","","","","","","","","","","","","","","","","","","","","","","","","","","","","","","","","","","","MET069MOBOB0 METAR 7026 //008 000000 140544Z AUTO 00000KT //// 25/24 A3021;","","","","","","","","","",""
"00702699999","2012-07-14T10:30:00","0.0","0.0","7026.0","WXPOD 7026, AF","FM-15","4","30.20","75","77","","","","","94","","","","","","000","","0","","","","","","","","","","","","","","","","","","","","","","","","","","","","","","","","","","","","","","","","","","","","","","","","","","","","","","","","","","","","","","","","","","","","","","","","","","","","","","","","","","","","","","","","","","","MET069MOBOB0 METAR 7026 //008 000000 140559Z AUTO 00000KT //// 25/24 A3020;","","","","","","","","","",""
"00702699999","2012-07-14T10:44:00","0.0","0.0","7026.0","WXPOD 7026, AF","FM-16","4","30.20","75","77","","","","","94","","","","","","000","","0","","","","","","","","","","","","","","","","","","","","","","","","","","","","","","","","","","","","","","","","","","","","","","","","","","","","","","","","","","","","","","","","","","","","","","","","","","","","","","","","","","","","","","","","","","","MET069MOBOB0 METAR 7026 //008 000000 140614Z AUTO 00000KT //// 25/24 A3020;","","","","","","","","","",""
"00702699999","2012-07-14T10:59:00","0.0","0.0","7026.0","WXPOD 7026, AF","FM-16","4","30.20","75","75","","","","","100","","","","","","000","","0","","","","","","","","","","","","","","","","","","","","","","","","","","","","","","","","","","","","","","","","","","","","","","","","","","","","","","","","","","","","","","","","","","","","","","","","","","","","","","","","","","","","","","","","","","","MET069MOBOB0 METAR 7026 //008 000000 140629Z AUTO 00000KT //// 24/24 A3020;","","","","","","","","","",""
"00702699999","2012-07-14T11:14:00","0.0","0.0","7026.0","WXPOD 7026, AF","FM-16","4","30.19","75","75","","","","","100","","","","","","000","","0","","","","","","","","","","","","","","","","","","","","","","","","","","","","","","","","","","","","","","","","","","","","","","","","","","","","","","","","","","","","","","","","","","","","","","","","","","","","","","","","","","","","","","","","","","","MET069MOBOB0 METAR 7026 //008 000000 140644Z AUTO 00000KT //// 24/24 A3019;","","","","","","","","","",""
"00702699999","2012-07-14T11:30:00","0.0","0.0","7026.0","WXPOD 7026, AF","FM-15","4","30.20","75","75","","","","","100","","","","","","000","","0","","","","","","","","","","","","","","","","","","","","","","","","","","","","","","","","","","","","","","","","","","","","","","","","","","","","","","","","","","","","","","","","","","","","","","","","","","","","","","","","","","","","","","","","","","","MET069MOBOB0 METAR 7026 //008 000000 140659Z AUTO 00000KT //// 24/24 A3020;","","","","","","","","","",""
"00702699999","2012-07-14T11:44:00","0.0","0.0","7026.0","WXPOD 7026, AF","FM-16","4","30.20","75","75","","","","","100","","","","","","280","","1","","","","","","","","","","","","","","","","","","","","","","","","","","","","","","","","","","","","","","","","","","","","","","","","","","","","","","","","","","","","","","","","","","","","","","","","","","","","","","","","","","","","","","","","","","","MET069MOBOB0 METAR 7026 //008 000000 140714Z AUTO 28001KT //// 24/24 A3020;","","","","","","","","","",""
"00702699999","2012-07-14T11:59:00","0.0","0.0","7026.0","WXPOD 7026, AF","FM-16","4","30.19","75","75","","","","","100","","","","","","000","","0","","","","","","","","","","","","","","","","","","","","","","","","","","","","","","","","","","","","","","","","","","","","","","","","","","","","","","","","","","","","","","","","","","","","","","","","","","","","","","","","","","","","","","","","","","","MET069MOBOB0 METAR 7026 //008 000000 140729Z AUTO 00000KT //// 24/24 A3019;","","","","","","","","","",""
"00702699999","2012-07-14T12:14:00","0.0","0.0","7026.0","WXPOD 7026, AF","FM-16","4","30.19","75","75","","","","","100","","","","","","000","","0","","","","","","","","","","","","","","","","","","","","","","","","","","","","","","","","","","","","","","","","","","","","","","","","","","","","","","","","","","","","","","","","","","","","","","","","","","","","","","","","","","","","","","","","","","","MET069MOBOB0 METAR 7026 //008 000000 140744Z AUTO 00000KT //// 24/24 A3019;","","","","","","","","","",""
"00702699999","2012-07-14T12:30:00","0.0","0.0","7026.0","WXPOD 7026, AF","FM-15","4","30.18","75","77","","","","","94","","","","","","000","","0","","","","","","","","","","","","","","","","","","","","","","","","","","","","","","","","","","","","","","","","","","","","","","","","","","","","","","","","","","","","","","","","","","","","","","","","","","","","","","","","","","","","","","","","","","","MET069MOBOB0 METAR 7026 //008 000000 140759Z AUTO 00000KT //// 25/24 A3018;","","","","","","","","","",""
"00702699999","2012-07-14T12:44:00","0.0","0.0","7026.0","WXPOD 7026, AF","FM-16","4","30.18","75","77","","","","","94","","","","","","000","","0","","","","","","","","","","","","","","","","","","","","","","","","","","","","","","","","","","","","","","","","","","","","","","","","","","","","","","","","","","","","","","","","","","","","","","","","","","","","","","","","","","","","","","","","","","","MET069MOBOB0 METAR 7026 //008 000000 140814Z AUTO 00000KT //// 25/24 A3018;","","","","","","","","","",""
"00702699999","2012-07-14T12:59:00","0.0","0.0","7026.0","WXPOD 7026, AF","FM-16","4","30.18","75","77","","","","","94","","","","","","000","","0","","","","","","","","","","","","","","","","","","","","","","","","","","","","","","","","","","","","","","","","","","","","","","","","","","","","","","","","","","","","","","","","","","","","","","","","","","","","","","","","","","","","","","","","","","","MET069MOBOB0 METAR 7026 //008 000000 140829Z AUTO 00000KT //// 25/24 A3018;","","","","","","","","","",""
"00702699999","2012-07-14T13:14:00","0.0","0.0","7026.0","WXPOD 7026, AF","FM-16","4","30.18","75","77","","","","","94","","","","","","000","","0","","","","","","","","","","","","","","","","","","","","","","","","","","","","","","","","","","","","","","","","","","","","","","","","","","","","","","","","","","","","","","","","","","","","","","","","","","","","","","","","","","","","","","","","","","","MET069MOBOB0 METAR 7026 //008 000000 140844Z AUTO 00000KT //// 25/24 A3018;","","","","","","","","","",""
"00702699999","2012-07-14T13:44:00","0.0","0.0","7026.0","WXPOD 7026, AF","FM-16","4","30.19","75","77","","","","","94","","","","","","000","","0","","","","","","","","","","","","","","","","","","","","","","","","","","","","","","","","","","","","","","","","","","","","","","","","","","","","","","","","","","","","","","","","","","","","","","","","","","","","","","","","","","","","","","","","","","","MET069MOBOB0 METAR 7026 //008 000000 140914Z AUTO 00000KT //// 25/24 A3019;","","","","","","","","","",""
"00702699999","2012-07-14T13:59:00","0.0","0.0","7026.0","WXPOD 7026, AF","FM-16","4","30.19","75","77","","","","","94","","","","","","000","","0","","","","","","","","","","","","","","","","","","","","","","","","","","","","","","","","","","","","","","","","","","","","","","","","","","","","","","","","","","","","","","","","","","","","","","","","","","","","","","","","","","","","","","","","","","","MET069MOBOB0 METAR 7026 //008 000000 140929Z AUTO 00000KT //// 25/24 A3019;","","","","","","","","","",""
"00702699999","2012-07-14T14:14:00","0.0","0.0","7026.0","WXPOD 7026, AF","FM-16","4","30.19","75","77","","","","","94","","","","","","100","","1","","","","","","","","","","","","","","","","","","","","","","","","","","","","","","","","","","","","","","","","","","","","","","","","","","","","","","","","","","","","","","","","","","","","","","","","","","","","","","","","","","","","","","","","","","","MET069MOBOB0 METAR 7026 //008 000000 140944Z AUTO 10001KT //// 25/24 A3019;","","","","","","","","","",""
"00702699999","2012-07-14T14:30:00","0.0","0.0","7026.0","WXPOD 7026, AF","FM-15","4","30.20","75","77","","","","","94","","","","","","100","","1","","","","","","","","","","","","","","","","","","","","","","","","","","","","","","","","","","","","","","","","","","","","","","","","","","","","","","","","","","","","","","","","","","","","","","","","","","","","","","","","","","","","","","","","","","","MET069MOBOB0 METAR 7026 //008 000000 140959Z AUTO 10001KT //// 25/24 A3020;","","","","","","","","","",""
"00702699999","2012-07-14T14:44:00","0.0","0.0","7026.0","WXPOD 7026, AF","FM-16","4","30.20","75","77","","","","","94","","","","","","100","","1","","","","","","","","","","","","","","","","","","","","","","","","","","","","","","","","","","","","","","","","","","","","","","","","","","","","","","","","","","","","","","","","","","","","","","","","","","","","","","","","","","","","","","","","","","","MET069MOBOB0 METAR 7026 //008 000000 141014Z AUTO 10001KT //// 25/24 A3020;","","","","","","","","","",""
"00702699999","2012-07-14T14:59:00","0.0","0.0","7026.0","WXPOD 7026, AF","FM-16","4","30.19","75","77","","","","","94","","","","","","080","","1","","","","","","","","","","","","","","","","","","","","","","","","","","","","","","","","","","","","","","","","","","","","","","","","","","","","","","","","","","","","","","","","","","","","","","","","","","","","","","","","","","","","","","","","","","","MET069MOBOB0 METAR 7026 //008 000000 141029Z AUTO 08001KT //// 25/24 A3019;","","","","","","","","","",""
"00702699999","2012-07-14T15:14:00","0.0","0.0","7026.0","WXPOD 7026, AF","FM-16","4","30.20","75","77","","","","","94","","","","","","000","","0","","","","","","","","","","","","","","","","","","","","","","","","","","","","","","","","","","","","","","","","","","","","","","","","","","","","","","","","","","","","","","","","","","","","","","","","","","","","","","","","","","","","","","","","","","","MET069MOBOB0 METAR 7026 //008 000000 141044Z AUTO 00000KT //// 25/24 A3020;","","","","","","","","","",""
"00702699999","2012-07-14T15:30:00","0.0","0.0","7026.0","WXPOD 7026, AF","FM-15","4","30.21","75","75","","","","","100","","","","","","080","","1","","","","","","","","","","","","","","","","","","","","","","","","","","","","","","","","","","","","","","","","","","","","","","","","","","","","","","","","","","","","","","","","","","","","","","","","","","","","","","","","","","","","","","","","","","","MET069MOBOB0 METAR 7026 //008 000000 141059Z AUTO 08001KT //// 24/24 A3021;","","","","","","","","","",""
"00702699999","2012-07-14T15:44:00","0.0","0.0","7026.0","WXPOD 7026, AF","FM-16","4","30.21","75","75","","","","","100","","","","","","000","","0","","","","","","","","","","","","","","","","","","","","","","","","","","","","","","","","","","","","","","","","","","","","","","","","","","","","","","","","","","","","","","","","","","","","","","","","","","","","","","","","","","","","","","","","","","","MET069MOBOB0 METAR 7026 //008 000000 141114Z AUTO 00000KT //// 24/24 A3021;","","","","","","","","","",""
"00702699999","2012-07-14T15:59:00","0.0","0.0","7026.0","WXPOD 7026, AF","FM-16","4","30.21","75","75","","","","","100","","","","","","090","","1","","","","","","","","","","","","","","","","","","","","","","","","","","","","","","","","","","","","","","","","","","","","","","","","","","","","","","","","","","","","","","","","","","","","","","","","","","","","","","","","","","","","","","","","","","","MET069MOBOB0 METAR 7026 //008 000000 141129Z AUTO 09001KT //// 24/24 A3021;","","","","","","","","","",""
"00702699999","2012-07-14T16:14:00","0.0","0.0","7026.0","WXPOD 7026, AF","FM-16","4","30.21","75","77","","","","","94","","","","","","000","","0","","","","","","","","","","","","","","","","","","","","","","","","","","","","","","","","","","","","","","","","","","","","","","","","","","","","","","","","","","","","","","","","","","","","","","","","","","","","","","","","","","","","","","","","","","","MET069MOBOB0 METAR 7026 //008 000000 141144Z AUTO 00000KT //// 25/24 A3021;","","","","","","","","","",""
"00702699999","2012-07-14T16:30:00","0.0","0.0","7026.0","WXPOD 7026, AF","FM-15","4","30.22","75","77","","","","","94","","","","","","000","","0","","","","","","","","","","","","","","","","","","","","","","","","","","","","","","","","","","","","","","","","","","","","","","","","","","","","","","","","","","","","","","","","","","","","","","","","","","","","","","","","","","","","","","","","","","","MET069MOBOB0 METAR 7026 //008 000000 141159Z AUTO 00000KT //// 25/24 A3022;","","","","","","","","","",""
"00702699999","2012-07-14T16:44:00","0.0","0.0","7026.0","WXPOD 7026, AF","FM-16","4","30.22","75","79","","","","","89","","","","","","000","","0","","","","","","","","","","","","","","","","","","","","","","","","","","","","","","","","","","","","","","","","","","","","","","","","","","","","","","","","","","","","","","","","","","","","","","","","","","","","","","","","","","","","","","","","","","","MET069MOBOB0 METAR 7026 //008 000000 141214Z AUTO 00000KT //// 26/24 A3022;","","","","","","","","","",""
"00702699999","2012-07-14T16:59:00","0.0","0.0","7026.0","WXPOD 7026, AF","FM-16","4","30.22","75","79","","","","","89","","","","","","100","","1","","","","","","","","","","","","","","","","","","","","","","","","","","","","","","","","","","","","","","","","","","","","","","","","","","","","","","","","","","","","","","","","","","","","","","","","","","","","","","","","","","","","","","","","","","","MET069MOBOB0 METAR 7026 //008 000000 141229Z AUTO 10001KT //// 26/24 A3022;","","","","","","","","","",""
"00702699999","2012-07-14T17:14:00","0.0","0.0","7026.0","WXPOD 7026, AF","FM-16","4","30.23","75","81","","","","","84","","","","","","000","","0","","","","","","","","","","","","","","","","","","","","","","","","","","","","","","","","","","","","","","","","","","","","","","","","","","","","","","","","","","","","","","","","","","","","","","","","","","","","","","","","","","","","","","","","","","","MET069MOBOB0 METAR 7026 //008 000000 141244Z AUTO 00000KT //// 27/24 A3023;","","","","","","","","","",""
"00702699999","2012-07-14T17:30:00","0.0","0.0","7026.0","WXPOD 7026, AF","FM-15","4","30.24","77","81","","","","","89","","","","","","000","","0","","","","","","","","","","","","","","","","","","","","","","","","","","","","","","","","","","","","","","","","","","","","","","","","","","","","","","","","","","","","","","","","","","","","","","","","","","","","","","","","","","","","","","","","","","","MET069MOBOB0 METAR 7026 //008 000000 141259Z AUTO 00000KT //// 27/25 A3024;","","","","","","","","","",""
"00702699999","2012-07-14T17:44:00","0.0","0.0","7026.0","WXPOD 7026, AF","FM-16","4","30.24","77","82","","","","","84","","","","","","250","","1","","","","","","","","","","","","","","","","","","","","","","","","","","","","","","","","","","","","","","","","","","","","","","","","","","","","","","","","","","","","","","","","","","","","","","","","","","","","","","","","","","","","","","","","","","","MET069MOBOB0 METAR 7026 //008 000000 141314Z AUTO 25001KT //// 28/25 A3024;","","","","","","","","","",""
"00702699999","2012-07-14T18:14:00","0.0","0.0","7026.0","WXPOD 7026, AF","FM-16","4","30.25","75","86","","","","","70","","","","","","000","","0","","","","","","","","","","","","","","","","","","","","","","","","","","","","","","","","","","","","","","","","","","","","","","","","","","","","","","","","","","","","","","","","","","","","","","","","","","","","","","","","","","","","","","","","","","","MET069MOBOB0 METAR 7026 //008 000000 141344Z AUTO 00000KT //// 30/24 A3025;","","","","","","","","","",""
"00702699999","2012-07-14T18:30:00","0.0","0.0","7026.0","WXPOD 7026, AF","FM-15","4","30.25","79","86","","","","","79","","","","","","260","","1","","","","","","","","","","","","","","","","","","","","","","","","","","","","","","","","","","","","","","","","","","","","","","","","","","","","","","","","","","","","","","","","","","","","","","","","","","","","","","","","","","","","","","","","","","","MET069MOBOB0 METAR 7026 //008 000000 141359Z AUTO 26001KT //// 30/26 A3025;","","","","","","","","","",""
"00702699999","2012-07-14T18:44:00","0.0","0.0","7026.0","WXPOD 7026, AF","FM-16","4","30.24","75","90","","","","","63","","","","","","VRB","","1","","","","","","","","","","","","","","","","","","","","","","","","","","","","","","","","","","","","","","","","","","","","","","","","","","","","","","","","","","","","","","","","","","","","","","","","","","","","","","","","","","","","","","","","","","","MET069MOBOB0 METAR 7026 //008 000000 141414Z AUTO VRB01KT //// 32/24 A3024;","","","","","","","","","",""
"00702699999","2012-07-14T19:14:00","0.0","0.0","7026.0","WXPOD 7026, AF","FM-16","4","30.24","79","95","","","","","60","","","","","","000","","0","","","","","","","","","","","","","","","","","","","","","","","","","","","","","","","","","","","","","","","","","","","","","","","","","","","","","","","","","","","","","","","","","","","","","","","","","","","","","","","","","","","","","","","","","","","MET069MOBOB0 METAR 7026 //008 000000 141444Z AUTO 00000KT //// 35/26 A3024;","","","","","","","","","",""
"00702699999","2012-07-14T19:30:00","0.0","0.0","7026.0","WXPOD 7026, AF","FM-15","4","30.24","79","95","","","","","60","","","","","","VRB","","5","","","","","","","","","","","","","","","","","","","","","","","","","","","","","","","","","","","","","","","","","","","","","","","","","","","","","","","","","","","","","","","","","","","","","","","","","","","","","","","","","","","","","","","","","","","MET069MOBOB0 METAR 7026 //008 000000 141459Z AUTO VRB04KT //// 35/26 A3024;","","","","","","","","","",""
"00702699999","2012-07-14T19:44:00","0.0","0.0","7026.0","WXPOD 7026, AF","FM-16","4","30.24","75","93","","","","","56","","","","","","VRB","","3","","","","","","","","","","","","","","","","","","","","","","","","","","","","","","","","","","","","","","","","","","","","","","","","","","","","","","","","","","","","","","","","","","","","","","","","","","","","","","","","","","","","","","","","","","","MET069MOBOB0 METAR 7026 //008 000000 141514Z AUTO VRB03KT //// 34/24 A3024;","","","","","","","","","",""
"00702699999","2012-07-14T19:59:00","0.0","0.0","7026.0","WXPOD 7026, AF","FM-16","4","30.24","73","93","","","","","53","","","","","","000","","0","","","","","","","","","","","","","","","","","","","","","","","","","","","","","","","","","","","","","","","","","","","","","","","","","","","","","","","","","","","","","","","","","","","","","","","","","","","","","","","","","","","","","","","","","","","MET069MOBOB0 METAR 7026 //008 000000 141529Z AUTO 00000KT //// 34/23 A3024;","","","","","","","","","",""
"00702699999","2012-07-14T20:14:00","0.0","0.0","7026.0","WXPOD 7026, AF","FM-16","4","30.24","73","97","","","","","47","","","","","","VRB","","2","","","","","","","","","","","","","","","","","","","","","","","","","","","","","","","","","","","","","","","","","","","","","","","","","","","","","","","","","","","","","","","","","","","","","","","","","","","","","","","","","","","","","","","","","","","MET069MOBOB0 METAR 7026 //008 000000 141544Z AUTO VRB02KT //// 36/23 A3024;","","","","","","","","","",""
"00702699999","2012-07-14T20:30:00","0.0","0.0","7026.0","WXPOD 7026, AF","FM-15","4","30.25","75","100","","","","","45","","","","","","260","","1","","","","","","","","","","","","","","","","","","","","","","","","","","","","","","","","","","","","","","","","","","","","","","","","","","","","","","","","","","","","","","","","","","","","","","","","","","","","","","","","","","","","","","","","","","","MET069MOBOB0 METAR 7026 //008 000000 141559Z AUTO 26001KT //// 38/24 A3025;","","","","","","","","","",""
"00702699999","2012-07-14T20:44:00","0.0","0.0","7026.0","WXPOD 7026, AF","FM-16","4","30.24","75","99","","","","","47","","","","","","VRB","","1","","","","","","","","","","","","","","","","","","","","","","","","","","","","","","","","","","","","","","","","","","","","","","","","","","","","","","","","","","","","","","","","","","","","","","","","","","","","","","","","","","","","","","","","","","","MET069MOBOB0 METAR 7026 //008 000000 141614Z AUTO VRB01KT //// 37/24 A3024;","","","","","","","","","",""
"00702699999","2012-07-14T20:59:00","0.0","0.0","7026.0","WXPOD 7026, AF","FM-16","4","30.24","75","102","","","","","42","","","","","","080","","1","","","","","","","","","","","","","","","","","","","","","","","","","","","","","","","","","","","","","","","","","","","","","","","","","","","","","","","","","","","","","","","","","","","","","","","","","","","","","","","","","","","","","","","","","","","MET069MOBOB0 METAR 7026 //008 000000 141629Z AUTO 08001KT //// 39/24 A3024;","","","","","","","","","",""
"00702699999","2012-07-14T21:14:00","0.0","0.0","7026.0","WXPOD 7026, AF","FM-16","4","30.23","73","100","","","","","42","","","","","","000","","0","","","","","","","","","","","","","","","","","","","","","","","","","","","","","","","","","","","","","","","","","","","","","","","","","","","","","","","","","","","","","","","","","","","","","","","","","","","","","","","","","","","","","","","","","","","MET069MOBOB0 METAR 7026 //008 000000 141644Z AUTO 00000KT //// 38/23 A3023;","","","","","","","","","",""
"00702699999","2012-07-14T21:30:00","0.0","0.0","7026.0","WXPOD 7026, AF","FM-15","4","30.22","75","100","","","","","45","","","","","","VRB","","1","","","","","","","","","","","","","","","","","","","","","","","","","","","","","","","","","","","","","","","","","","","","","","","","","","","","","","","","","","","","","","","","","","","","","","","","","","","","","","","","","","","","","","","","","","","MET069MOBOB0 METAR 7026 //008 000000 141659Z AUTO VRB01KT //// 38/24 A3022;","","","","","","","","","",""
"00702699999","2012-07-14T21:44:00","0.0","0.0","7026.0","WXPOD 7026, AF","FM-16","4","30.22","75","102","","","","","42","","","","","","000","","0","","","","","","","","","","","","","","","","","","","","","","","","","","","","","","","","","","","","","","","","","","","","","","","","","","","","","","","","","","","","","","","","","","","","","","","","","","","","","","","","","","","","","","","","","","","MET069MOBOB0 METAR 7026 //008 000000 141714Z AUTO 00000KT //// 39/24 A3022;","","","","","","","","","",""
"00702699999","2012-07-14T21:59:00","0.0","0.0","7026.0","WXPOD 7026, AF","FM-16","4","30.21","75","102","","","","","42","","","","","","090","","2","","","","","","","","","","","","","","","","","","","","","","","","","","","","","","","","","","","","","","","","","","","","","","","","","","","","","","","","","","","","","","","","","","","","","","","","","","","","","","","","","","","","","","","","","","","MET069MOBOB0 METAR 7026 //008 000000 141729Z AUTO 09002KT //// 39/24 A3021;","","","","","","","","","",""
"00702699999","2012-07-14T22:14:00","0.0","0.0","7026.0","WXPOD 7026, AF","FM-16","4","30.20","75","100","","","","","45","","","","","","010","","1","","","","","","","","","","","","","","","","","","","","","","","","","","","","","","","","","","","","","","","","","","","","","","","","","","","","","","","","","","","","","","","","","","","","","","","","","","","","","","","","","","","","","","","","","","","MET069MOBOB0 METAR 7026 //008 000000 141744Z AUTO 01001KT //// 38/24 A3020;","","","","","","","","","",""
"00702699999","2012-07-14T22:30:00","0.0","0.0","7026.0","WXPOD 7026, AF","FM-15","4","30.19","75","102","","","","","42","","","","","","280","","1","","","","","","","","","","","","","","","","","","","","","","","","","","","","","","","","","","","","","","","","","","","","","","","","","","","","","","","","","","","","","","","","","","","","","","","","","","","","","","","","","","","","","","","","","","","MET069MOBOB0 METAR 7026 //008 000000 141759Z AUTO 28001KT //// 39/24 A3019;","","","","","","","","","",""
"00702699999","2012-07-14T22:44:00","0.0","0.0","7026.0","WXPOD 7026, AF","FM-16","4","30.18","75","102","","","","","42","","","","","","000","","0","","","","","","","","","","","","","","","","","","","","","","","","","","","","","","","","","","","","","","","","","","","","","","","","","","","","","","","","","","","","","","","","","","","","","","","","","","","","","","","","","","","","","","","","","","","MET069MOBOB0 METAR 7026 //008 000000 141814Z AUTO 00000KT //// 39/24 A3018;","","","","","","","","","",""
"00702699999","2012-07-14T22:59:00","0.0","0.0","7026.0","WXPOD 7026, AF","FM-16","4","30.18","73","100","","","","","42","","","","","","020","","1","","","","","","","","","","","","","","","","","","","","","","","","","","","","","","","","","","","","","","","","","","","","","","","","","","","","","","","","","","","","","","","","","","","","","","","","","","","","","","","","","","","","","","","","","","","MET069MOBOB0 METAR 7026 //008 000000 141829Z AUTO 02001KT //// 38/23 A3018;","","","","","","","","","",""
"00702699999","2012-07-14T23:14:00","0.0","0.0","7026.0","WXPOD 7026, AF","FM-16","4","30.18","73","100","","","","","42","","","","","","VRB","","1","","","","","","","","","","","","","","","","","","","","","","","","","","","","","","","","","","","","","","","","","","","","","","","","","","","","","","","","","","","","","","","","","","","","","","","","","","","","","","","","","","","","","","","","","","","MET069MOBOB0 METAR 7026 //008 000000 141844Z AUTO VRB01KT //// 38/23 A3018;","","","","","","","","","",""
"00702699999","2012-07-14T23:30:00","0.0","0.0","7026.0","WXPOD 7026, AF","FM-15","4","30.17","75","102","","","","","42","","","","","","VRB","","1","","","","","","","","","","","","","","","","","","","","","","","","","","","","","","","","","","","","","","","","","","","","","","","","","","","","","","","","","","","","","","","","","","","","","","","","","","","","","","","","","","","","","","","","","","","MET069MOBOB0 METAR 7026 //008 000000 141859Z AUTO VRB01KT //// 39/24 A3017;","","","","","","","","","",""
"00702699999","2012-07-14T23:44:00","0.0","0.0","7026.0","WXPOD 7026, AF","FM-16","4","30.17","73","100","","","","","42","","","","","","050","","1","","","","","","","","","","","","","","","","","","","","","","","","","","","","","","","","","","","","","","","","","","","","","","","","","","","","","","","","","","","","","","","","","","","","","","","","","","","","","","","","","","","","","","","","","","","MET069MOBOB0 METAR 7026 //008 000000 141914Z AUTO 05001KT //// 38/23 A3017;","","","","","","","","","",""
"00702699999","2012-07-15T00:14:00","0.0","0.0","7026.0","WXPOD 7026, AF","FM-16","4","30.15","72","99","","","","","42","","","","","","VRB","","2","","","","","","","","","","","","","","","","","","","","","","","","","","","","","","","","","","","","","","","","","","","","","","","","","","","","","","","","","","","","","","","","","","","","","","","","","","","","","","","","","","","","","","","","","","","MET069MOBOB0 METAR 7026 //008 000000 141944Z AUTO VRB02KT //// 37/22 A3015;","","","","","","","","","",""
"00702699999","2012-07-15T00:30:00","0.0","0.0","7026.0","WXPOD 7026, AF","FM-15","4","30.15","73","99","","","","","44","","","","","","300","","1","","","","","","","","","","","","","","","","","","","","","","","","","","","","","","","","","","","","","","","","","","","","","","","","","","","","","","","","","","","","","","","","","","","","","","","","","","","","","","","","","","","","","","","","","","","MET069MOBOB0 METAR 7026 //008 000000 141959Z AUTO 30001KT //// 37/23 A3015;","","","","","","","","","",""
"00702699999","2012-07-15T00:44:00","0.0","0.0","7026.0","WXPOD 7026, AF","FM-16","4","30.15","72","100","","","","","40","","","","","","000","","0","","","","","","","","","","","","","","","","","","","","","","","","","","","","","","","","","","","","","","","","","","","","","","","","","","","","","","","","","","","","","","","","","","","","","","","","","","","","","","","","","","","","","","","","","","","MET069MOBOB0 METAR 7026 //008 000000 142014Z AUTO 00000KT //// 38/22 A3015;","","","","","","","","","",""
"00702699999","2012-07-15T00:59:00","0.0","0.0","7026.0","WXPOD 7026, AF","FM-16","4","30.15","73","100","","","","","42","","","","","","VRB","","1","","","","","","","","","","","","","","","","","","","","","","","","","","","","","","","","","","","","","","","","","","","","","","","","","","","","","","","","","","","","","","","","","","","","","","","","","","","","","","","","","","","","","","","","","","","MET069MOBOB0 METAR 7026 //008 000000 142029Z AUTO VRB01KT //// 38/23 A3015;","","","","","","","","","",""
"00702699999","2012-07-15T01:14:00","0.0","0.0","7026.0","WXPOD 7026, AF","FM-16","4","30.15","73","100","","","","","42","","","","","","000","","0","","","","","","","","","","","","","","","","","","","","","","","","","","","","","","","","","","","","","","","","","","","","","","","","","","","","","","","","","","","","","","","","","","","","","","","","","","","","","","","","","","","","","","","","","","","MET069MOBOB0 METAR 7026 //008 000000 142044Z AUTO 00000KT //// 38/23 A3015;","","","","","","","","","",""
"00702699999","2012-07-15T01:30:00","0.0","0.0","7026.0","WXPOD 7026, AF","FM-15","4","30.14","72","104","","","","","35","","","","","","VRB","","1","","","","","","","","","","","","","","","","","","","","","","","","","","","","","","","","","","","","","","","","","","","","","","","","","","","","","","","","","","","","","","","","","","","","","","","","","","","","","","","","","","","","","","","","","","","MET069MOBOB0 METAR 7026 //008 000000 142059Z AUTO VRB01KT //// 40/22 A3014;","","","","","","","","","",""
"00702699999","2012-07-15T01:44:00","0.0","0.0","7026.0","WXPOD 7026, AF","FM-16","4","30.15","75","97","","","","","50","","","","","","VRB","","2","","","","","","","","","","","","","","","","","","","","","","","","","","","","","","","","","","","","","","","","","","","","","","","","","","","","","","","","","","","","","","","","","","","","","","","","","","","","","","","","","","","","","","","","","","","MET069MOBOB0 METAR 7026 //008 000000 142114Z AUTO VRB02KT //// 36/24 A3015;","","","","","","","","","",""
"00702699999","2012-07-15T01:59:00","0.0","0.0","7026.0","WXPOD 7026, AF","FM-16","4","30.14","75","97","","","","","50","","","","","","VRB","","2","","","","","","","","","","","","","","","","","","","","","","","","","","","","","","","","","","","","","","","","","","","","","","","","","","","","","","","","","","","","","","","","","","","","","","","","","","","","","","","","","","","","","","","","","","","MET069MOBOB0 METAR 7026 //008 000000 142129Z AUTO VRB02KT //// 36/24 A3014;","","","","","","","","","",""
"00702699999","2012-07-15T02:14:00","0.0","0.0","7026.0","WXPOD 7026, AF","FM-16","4","30.14","75","95","","","","","53","","","","","","VRB","","2","","","","","","","","","","","","","","","","","","","","","","","","","","","","","","","","","","","","","","","","","","","","","","","","","","","","","","","","","","","","","","","","","","","","","","","","","","","","","","","","","","","","","","","","","","","MET069MOBOB0 METAR 7026 //008 000000 142144Z AUTO VRB02KT //// 35/24 A3014;","","","","","","","","","",""
"00702699999","2012-07-15T02:30:00","0.0","0.0","7026.0","WXPOD 7026, AF","FM-15","4","30.13","73","91","","","","","56","","","","","","VRB","","1","","","","","","","","","","","","","","","","","","","","","","","","","","","","","","","","","","","","","","","","","","","","","","","","","","","","","","","","","","","","","","","","","","","","","","","","","","","","","","","","","","","","","","","","","","","MET069MOBOB0 METAR 7026 //008 000000 142159Z AUTO VRB01KT //// 33/23 A3013;","","","","","","","","","",""
"00702699999","2012-07-15T02:44:00","0.0","0.0","7026.0","WXPOD 7026, AF","FM-16","4","30.13","73","90","","","","","59","","","","","","VRB","","2","","","","","","","","","","","","","","","","","","","","","","","","","","","","","","","","","","","","","","","","","","","","","","","","","","","","","","","","","","","","","","","","","","","","","","","","","","","","","","","","","","","","","","","","","","","MET069MOBOB0 METAR 7026 //008 000000 142214Z AUTO VRB02KT //// 32/23 A3013;","","","","","","","","","",""
"00702699999","2012-07-15T02:59:00","0.0","0.0","7026.0","WXPOD 7026, AF","FM-16","4","30.13","75","90","","","","","63","","","","","","VRB","","1","","","","","","","","","","","","","","","","","","","","","","","","","","","","","","","","","","","","","","","","","","","","","","","","","","","","","","","","","","","","","","","","","","","","","","","","","","","","","","","","","","","","","","","","","","","MET069MOBOB0 METAR 7026 //008 000000 142229Z AUTO VRB01KT //// 32/24 A3013;","","","","","","","","","",""
"00702699999","2012-07-15T03:14:00","0.0","0.0","7026.0","WXPOD 7026, AF","FM-16","4","30.14","75","88","","","","","66","","","","","","000","","0","","","","","","","","","","","","","","","","","","","","","","","","","","","","","","","","","","","","","","","","","","","","","","","","","","","","","","","","","","","","","","","","","","","","","","","","","","","","","","","","","","","","","","","","","","","MET069MOBOB0 METAR 7026 //008 000000 142244Z AUTO 00000KT //// 31/24 A3014;","","","","","","","","","",""
"00702699999","2012-07-15T03:30:00","0.0","0.0","7026.0","WXPOD 7026, AF","FM-15","4","30.15","75","88","","","","","66","","","","","","120","","1","","","","","","","","","","","","","","","","","","","","","","","","","","","","","","","","","","","","","","","","","","","","","","","","","","","","","","","","","","","","","","","","","","","","","","","","","","","","","","","","","","","","","","","","","","","MET069MOBOB0 METAR 7026 //008 000000 142259Z AUTO 12001KT //// 31/24 A3015;","","","","","","","","","",""
"00702699999","2012-07-15T03:44:00","0.0","0.0","7026.0","WXPOD 7026, AF","FM-16","4","30.16","75","88","","","","","66","","","","","","270","","1","","","","","","","","","","","","","","","","","","","","","","","","","","","","","","","","","","","","","","","","","","","","","","","","","","","","","","","","","","","","","","","","","","","","","","","","","","","","","","","","","","","","","","","","","","","MET069MOBOB0 METAR 7026 //008 000000 142314Z AUTO 27001KT //// 31/24 A3016;","","","","","","","","","",""
"00702699999","2012-07-15T04:14:00","0.0","0.0","7026.0","WXPOD 7026, AF","FM-16","4","30.16","75","88","","","","","66","","","","","","000","","0","","","","","","","","","","","","","","","","","","","","","","","","","","","","","","","","","","","","","","","","","","","","","","","","","","","","","","","","","","","","","","","","","","","","","","","","","","","","","","","","","","","","","","","","","","","MET069MOBOB0 METAR 7026 //008 000000 142344Z AUTO 00000KT //// 31/24 A3016;","","","","","","","","","",""
"00702699999","2012-07-15T04:30:00","0.0","0.0","7026.0","WXPOD 7026, AF","FM-15","4","30.16","75","88","","","","","66","","","","","","000","","0","","","","","","","","","","","","","","","","","","","","","","","","","","","","","","","","","","","","","","","","","","","","","","","","","","","","","","","","","","","","","","","","","","","","","","","","","","","","","","","","","","","","","","","","","","","MET069MOBOB0 METAR 7026 //008 000000 142359Z AUTO 00000KT //// 31/24 A3016;","","","","","","","","","",""
"00702699999","2012-07-15T04:44:00","0.0","0.0","7026.0","WXPOD 7026, AF","FM-16","4","30.16","73","88","","","","","62","","","","","","290","","1","","","","","","","","","","","","","","","","","","","","","","","","","","","","","","","","","","","","","","","","","","","","","","","","","","","","","","","","","","","","","","","","","","","","","","","","","","","","","","","","","","","","","","","","","","","MET069MOBOB0 METAR 7026 //008 000000 150014Z AUTO 29001KT //// 31/23 A3016;","","","","","","","","","",""
"00702699999","2012-07-15T04:59:00","0.0","0.0","7026.0","WXPOD 7026, AF","FM-16","4","30.16","73","86","","","","","66","","","","","","000","","0","","","","","","","","","","","","","","","","","","","","","","","","","","","","","","","","","","","","","","","","","","","","","","","","","","","","","","","","","","","","","","","","","","","","","","","","","","","","","","","","","","","","","","","","","","","MET069MOBOB0 METAR 7026 //008 000000 150029Z AUTO 00000KT //// 30/23 A3016;","","","","","","","","","",""
"00702699999","2012-07-15T05:14:00","0.0","0.0","7026.0","WXPOD 7026, AF","FM-16","4","30.17","75","86","","","","","70","","","","","","000","","0","","","","","","","","","","","","","","","","","","","","","","","","","","","","","","","","","","","","","","","","","","","","","","","","","","","","","","","","","","","","","","","","","","","","","","","","","","","","","","","","","","","","","","","","","","","MET069MOBOB0 METAR 7026 //008 000000 150044Z AUTO 00000KT //// 30/24 A3017;","","","","","","","","","",""
"00702699999","2012-07-15T05:30:00","0.0","0.0","7026.0","WXPOD 7026, AF","FM-15","4","30.18","73","84","","","","","70","","","","","","000","","0","","","","","","","","","","","","","","","","","","","","","","","","","","","","","","","","","","","","","","","","","","","","","","","","","","","","","","","","","","","","","","","","","","","","","","","","","","","","","","","","","","","","","","","","","","","MET069MOBOB0 METAR 7026 //008 000000 150059Z AUTO 00000KT //// 29/23 A3018;","","","","","","","","","",""
"00702699999","2012-07-15T05:44:00","0.0","0.0","7026.0","WXPOD 7026, AF","FM-16","4","30.18","75","84","","","","","74","","","","","","270","","1","","","","","","","","","","","","","","","","","","","","","","","","","","","","","","","","","","","","","","","","","","","","","","","","","","","","","","","","","","","","","","","","","","","","","","","","","","","","","","","","","","","","","","","","","","","MET069MOBOB0 METAR 7026 //008 000000 150114Z AUTO 27001KT //// 29/24 A3018;","","","","","","","","","",""
"00702699999","2012-07-15T05:59:00","0.0","0.0","7026.0","WXPOD 7026, AF","FM-16","4","30.19","75","84","","","","","74","","","","","","000","","0","","","","","","","","","","","","","","","","","","","","","","","","","","","","","","","","","","","","","","","","","","","","","","","","","","","","","","","","","","","","","","","","","","","","","","","","","","","","","","","","","","","","","","","","","","","MET069MOBOB0 METAR 7026 //008 000000 150129Z AUTO 00000KT //// 29/24 A3019;","","","","","","","","","",""
"00702699999","2012-07-15T06:14:00","0.0","0.0","7026.0","WXPOD 7026, AF","FM-16","4","30.19","75","84","","","","","74","","","","","","000","","0","","","","","","","","","","","","","","","","","","","","","","","","","","","","","","","","","","","","","","","","","","","","","","","","","","","","","","","","","","","","","","","","","","","","","","","","","","","","","","","","","","","","","","","","","","","MET069MOBOB0 METAR 7026 //008 000000 150144Z AUTO 00000KT //// 29/24 A3019;","","","","","","","","","",""
"00702699999","2012-07-15T06:30:00","0.0","0.0","7026.0","WXPOD 7026, AF","FM-15","4","30.21","75","82","","","","","79","","","","","","000","","0","","","","","","","","","","","","","","","","","","","","","","","","","","","","","","","","","","","","","","","","","","","","","","","","","","","","","","","","","","","","","","","","","","","","","","","","","","","","","","","","","","","","","","","","","","","MET069MOBOB0 METAR 7026 //008 000000 150159Z AUTO 00000KT //// 28/24 A3021;","","","","","","","","","",""
"00702699999","2012-07-15T06:44:00","0.0","0.0","7026.0","WXPOD 7026, AF","FM-16","4","30.21","75","82","","","","","79","","","","","","270","","1","","","","","","","","","","","","","","","","","","","","","","","","","","","","","","","","","","","","","","","","","","","","","","","","","","","","","","","","","","","","","","","","","","","","","","","","","","","","","","","","","","","","","","","","","","","MET069MOBOB0 METAR 7026 //008 000000 150214Z AUTO 27001KT //// 28/24 A3021;","","","","","","","","","",""
"00702699999","2012-07-15T06:59:00","0.0","0.0","7026.0","WXPOD 7026, AF","FM-16","4","30.21","73","82","","","","","74","","","","","","290","","1","","","","","","","","","","","","","","","","","","","","","","","","","","","","","","","","","","","","","","","","","","","","","","","","","","","","","","","","","","","","","","","","","","","","","","","","","","","","","","","","","","","","","","","","","","","MET069MOBOB0 METAR 7026 //008 000000 150229Z AUTO 29001KT //// 28/23 A3021;","","","","","","","","","",""
"00702699999","2012-07-15T07:14:00","0.0","0.0","7026.0","WXPOD 7026, AF","FM-16","4","30.21","73","82","","","","","74","","","","","","260","","1","","","","","","","","","","","","","","","","","","","","","","","","","","","","","","","","","","","","","","","","","","","","","","","","","","","","","","","","","","","","","","","","","","","","","","","","","","","","","","","","","","","","","","","","","","","MET069MOBOB0 METAR 7026 //008 000000 150244Z AUTO 26001KT //// 28/23 A3021;","","","","","","","","","",""
"00702699999","2012-07-15T07:30:00","0.0","0.0","7026.0","WXPOD 7026, AF","FM-15","4","30.21","73","82","","","","","74","","","","","","300","","1","","","","","","","","","","","","","","","","","","","","","","","","","","","","","","","","","","","","","","","","","","","","","","","","","","","","","","","","","","","","","","","","","","","","","","","","","","","","","","","","","","","","","","","","","","","MET069MOBOB0 METAR 7026 //008 000000 150259Z AUTO 30001KT //// 28/23 A3021;","","","","","","","","","",""
"00702699999","2012-07-15T07:47:00","0.0","0.0","7026.0","WXPOD 7026, AF","FM-16","4","30.22","73","81","","","","","79","","","","","","280","","1","","","","","","","","","","","","","","","","","","","","","","","","","","","","","","","","","","","","","","","","","","","","","","","","","","","","","","","","","","","","","","","","","","","","","","","","","","","","","","","","","","","","","","","","","","","MET069MOBOB0 METAR 7026 //008 000000 150317Z AUTO 28001KT //// 27/23 A3022;","","","","","","","","","",""
"00702699999","2012-07-15T08:14:00","0.0","0.0","7026.0","WXPOD 7026, AF","FM-16","4","30.22","73","81","","","","","79","","","","","","000","","0","","","","","","","","","","","","","","","","","","","","","","","","","","","","","","","","","","","","","","","","","","","","","","","","","","","","","","","","","","","","","","","","","","","","","","","","","","","","","","","","","","","","","","","","","","","MET069MOBOB0 METAR 7026 //008 000000 150344Z AUTO 00000KT //// 27/23 A3022;","","","","","","","","","",""
"00702699999","2012-07-15T08:30:00","0.0","0.0","7026.0","WXPOD 7026, AF","FM-15","4","30.22","73","81","","","","","79","","","","","","000","","0","","","","","","","","","","","","","","","","","","","","","","","","","","","","","","","","","","","","","","","","","","","","","","","","","","","","","","","","","","","","","","","","","","","","","","","","","","","","","","","","","","","","","","","","","","","MET069MOBOB0 METAR 7026 //008 000000 150359Z AUTO 00000KT //// 27/23 A3022;","","","","","","","","","",""
"00702699999","2012-07-15T08:44:00","0.0","0.0","7026.0","WXPOD 7026, AF","FM-16","4","30.22","73","81","","","","","79","","","","","","000","","0","","","","","","","","","","","","","","","","","","","","","","","","","","","","","","","","","","","","","","","","","","","","","","","","","","","","","","","","","","","","","","","","","","","","","","","","","","","","","","","","","","","","","","","","","","","MET069MOBOB0 METAR 7026 //008 000000 150414Z AUTO 00000KT //// 27/23 A3022;","","","","","","","","","",""
"00702699999","2012-07-15T09:14:00","0.0","0.0","7026.0","WXPOD 7026, AF","FM-16","4","30.21","73","79","","","","","84","","","","","","000","","0","","","","","","","","","","","","","","","","","","","","","","","","","","","","","","","","","","","","","","","","","","","","","","","","","","","","","","","","","","","","","","","","","","","","","","","","","","","","","","","","","","","","","","","","","","","MET069MOBOB0 METAR 7026 //008 000000 150444Z AUTO 00000KT //// 26/23 A3021;","","","","","","","","","",""
"00702699999","2012-07-15T09:30:00","0.0","0.0","7026.0","WXPOD 7026, AF","FM-15","4","30.21","73","79","","","","","84","","","","","","310","","1","","","","","","","","","","","","","","","","","","","","","","","","","","","","","","","","","","","","","","","","","","","","","","","","","","","","","","","","","","","","","","","","","","","","","","","","","","","","","","","","","","","","","","","","","","","MET069MOBOB0 METAR 7026 //008 000000 150459Z AUTO 31001KT //// 26/23 A3021;","","","","","","","","","",""
"00702699999","2012-07-15T09:44:00","0.0","0.0","7026.0","WXPOD 7026, AF","FM-16","4","30.21","73","79","","","","","84","","","","","","280","","1","","","","","","","","","","","","","","","","","","","","","","","","","","","","","","","","","","","","","","","","","","","","","","","","","","","","","","","","","","","","","","","","","","","","","","","","","","","","","","","","","","","","","","","","","","","MET069MOBOB0 METAR 7026 //008 000000 150514Z AUTO 28001KT //// 26/23 A3021;","","","","","","","","","",""
"00702699999","2012-07-15T09:59:00","0.0","0.0","7026.0","WXPOD 7026, AF","FM-16","4","30.21","73","79","","","","","84","","","","","","280","","1","","","","","","","","","","","","","","","","","","","","","","","","","","","","","","","","","","","","","","","","","","","","","","","","","","","","","","","","","","","","","","","","","","","","","","","","","","","","","","","","","","","","","","","","","","","MET069MOBOB0 METAR 7026 //008 000000 150529Z AUTO 28001KT //// 26/23 A3021;","","","","","","","","","",""
"00702699999","2012-07-15T10:14:00","0.0","0.0","7026.0","WXPOD 7026, AF","FM-16","4","30.20","73","79","","","","","84","","","","","","000","","0","","","","","","","","","","","","","","","","","","","","","","","","","","","","","","","","","","","","","","","","","","","","","","","","","","","","","","","","","","","","","","","","","","","","","","","","","","","","","","","","","","","","","","","","","","","MET069MOBOB0 METAR 7026 //008 000000 150544Z AUTO 00000KT //// 26/23 A3020;","","","","","","","","","",""
"00702699999","2012-07-15T10:30:00","0.0","0.0","7026.0","WXPOD 7026, AF","FM-15","4","30.20","73","79","","","","","84","","","","","","000","","0","","","","","","","","","","","","","","","","","","","","","","","","","","","","","","","","","","","","","","","","","","","","","","","","","","","","","","","","","","","","","","","","","","","","","","","","","","","","","","","","","","","","","","","","","","","MET069MOBOB0 METAR 7026 //008 000000 150559Z AUTO 00000KT //// 26/23 A3020;","","","","","","","","","",""
"00702699999","2012-07-15T10:44:00","0.0","0.0","7026.0","WXPOD 7026, AF","FM-16","4","30.19","73","77","","","","","89","","","","","","000","","0","","","","","","","","","","","","","","","","","","","","","","","","","","","","","","","","","","","","","","","","","","","","","","","","","","","","","","","","","","","","","","","","","","","","","","","","","","","","","","","","","","","","","","","","","","","MET069MOBOB0 METAR 7026 //008 000000 150614Z AUTO 00000KT //// 25/23 A3019;","","","","","","","","","",""
"00702699999","2012-07-15T11:14:00","0.0","0.0","7026.0","WXPOD 7026, AF","FM-16","4","30.18","73","77","","","","","89","","","","","","000","","0","","","","","","","","","","","","","","","","","","","","","","","","","","","","","","","","","","","","","","","","","","","","","","","","","","","","","","","","","","","","","","","","","","","","","","","","","","","","","","","","","","","","","","","","","","","MET069MOBOB0 METAR 7026 //008 000000 150644Z AUTO 00000KT //// 25/23 A3018;","","","","","","","","","",""
"00702699999","2012-07-15T11:30:00","0.0","0.0","7026.0","WXPOD 7026, AF","FM-15","4","30.18","73","77","","","","","89","","","","","","000","","0","","","","","","","","","","","","","","","","","","","","","","","","","","","","","","","","","","","","","","","","","","","","","","","","","","","","","","","","","","","","","","","","","","","","","","","","","","","","","","","","","","","","","","","","","","","MET069MOBOB0 METAR 7026 //008 000000 150659Z AUTO 00000KT //// 25/23 A3018;","","","","","","","","","",""
"00702699999","2012-07-15T11:44:00","0.0","0.0","7026.0","WXPOD 7026, AF","FM-16","4","30.18","73","77","","","","","89","","","","","","000","","0","","","","","","","","","","","","","","","","","","","","","","","","","","","","","","","","","","","","","","","","","","","","","","","","","","","","","","","","","","","","","","","","","","","","","","","","","","","","","","","","","","","","","","","","","","","MET069MOBOB0 METAR 7026 //008 000000 150714Z AUTO 00000KT //// 25/23 A3018;","","","","","","","","","",""
"00702699999","2012-07-15T11:59:00","0.0","0.0","7026.0","WXPOD 7026, AF","FM-16","4","30.18","73","77","","","","","89","","","","","","290","","1","","","","","","","","","","","","","","","","","","","","","","","","","","","","","","","","","","","","","","","","","","","","","","","","","","","","","","","","","","","","","","","","","","","","","","","","","","","","","","","","","","","","","","","","","","","MET069MOBOB0 METAR 7026 //008 000000 150729Z AUTO 29001KT //// 25/23 A3018;","","","","","","","","","",""
"00702699999","2012-07-15T12:14:00","0.0","0.0","7026.0","WXPOD 7026, AF","FM-16","4","30.18","73","77","","","","","89","","","","","","120","","1","","","","","","","","","","","","","","","","","","","","","","","","","","","","","","","","","","","","","","","","","","","","","","","","","","","","","","","","","","","","","","","","","","","","","","","","","","","","","","","","","","","","","","","","","","","MET069MOBOB0 METAR 7026 //008 000000 150744Z AUTO 12001KT //// 25/23 A3018;","","","","","","","","","",""
"00702699999","2012-07-15T12:30:00","0.0","0.0","7026.0","WXPOD 7026, AF","FM-15","4","30.18","73","77","","","","","89","","","","","","330","","1","","","","","","","","","","","","","","","","","","","","","","","","","","","","","","","","","","","","","","","","","","","","","","","","","","","","","","","","","","","","","","","","","","","","","","","","","","","","","","","","","","","","","","","","","","","MET069MOBOB0 METAR 7026 //008 000000 150759Z AUTO 33001KT //// 25/23 A3018;","","","","","","","","","",""
"00702699999","2012-07-15T12:44:00","0.0","0.0","7026.0","WXPOD 7026, AF","FM-16","4","30.18","73","77","","","","","89","","","","","","300","","1","","","","","","","","","","","","","","","","","","","","","","","","","","","","","","","","","","","","","","","","","","","","","","","","","","","","","","","","","","","","","","","","","","","","","","","","","","","","","","","","","","","","","","","","","","","MET069MOBOB0 METAR 7026 //008 000000 150814Z AUTO 30001KT //// 25/23 A3018;","","","","","","","","","",""
"00702699999","2012-07-15T12:59:00","0.0","0.0","7026.0","WXPOD 7026, AF","FM-16","4","30.18","73","77","","","","","89","","","","","","260","","1","","","","","","","","","","","","","","","","","","","","","","","","","","","","","","","","","","","","","","","","","","","","","","","","","","","","","","","","","","","","","","","","","","","","","","","","","","","","","","","","","","","","","","","","","","","MET069MOBOB0 METAR 7026 //008 000000 150829Z AUTO 26001KT //// 25/23 A3018;","","","","","","","","","",""
"00702699999","2012-07-15T13:14:00","0.0","0.0","7026.0","WXPOD 7026, AF","FM-16","4","30.18","73","77","","","","","89","","","","","","330","","1","","","","","","","","","","","","","","","","","","","","","","","","","","","","","","","","","","","","","","","","","","","","","","","","","","","","","","","","","","","","","","","","","","","","","","","","","","","","","","","","","","","","","","","","","","","MET069MOBOB0 METAR 7026 //008 000000 150844Z AUTO 33001KT //// 25/23 A3018;","","","","","","","","","",""
"00702699999","2012-07-15T13:30:00","0.0","0.0","7026.0","WXPOD 7026, AF","FM-15","4","30.18","73","77","","","","","89","","","","","","100","","1","","","","","","","","","","","","","","","","","","","","","","","","","","","","","","","","","","","","","","","","","","","","","","","","","","","","","","","","","","","","","","","","","","","","","","","","","","","","","","","","","","","","","","","","","","","MET069MOBOB0 METAR 7026 //008 000000 150859Z AUTO 10001KT //// 25/23 A3018;","","","","","","","","","",""
"00702699999","2012-07-15T13:44:00","0.0","0.0","7026.0","WXPOD 7026, AF","FM-16","4","30.18","73","77","","","","","89","","","","","","280","","1","","","","","","","","","","","","","","","","","","","","","","","","","","","","","","","","","","","","","","","","","","","","","","","","","","","","","","","","","","","","","","","","","","","","","","","","","","","","","","","","","","","","","","","","","","","MET069MOBOB0 METAR 7026 //008 000000 150914Z AUTO 28001KT //// 25/23 A3018;","","","","","","","","","",""
"00702699999","2012-07-15T13:59:00","0.0","0.0","7026.0","WXPOD 7026, AF","FM-16","4","30.18","73","77","","","","","89","","","","","","000","","0","","","","","","","","","","","","","","","","","","","","","","","","","","","","","","","","","","","","","","","","","","","","","","","","","","","","","","","","","","","","","","","","","","","","","","","","","","","","","","","","","","","","","","","","","","","MET069MOBOB0 METAR 7026 //008 000000 150929Z AUTO 00000KT //// 25/23 A3018;","","","","","","","","","",""
"00702699999","2012-07-15T14:14:00","0.0","0.0","7026.0","WXPOD 7026, AF","FM-16","4","30.18","73","75","","","","","94","","","","","","000","","0","","","","","","","","","","","","","","","","","","","","","","","","","","","","","","","","","","","","","","","","","","","","","","","","","","","","","","","","","","","","","","","","","","","","","","","","","","","","","","","","","","","","","","","","","","","MET069MOBOB0 METAR 7026 //008 000000 150944Z AUTO 00000KT //// 24/23 A3018;","","","","","","","","","",""
"00702699999","2012-07-15T14:30:00","0.0","0.0","7026.0","WXPOD 7026, AF","FM-15","4","30.18","73","75","","","","","94","","","","","","000","","0","","","","","","","","","","","","","","","","","","","","","","","","","","","","","","","","","","","","","","","","","","","","","","","","","","","","","","","","","","","","","","","","","","","","","","","","","","","","","","","","","","","","","","","","","","","MET069MOBOB0 METAR 7026 //008 000000 150959Z AUTO 00000KT //// 24/23 A3018;","","","","","","","","","",""
"00702699999","2012-07-15T14:44:00","0.0","0.0","7026.0","WXPOD 7026, AF","FM-16","4","30.18","73","75","","","","","94","","","","","","000","","0","","","","","","","","","","","","","","","","","","","","","","","","","","","","","","","","","","","","","","","","","","","","","","","","","","","","","","","","","","","","","","","","","","","","","","","","","","","","","","","","","","","","","","","","","","","MET069MOBOB0 METAR 7026 //008 000000 151014Z AUTO 00000KT //// 24/23 A3018;","","","","","","","","","",""
"00702699999","2012-07-15T14:59:00","0.0","0.0","7026.0","WXPOD 7026, AF","FM-16","4","30.20","73","75","","","","","94","","","","","","000","","0","","","","","","","","","","","","","","","","","","","","","","","","","","","","","","","","","","","","","","","","","","","","","","","","","","","","","","","","","","","","","","","","","","","","","","","","","","","","","","","","","","","","","","","","","","","MET069MOBOB0 METAR 7026 //008 000000 151029Z AUTO 00000KT //// 24/23 A3020;","","","","","","","","","",""
"00702699999","2012-07-15T15:14:00","0.0","0.0","7026.0","WXPOD 7026, AF","FM-16","4","30.20","73","75","","","","","94","","","","","","000","","0","","","","","","","","","","","","","","","","","","","","","","","","","","","","","","","","","","","","","","","","","","","","","","","","","","","","","","","","","","","","","","","","","","","","","","","","","","","","","","","","","","","","","","","","","","","MET069MOBOB0 METAR 7026 //008 000000 151044Z AUTO 00000KT //// 24/23 A3020;","","","","","","","","","",""
"00702699999","2012-07-15T15:30:00","0.0","0.0","7026.0","WXPOD 7026, AF","FM-15","4","30.20","73","75","","","","","94","","","","","","000","","0","","","","","","","","","","","","","","","","","","","","","","","","","","","","","","","","","","","","","","","","","","","","","","","","","","","","","","","","","","","","","","","","","","","","","","","","","","","","","","","","","","","","","","","","","","","MET069MOBOB0 METAR 7026 //008 000000 151059Z AUTO 00000KT //// 24/23 A3020;","","","","","","","","","",""
"00702699999","2012-07-15T15:44:00","0.0","0.0","7026.0","WXPOD 7026, AF","FM-16","4","30.20","73","75","","","","","94","","","","","","000","","0","","","","","","","","","","","","","","","","","","","","","","","","","","","","","","","","","","","","","","","","","","","","","","","","","","","","","","","","","","","","","","","","","","","","","","","","","","","","","","","","","","","","","","","","","","","MET069MOBOB0 METAR 7026 //008 000000 151114Z AUTO 00000KT //// 24/23 A3020;","","","","","","","","","",""
"00702699999","2012-07-15T15:59:00","0.0","0.0","7026.0","WXPOD 7026, AF","FM-16","4","30.21","73","77","","","","","89","","","","","","000","","0","","","","","","","","","","","","","","","","","","","","","","","","","","","","","","","","","","","","","","","","","","","","","","","","","","","","","","","","","","","","","","","","","","","","","","","","","","","","","","","","","","","","","","","","","","","MET069MOBOB0 METAR 7026 //008 000000 151129Z AUTO 00000KT //// 25/23 A3021;","","","","","","","","","",""
"00702699999","2012-07-15T16:14:00","0.0","0.0","7026.0","WXPOD 7026, AF","FM-16","4","30.21","73","77","","","","","89","","","","","","000","","0","","","","","","","","","","","","","","","","","","","","","","","","","","","","","","","","","","","","","","","","","","","","","","","","","","","","","","","","","","","","","","","","","","","","","","","","","","","","","","","","","","","","","","","","","","","MET069MOBOB0 METAR 7026 //008 000000 151144Z AUTO 00000KT //// 25/23 A3021;","","","","","","","","","",""
"00702699999","2012-07-15T16:30:00","0.0","0.0","7026.0","WXPOD 7026, AF","FM-15","4","30.22","75","79","","","","","89","","","","","","350","","1","","","","","","","","","","","","","","","","","","","","","","","","","","","","","","","","","","","","","","","","","","","","","","","","","","","","","","","","","","","","","","","","","","","","","","","","","","","","","","","","","","","","","","","","","","","MET069MOBOB0 METAR 7026 //008 000000 151159Z AUTO 35001KT //// 26/24 A3022;","","","","","","","","","",""
"00702699999","2012-07-15T16:44:00","0.0","0.0","7026.0","WXPOD 7026, AF","FM-16","4","30.22","75","81","","","","","84","","","","","","320","","1","","","","","","","","","","","","","","","","","","","","","","","","","","","","","","","","","","","","","","","","","","","","","","","","","","","","","","","","","","","","","","","","","","","","","","","","","","","","","","","","","","","","","","","","","","","MET069MOBOB0 METAR 7026 //008 000000 151214Z AUTO 32001KT //// 27/24 A3022;","","","","","","","","","",""
"00702699999","2012-07-15T16:59:00","0.0","0.0","7026.0","WXPOD 7026, AF","FM-16","4","30.22","75","81","","","","","84","","","","","","330","","1","","","","","","","","","","","","","","","","","","","","","","","","","","","","","","","","","","","","","","","","","","","","","","","","","","","","","","","","","","","","","","","","","","","","","","","","","","","","","","","","","","","","","","","","","","","MET069MOBOB0 METAR 7026 //008 000000 151229Z AUTO 33001KT //// 27/24 A3022;","","","","","","","","","",""
"00702699999","2012-07-15T17:14:00","0.0","0.0","7026.0","WXPOD 7026, AF","FM-16","4","30.22","75","82","","","","","79","","","","","","000","","0","","","","","","","","","","","","","","","","","","","","","","","","","","","","","","","","","","","","","","","","","","","","","","","","","","","","","","","","","","","","","","","","","","","","","","","","","","","","","","","","","","","","","","","","","","","MET069MOBOB0 METAR 7026 //008 000000 151244Z AUTO 00000KT //// 28/24 A3022;","","","","","","","","","",""
"00702699999","2012-07-15T17:30:00","0.0","0.0","7026.0","WXPOD 7026, AF","FM-15","4","30.23","75","82","","","","","79","","","","","","000","","0","","","","","","","","","","","","","","","","","","","","","","","","","","","","","","","","","","","","","","","","","","","","","","","","","","","","","","","","","","","","","","","","","","","","","","","","","","","","","","","","","","","","","","","","","","","MET069MOBOB0 METAR 7026 //008 000000 151259Z AUTO 00000KT //// 28/24 A3023;","","","","","","","","","",""
"00702699999","2012-07-15T17:44:00","0.0","0.0","7026.0","WXPOD 7026, AF","FM-16","4","30.23","75","84","","","","","74","","","","","","000","","0","","","","","","","","","","","","","","","","","","","","","","","","","","","","","","","","","","","","","","","","","","","","","","","","","","","","","","","","","","","","","","","","","","","","","","","","","","","","","","","","","","","","","","","","","","","MET069MOBOB0 METAR 7026 //008 000000 151314Z AUTO 00000KT //// 29/24 A3023;","","","","","","","","","",""
"00702699999","2012-07-15T17:59:00","0.0","0.0","7026.0","WXPOD 7026, AF","FM-16","4","30.23","73","88","","","","","62","","","","","","090","","1","","","","","","","","","","","","","","","","","","","","","","","","","","","","","","","","","","","","","","","","","","","","","","","","","","","","","","","","","","","","","","","","","","","","","","","","","","","","","","","","","","","","","","","","","","","MET069MOBOB0 METAR 7026 //008 000000 151329Z AUTO 09001KT //// 31/23 A3023;","","","","","","","","","",""
"00702699999","2012-07-15T18:14:00","0.0","0.0","7026.0","WXPOD 7026, AF","FM-16","4","30.22","73","91","","","","","56","","","","","","VRB","","1","","","","","","","","","","","","","","","","","","","","","","","","","","","","","","","","","","","","","","","","","","","","","","","","","","","","","","","","","","","","","","","","","","","","","","","","","","","","","","","","","","","","","","","","","","","MET069MOBOB0 METAR 7026 //008 000000 151344Z AUTO VRB01KT //// 33/23 A3022;","","","","","","","","","",""
"00702699999","2012-07-15T18:30:00","0.0","0.0","7026.0","WXPOD 7026, AF","FM-15","4","30.22","75","97","","","","","50","","","","","","010","","1","","","","","","","","","","","","","","","","","","","","","","","","","","","","","","","","","","","","","","","","","","","","","","","","","","","","","","","","","","","","","","","","","","","","","","","","","","","","","","","","","","","","","","","","","","","MET069MOBOB0 METAR 7026 //008 000000 151359Z AUTO 01001KT //// 36/24 A3022;","","","","","","","","","",""
"00702699999","2012-07-15T18:44:00","0.0","0.0","7026.0","WXPOD 7026, AF","FM-16","4","30.22","77","95","","","","","56","","","","","","VRB","","2","","","","","","","","","","","","","","","","","","","","","","","","","","","","","","","","","","","","","","","","","","","","","","","","","","","","","","","","","","","","","","","","","","","","","","","","","","","","","","","","","","","","","","","","","","","MET069MOBOB0 METAR 7026 //008 000000 151414Z AUTO VRB02KT //// 35/25 A3022;","","","","","","","","","",""
"00702699999","2012-07-15T18:59:00","0.0","0.0","7026.0","WXPOD 7026, AF","FM-16","4","30.22","75","97","","","","","50","","","","","","VRB","","2","","","","","","","","","","","","","","","","","","","","","","","","","","","","","","","","","","","","","","","","","","","","","","","","","","","","","","","","","","","","","","","","","","","","","","","","","","","","","","","","","","","","","","","","","","","MET069MOBOB0 METAR 7026 //008 000000 151429Z AUTO VRB02KT //// 36/24 A3022;","","","","","","","","","",""
"00702699999","2012-07-15T19:14:00","0.0","0.0","7026.0","WXPOD 7026, AF","FM-16","4","30.22","73","95","","","","","50","","","","","","VRB","","1","","","","","","","","","","","","","","","","","","","","","","","","","","","","","","","","","","","","","","","","","","","","","","","","","","","","","","","","","","","","","","","","","","","","","","","","","","","","","","","","","","","","","","","","","","","MET069MOBOB0 METAR 7026 //008 000000 151444Z AUTO VRB01KT //// 35/23 A3022;","","","","","","","","","",""
"00702699999","2012-07-15T19:30:00","0.0","0.0","7026.0","WXPOD 7026, AF","FM-15","4","30.22","73","95","","","","","50","","","","","","290","","1","","","","","","","","","","","","","","","","","","","","","","","","","","","","","","","","","","","","","","","","","","","","","","","","","","","","","","","","","","","","","","","","","","","","","","","","","","","","","","","","","","","","","","","","","","","MET069MOBOB0 METAR 7026 //008 000000 151459Z AUTO 29001KT //// 35/23 A3022;","","","","","","","","","",""
"00702699999","2012-07-15T19:44:00","0.0","0.0","7026.0","WXPOD 7026, AF","FM-16","4","30.22","73","97","","","","","47","","","","","","VRB","","1","","","","","","","","","","","","","","","","","","","","","","","","","","","","","","","","","","","","","","","","","","","","","","","","","","","","","","","","","","","","","","","","","","","","","","","","","","","","","","","","","","","","","","","","","","","MET069MOBOB0 METAR 7026 //008 000000 151514Z AUTO VRB01KT //// 36/23 A3022;","","","","","","","","","",""
"00702699999","2012-07-15T19:59:00","0.0","0.0","7026.0","WXPOD 7026, AF","FM-16","4","30.22","73","95","","","","","50","","","","","","040","","1","","","","","","","","","","","","","","","","","","","","","","","","","","","","","","","","","","","","","","","","","","","","","","","","","","","","","","","","","","","","","","","","","","","","","","","","","","","","","","","","","","","","","","","","","","","MET069MOBOB0 METAR 7026 //008 000000 151529Z AUTO 04001KT //// 35/23 A3022;","","","","","","","","","",""
"00702699999","2012-07-15T20:14:00","0.0","0.0","7026.0","WXPOD 7026, AF","FM-16","4","30.22","75","97","","","","","50","","","","","","020","","1","","","","","","","","","","","","","","","","","","","","","","","","","","","","","","","","","","","","","","","","","","","","","","","","","","","","","","","","","","","","","","","","","","","","","","","","","","","","","","","","","","","","","","","","","","","MET069MOBOB0 METAR 7026 //008 000000 151544Z AUTO 02001KT //// 36/24 A3022;","","","","","","","","","",""
"00702699999","2012-07-15T20:30:00","0.0","0.0","7026.0","WXPOD 7026, AF","FM-15","4","30.22","75","102","","","","","42","","","","","","290","","1","","","","","","","","","","","","","","","","","","","","","","","","","","","","","","","","","","","","","","","","","","","","","","","","","","","","","","","","","","","","","","","","","","","","","","","","","","","","","","","","","","","","","","","","","","","MET069MOBOB0 METAR 7026 //008 000000 151559Z AUTO 29001KT //// 39/24 A3022;","","","","","","","","","",""
"00702699999","2012-07-15T20:44:00","0.0","0.0","7026.0","WXPOD 7026, AF","FM-16","4","30.22","73","100","","","","","42","","","","","","VRB","","1","","","","","","","","","","","","","","","","","","","","","","","","","","","","","","","","","","","","","","","","","","","","","","","","","","","","","","","","","","","","","","","","","","","","","","","","","","","","","","","","","","","","","","","","","","","MET069MOBOB0 METAR 7026 //008 000000 151614Z AUTO VRB01KT //// 38/23 A3022;","","","","","","","","","",""
"00702699999","2012-07-15T21:14:00","0.0","0.0","7026.0","WXPOD 7026, AF","FM-16","4","30.21","73","106","","","","","36","","","","","","VRB","","2","","","","","","","","","","","","","","","","","","","","","","","","","","","","","","","","","","","","","","","","","","","","","","","","","","","","","","","","","","","","","","","","","","","","","","","","","","","","","","","","","","","","","","","","","","","MET069MOBOB0 METAR 7026 //008 000000 151644Z AUTO VRB02KT //// 41/23 A3021;","","","","","","","","","",""
"00702699999","2012-07-15T21:30:00","0.0","0.0","7026.0","WXPOD 7026, AF","FM-15","4","30.20","73","102","","","","","40","","","","","","VRB","","2","","","","","","","","","","","","","","","","","","","","","","","","","","","","","","","","","","","","","","","","","","","","","","","","","","","","","","","","","","","","","","","","","","","","","","","","","","","","","","","","","","","","","","","","","","","MET069MOBOB0 METAR 7026 //008 000000 151659Z AUTO VRB02KT //// 39/23 A3020;","","","","","","","","","",""
"00702699999","2012-07-15T21:44:00","0.0","0.0","7026.0","WXPOD 7026, AF","FM-16","4","30.19","73","104","","","","","38","","","","","","VRB","","1","","","","","","","","","","","","","","","","","","","","","","","","","","","","","","","","","","","","","","","","","","","","","","","","","","","","","","","","","","","","","","","","","","","","","","","","","","","","","","","","","","","","","","","","","","","MET069MOBOB0 METAR 7026 //008 000000 151714Z AUTO VRB01KT //// 40/23 A3019;","","","","","","","","","",""
"00702699999","2012-07-15T21:59:00","0.0","0.0","7026.0","WXPOD 7026, AF","FM-16","4","30.19","72","102","","","","","37","","","","","","VRB","","2","","","","","","","","","","","","","","","","","","","","","","","","","","","","","","","","","","","","","","","","","","","","","","","","","","","","","","","","","","","","","","","","","","","","","","","","","","","","","","","","","","","","","","","","","","","MET069MOBOB0 METAR 7026 //008 000000 151729Z AUTO VRB02KT //// 39/22 A3019;","","","","","","","","","",""
"00702699999","2012-07-15T22:14:00","0.0","0.0","7026.0","WXPOD 7026, AF","FM-16","4","30.18","75","104","","","","","40","","","","","","000","","0","","","","","","","","","","","","","","","","","","","","","","","","","","","","","","","","","","","","","","","","","","","","","","","","","","","","","","","","","","","","","","","","","","","","","","","","","","","","","","","","","","","","","","","","","","","MET069MOBOB0 METAR 7026 //008 000000 151744Z AUTO 00000KT //// 40/24 A3018;","","","","","","","","","",""
"00702699999","2012-07-15T22:30:00","0.0","0.0","7026.0","WXPOD 7026, AF","FM-15","4","30.17","72","104","","","","","35","","","","","","000","","0","","","","","","","","","","","","","","","","","","","","","","","","","","","","","","","","","","","","","","","","","","","","","","","","","","","","","","","","","","","","","","","","","","","","","","","","","","","","","","","","","","","","","","","","","","","MET069MOBOB0 METAR 7026 //008 000000 151759Z AUTO 00000KT //// 40/22 A3017;","","","","","","","","","",""
"00702699999","2012-07-15T22:44:00","0.0","0.0","7026.0","WXPOD 7026, AF","FM-16","4","30.17","73","106","","","","","36","","","","","","VRB","","2","","","","","","","","","","","","","","","","","","","","","","","","","","","","","","","","","","","","","","","","","","","","","","","","","","","","","","","","","","","","","","","","","","","","","","","","","","","","","","","","","","","","","","","","","","","MET069MOBOB0 METAR 7026 //008 000000 151814Z AUTO VRB02KT //// 41/23 A3017;","","","","","","","","","",""
"00702699999","2012-07-15T23:14:00","0.0","0.0","7026.0","WXPOD 7026, AF","FM-16","4","30.16","70","104","","","","","33","","","","","","VRB","","1","","","","","","","","","","","","","","","","","","","","","","","","","","","","","","","","","","","","","","","","","","","","","","","","","","","","","","","","","","","","","","","","","","","","","","","","","","","","","","","","","","","","","","","","","","","MET069MOBOB0 METAR 7026 //008 000000 151844Z AUTO VRB01KT //// 40/21 A3016;","","","","","","","","","",""
"00702699999","2012-07-15T23:30:00","0.0","0.0","7026.0","WXPOD 7026, AF","FM-15","4","30.15","70","106","","","","","32","","","","","","VRB","","2","","","","","","","","","","","","","","","","","","","","","","","","","","","","","","","","","","","","","","","","","","","","","","","","","","","","","","","","","","","","","","","","","","","","","","","","","","","","","","","","","","","","","","","","","","","MET069MOBOB0 METAR 7026 //008 000000 151859Z AUTO VRB02KT //// 41/21 A3015;","","","","","","","","","",""
"00702699999","2012-07-15T23:44:00","0.0","0.0","7026.0","WXPOD 7026, AF","FM-16","4","30.14","70","108","","","","","30","","","","","","240","","1","","","","","","","","","","","","","","","","","","","","","","","","","","","","","","","","","","","","","","","","","","","","","","","","","","","","","","","","","","","","","","","","","","","","","","","","","","","","","","","","","","","","","","","","","","","MET069MOBOB0 METAR 7026 //008 000000 151914Z AUTO 24001KT //// 42/21 A3014;","","","","","","","","","",""
"00702699999","2012-07-15T23:59:00","0.0","0.0","7026.0","WXPOD 7026, AF","FM-16","4","30.14","68","106","","","","","30","","","","","","270","","1","","","","","","","","","","","","","","","","","","","","","","","","","","","","","","","","","","","","","","","","","","","","","","","","","","","","","","","","","","","","","","","","","","","","","","","","","","","","","","","","","","","","","","","","","","","MET069MOBOB0 METAR 7026 //008 000000 151929Z AUTO 27001KT //// 41/20 A3014;","","","","","","","","","",""
"00702699999","2012-07-16T00:14:00","0.0","0.0","7026.0","WXPOD 7026, AF","FM-16","4","30.13","70","108","","","","","30","","","","","","VRB","","1","","","","","","","","","","","","","","","","","","","","","","","","","","","","","","","","","","","","","","","","","","","","","","","","","","","","","","","","","","","","","","","","","","","","","","","","","","","","","","","","","","","","","","","","","","","MET069MOBOB0 METAR 7026 //008 000000 151944Z AUTO VRB01KT //// 42/21 A3013;","","","","","","","","","",""
"00702699999","2012-07-16T00:30:00","0.0","0.0","7026.0","WXPOD 7026, AF","FM-15","4","30.12","70","108","","","","","30","","","","","","000","","0","","","","","","","","","","","","","","","","","","","","","","","","","","","","","","","","","","","","","","","","","","","","","","","","","","","","","","","","","","","","","","","","","","","","","","","","","","","","","","","","","","","","","","","","","","","MET069MOBOB0 METAR 7026 //008 000000 151959Z AUTO 00000KT //// 42/21 A3012;","","","","","","","","","",""
"00702699999","2012-07-16T00:44:00","0.0","0.0","7026.0","WXPOD 7026, AF","FM-16","4","30.12","68","108","","","","","28","","","","","","260","","1","","","","","","","","","","","","","","","","","","","","","","","","","","","","","","","","","","","","","","","","","","","","","","","","","","","","","","","","","","","","","","","","","","","","","","","","","","","","","","","","","","","","","","","","","","","MET069MOBOB0 METAR 7026 //008 000000 152014Z AUTO 26001KT //// 42/20 A3012;","","","","","","","","","",""
"00702699999","2012-07-16T00:59:00","0.0","0.0","7026.0","WXPOD 7026, AF","FM-16","4","30.11","70","108","","","","","30","","","","","","240","","1","","","","","","","","","","","","","","","","","","","","","","","","","","","","","","","","","","","","","","","","","","","","","","","","","","","","","","","","","","","","","","","","","","","","","","","","","","","","","","","","","","","","","","","","","","","MET069MOBOB0 METAR 7026 //008 000000 152029Z AUTO 24001KT //// 42/21 A3011;","","","","","","","","","",""
"00702699999","2012-07-16T01:14:00","0.0","0.0","7026.0","WXPOD 7026, AF","FM-16","4","30.10","70","106","","","","","32","","","","","","VRB","","3","","","","","","","","","","","","","","","","","","","","","","","","","","","","","","","","","","","","","","","","","","","","","","","","","","","","","","","","","","","","","","","","","","","","","","","","","","","","","","","","","","","","","","","","","","","MET069MOBOB0 METAR 7026 //008 000000 152044Z AUTO VRB03KT //// 41/21 A3010;","","","","","","","","","",""
"00702699999","2012-07-16T01:30:00","0.0","0.0","7026.0","WXPOD 7026, AF","FM-15","4","30.10","70","108","","","","","30","","","","","","VRB","","1","","","","","","","","","","","","","","","","","","","","","","","","","","","","","","","","","","","","","","","","","","","","","","","","","","","","","","","","","","","","","","","","","","","","","","","","","","","","","","","","","","","","","","","","","","","MET069MOBOB0 METAR 7026 //008 000000 152059Z AUTO VRB01KT //// 42/21 A3010;","","","","","","","","","",""
"00702699999","2012-07-16T01:44:00","0.0","0.0","7026.0","WXPOD 7026, AF","FM-16","4","30.09","70","106","","","","","32","","","","","","VRB","","1","","","","","","","","","","","","","","","","","","","","","","","","","","","","","","","","","","","","","","","","","","","","","","","","","","","","","","","","","","","","","","","","","","","","","","","","","","","","","","","","","","","","","","","","","","","MET069MOBOB0 METAR 7026 //008 000000 152114Z AUTO VRB01KT //// 41/21 A3009;","","","","","","","","","",""
"00702699999","2012-07-16T01:59:00","0.0","0.0","7026.0","WXPOD 7026, AF","FM-16","4","30.09","70","106","","","","","32","","","","","","000","","0","","","","","","","","","","","","","","","","","","","","","","","","","","","","","","","","","","","","","","","","","","","","","","","","","","","","","","","","","","","","","","","","","","","","","","","","","","","","","","","","","","","","","","","","","","","MET069MOBOB0 METAR 7026 //008 000000 152129Z AUTO 00000KT //// 41/21 A3009;","","","","","","","","","",""
"00702699999","2012-07-16T02:14:00","0.0","0.0","7026.0","WXPOD 7026, AF","FM-16","4","30.08","72","104","","","","","35","","","","","","VRB","","2","","","","","","","","","","","","","","","","","","","","","","","","","","","","","","","","","","","","","","","","","","","","","","","","","","","","","","","","","","","","","","","","","","","","","","","","","","","","","","","","","","","","","","","","","","","MET069MOBOB0 METAR 7026 //008 000000 152144Z AUTO VRB02KT //// 40/22 A3008;","","","","","","","","","",""
"00702699999","2012-07-16T02:30:00","0.0","0.0","7026.0","WXPOD 7026, AF","FM-15","4","30.08","68","99","","","","","37","","","","","","VRB","","2","","","","","","","","","","","","","","","","","","","","","","","","","","","","","","","","","","","","","","","","","","","","","","","","","","","","","","","","","","","","","","","","","","","","","","","","","","","","","","","","","","","","","","","","","","","MET069MOBOB0 METAR 7026 //008 000000 152159Z AUTO VRB02KT //// 37/20 A3008;","","","","","","","","","",""
"00702699999","2012-07-16T02:44:00","0.0","0.0","7026.0","WXPOD 7026, AF","FM-16","4","30.08","68","95","","","","","41","","","","","","250","","1","","","","","","","","","","","","","","","","","","","","","","","","","","","","","","","","","","","","","","","","","","","","","","","","","","","","","","","","","","","","","","","","","","","","","","","","","","","","","","","","","","","","","","","","","","","MET069MOBOB0 METAR 7026 //008 000000 152214Z AUTO 25001KT //// 35/20 A3008;","","","","","","","","","",""
"00702699999","2012-07-16T02:59:00","0.0","0.0","7026.0","WXPOD 7026, AF","FM-16","4","30.08","70","93","","","","","47","","","","","","280","","1","","","","","","","","","","","","","","","","","","","","","","","","","","","","","","","","","","","","","","","","","","","","","","","","","","","","","","","","","","","","","","","","","","","","","","","","","","","","","","","","","","","","","","","","","","","MET069MOBOB0 METAR 7026 //008 000000 152229Z AUTO 28001KT //// 34/21 A3008;","","","","","","","","","",""
"00702699999","2012-07-16T03:14:00","0.0","0.0","7026.0","WXPOD 7026, AF","FM-16","4","30.08","70","93","","","","","47","","","","","","VRB","","1","","","","","","","","","","","","","","","","","","","","","","","","","","","","","","","","","","","","","","","","","","","","","","","","","","","","","","","","","","","","","","","","","","","","","","","","","","","","","","","","","","","","","","","","","","","MET069MOBOB0 METAR 7026 //008 000000 152244Z AUTO VRB01KT //// 34/21 A3008;","","","","","","","","","",""
"00702699999","2012-07-16T03:30:00","0.0","0.0","7026.0","WXPOD 7026, AF","FM-15","4","30.08","70","91","","","","","49","","","","","","280","","1","","","","","","","","","","","","","","","","","","","","","","","","","","","","","","","","","","","","","","","","","","","","","","","","","","","","","","","","","","","","","","","","","","","","","","","","","","","","","","","","","","","","","","","","","","","MET069MOBOB0 METAR 7026 //008 000000 152259Z AUTO 28001KT //// 33/21 A3008;","","","","","","","","","",""
"00702699999","2012-07-16T03:44:00","0.0","0.0","7026.0","WXPOD 7026, AF","FM-16","4","30.09","72","90","","","","","55","","","","","","270","","1","","","","","","","","","","","","","","","","","","","","","","","","","","","","","","","","","","","","","","","","","","","","","","","","","","","","","","","","","","","","","","","","","","","","","","","","","","","","","","","","","","","","","","","","","","","MET069MOBOB0 METAR 7026 //008 000000 152314Z AUTO 27001KT //// 32/22 A3009;","","","","","","","","","",""
"00702699999","2012-07-16T03:59:00","0.0","0.0","7026.0","WXPOD 7026, AF","FM-16","4","30.10","73","90","","","","","59","","","","","","290","","1","","","","","","","","","","","","","","","","","","","","","","","","","","","","","","","","","","","","","","","","","","","","","","","","","","","","","","","","","","","","","","","","","","","","","","","","","","","","","","","","","","","","","","","","","","","MET069MOBOB0 METAR 7026 //008 000000 152329Z AUTO 29001KT //// 32/23 A3010;","","","","","","","","","",""
"00702699999","2012-07-16T04:14:00","0.0","0.0","7026.0","WXPOD 7026, AF","FM-16","4","30.10","73","88","","","","","62","","","","","","000","","0","","","","","","","","","","","","","","","","","","","","","","","","","","","","","","","","","","","","","","","","","","","","","","","","","","","","","","","","","","","","","","","","","","","","","","","","","","","","","","","","","","","","","","","","","","","MET069MOBOB0 METAR 7026 //008 000000 152344Z AUTO 00000KT //// 31/23 A3010;","","","","","","","","","",""
"00702699999","2012-07-16T04:30:00","0.0","0.0","7026.0","WXPOD 7026, AF","FM-15","4","30.10","72","88","","","","","59","","","","","","300","","1","","","","","","","","","","","","","","","","","","","","","","","","","","","","","","","","","","","","","","","","","","","","","","","","","","","","","","","","","","","","","","","","","","","","","","","","","","","","","","","","","","","","","","","","","","","MET069MOBOB0 METAR 7026 //008 000000 152359Z AUTO 30001KT //// 31/22 A3010;","","","","","","","","","",""
"00702699999","2012-07-16T04:44:00","0.0","0.0","7026.0","WXPOD 7026, AF","FM-16","4","30.10","73","86","","","","","66","","","","","","000","","0","","","","","","","","","","","","","","","","","","","","","","","","","","","","","","","","","","","","","","","","","","","","","","","","","","","","","","","","","","","","","","","","","","","","","","","","","","","","","","","","","","","","","","","","","","","MET069MOBOB0 METAR 7026 //008 000000 160014Z AUTO 00000KT //// 30/23 A3010;","","","","","","","","","",""
"00702699999","2012-07-16T05:14:00","0.0","0.0","7026.0","WXPOD 7026, AF","FM-16","4","30.10","73","86","","","","","66","","","","","","000","","0","","","","","","","","","","","","","","","","","","","","","","","","","","","","","","","","","","","","","","","","","","","","","","","","","","","","","","","","","","","","","","","","","","","","","","","","","","","","","","","","","","","","","","","","","","","MET069MOBOB0 METAR 7026 //008 000000 160044Z AUTO 00000KT //// 30/23 A3010;","","","","","","","","","",""
"00702699999","2012-07-16T05:30:00","0.0","0.0","7026.0","WXPOD 7026, AF","FM-15","4","30.11","73","86","","","","","66","","","","","","VRB","","1","","","","","","","","","","","","","","","","","","","","","","","","","","","","","","","","","","","","","","","","","","","","","","","","","","","","","","","","","","","","","","","","","","","","","","","","","","","","","","","","","","","","","","","","","","","MET069MOBOB0 METAR 7026 //008 000000 160059Z AUTO VRB01KT //// 30/23 A3011;","","","","","","","","","",""
"00702699999","2012-07-16T05:44:00","0.0","0.0","7026.0","WXPOD 7026, AF","FM-16","4","30.11","73","84","","","","","70","","","","","","000","","0","","","","","","","","","","","","","","","","","","","","","","","","","","","","","","","","","","","","","","","","","","","","","","","","","","","","","","","","","","","","","","","","","","","","","","","","","","","","","","","","","","","","","","","","","","","MET069MOBOB0 METAR 7026 //008 000000 160114Z AUTO 00000KT //// 29/23 A3011;","","","","","","","","","",""
"00702699999","2012-07-16T05:59:00","0.0","0.0","7026.0","WXPOD 7026, AF","FM-16","4","30.11","73","84","","","","","70","","","","","","280","","1","","","","","","","","","","","","","","","","","","","","","","","","","","","","","","","","","","","","","","","","","","","","","","","","","","","","","","","","","","","","","","","","","","","","","","","","","","","","","","","","","","","","","","","","","","","MET069MOBOB0 METAR 7026 //008 000000 160129Z AUTO 28001KT //// 29/23 A3011;","","","","","","","","","",""
"00702699999","2012-07-16T06:15:00","0.0","0.0","7026.0","WXPOD 7026, AF","FM-15","4","30.11","73","84","","","","","70","","","","","","320","","1","","","","","","","","","","","","","","","","","","","","","","","","","","","","","","","","","","","","","","","","","","","","","","","","","","","","","","","","","","","","","","","","","","","","","","","","","","","","","","","","","","","","","","","","","","","MET069MOBOB0 METAR 7026 //008 000000 160145Z AUTO 32001KT //// 29/23 A3011;","","","","","","","","","",""
"00702699999","2012-07-16T06:44:00","0.0","0.0","7026.0","WXPOD 7026, AF","FM-16","4","30.11","73","82","","","","","74","","","","","","000","","0","","","","","","","","","","","","","","","","","","","","","","","","","","","","","","","","","","","","","","","","","","","","","","","","","","","","","","","","","","","","","","","","","","","","","","","","","","","","","","","","","","","","","","","","","","","MET069MOBOB0 METAR 7026 //008 000000 160214Z AUTO 00000KT //// 28/23 A3011;","","","","","","","","","",""
"00702699999","2012-07-16T06:59:00","0.0","0.0","7026.0","WXPOD 7026, AF","FM-16","4","30.12","73","82","","","","","74","","","","","","VRB","","1","","","","","","","","","","","","","","","","","","","","","","","","","","","","","","","","","","","","","","","","","","","","","","","","","","","","","","","","","","","","","","","","","","","","","","","","","","","","","","","","","","","","","","","","","","","MET069MOBOB0 METAR 7026 //008 000000 160229Z AUTO VRB01KT //// 28/23 A3012;","","","","","","","","","",""
"00702699999","2012-07-16T07:14:00","0.0","0.0","7026.0","WXPOD 7026, AF","FM-16","4","30.12","75","82","","","","","79","","","","","","000","","0","","","","","","","","","","","","","","","","","","","","","","","","","","","","","","","","","","","","","","","","","","","","","","","","","","","","","","","","","","","","","","","","","","","","","","","","","","","","","","","","","","","","","","","","","","","MET069MOBOB0 METAR 7026 //008 000000 160244Z AUTO 00000KT //// 28/24 A3012;","","","","","","","","","",""
"00702699999","2012-07-16T07:30:00","0.0","0.0","7026.0","WXPOD 7026, AF","FM-15","4","30.12","73","82","","","","","74","","","","","","290","","1","","","","","","","","","","","","","","","","","","","","","","","","","","","","","","","","","","","","","","","","","","","","","","","","","","","","","","","","","","","","","","","","","","","","","","","","","","","","","","","","","","","","","","","","","","","MET069MOBOB0 METAR 7026 //008 000000 160259Z AUTO 29001KT //// 28/23 A3012;","","","","","","","","","",""
"00702699999","2012-07-16T07:44:00","0.0","0.0","7026.0","WXPOD 7026, AF","FM-16","4","30.12","73","81","","","","","79","","","","","","000","","0","","","","","","","","","","","","","","","","","","","","","","","","","","","","","","","","","","","","","","","","","","","","","","","","","","","","","","","","","","","","","","","","","","","","","","","","","","","","","","","","","","","","","","","","","","","MET069MOBOB0 METAR 7026 //008 000000 160314Z AUTO 00000KT //// 27/23 A3012;","","","","","","","","","",""
"00702699999","2012-07-16T07:59:00","0.0","0.0","7026.0","WXPOD 7026, AF","FM-16","4","30.12","73","81","","","","","79","","","","","","000","","0","","","","","","","","","","","","","","","","","","","","","","","","","","","","","","","","","","","","","","","","","","","","","","","","","","","","","","","","","","","","","","","","","","","","","","","","","","","","","","","","","","","","","","","","","","","MET069MOBOB0 METAR 7026 //008 000000 160329Z AUTO 00000KT //// 27/23 A3012;","","","","","","","","","",""
"00702699999","2012-07-16T08:14:00","0.0","0.0","7026.0","WXPOD 7026, AF","FM-16","4","30.12","73","81","","","","","79","","","","","","000","","0","","","","","","","","","","","","","","","","","","","","","","","","","","","","","","","","","","","","","","","","","","","","","","","","","","","","","","","","","","","","","","","","","","","","","","","","","","","","","","","","","","","","","","","","","","","MET069MOBOB0 METAR 7026 //008 000000 160344Z AUTO 00000KT //// 27/23 A3012;","","","","","","","","","",""
"00702699999","2012-07-16T08:44:00","0.0","0.0","7026.0","WXPOD 7026, AF","FM-16","4","30.12","73","81","","","","","79","","","","","","000","","0","","","","","","","","","","","","","","","","","","","","","","","","","","","","","","","","","","","","","","","","","","","","","","","","","","","","","","","","","","","","","","","","","","","","","","","","","","","","","","","","","","","","","","","","","","","MET069MOBOB0 METAR 7026 //008 000000 160414Z AUTO 00000KT //// 27/23 A3012;","","","","","","","","","",""
"00702699999","2012-07-16T08:59:00","0.0","0.0","7026.0","WXPOD 7026, AF","FM-16","4","30.12","73","81","","","","","79","","","","","","290","","1","","","","","","","","","","","","","","","","","","","","","","","","","","","","","","","","","","","","","","","","","","","","","","","","","","","","","","","","","","","","","","","","","","","","","","","","","","","","","","","","","","","","","","","","","","","MET069MOBOB0 METAR 7026 //008 000000 160429Z AUTO 29001KT //// 27/23 A3012;","","","","","","","","","",""
"00702699999","2012-07-16T09:14:00","0.0","0.0","7026.0","WXPOD 7026, AF","FM-16","4","30.12","73","81","","","","","79","","","","","","290","","1","","","","","","","","","","","","","","","","","","","","","","","","","","","","","","","","","","","","","","","","","","","","","","","","","","","","","","","","","","","","","","","","","","","","","","","","","","","","","","","","","","","","","","","","","","","MET069MOBOB0 METAR 7026 //008 000000 160444Z AUTO 29001KT //// 27/23 A3012;","","","","","","","","","",""
"00702699999","2012-07-16T09:30:00","0.0","0.0","7026.0","WXPOD 7026, AF","FM-15","4","30.12","73","79","","","","","84","","","","","","000","","0","","","","","","","","","","","","","","","","","","","","","","","","","","","","","","","","","","","","","","","","","","","","","","","","","","","","","","","","","","","","","","","","","","","","","","","","","","","","","","","","","","","","","","","","","","","MET069MOBOB0 METAR 7026 //008 000000 160459Z AUTO 00000KT //// 26/23 A3012;","","","","","","","","","",""
"00702699999","2012-07-16T09:44:00","0.0","0.0","7026.0","WXPOD 7026, AF","FM-16","4","30.11","73","79","","","","","84","","","","","","000","","0","","","","","","","","","","","","","","","","","","","","","","","","","","","","","","","","","","","","","","","","","","","","","","","","","","","","","","","","","","","","","","","","","","","","","","","","","","","","","","","","","","","","","","","","","","","MET069MOBOB0 METAR 7026 //008 000000 160514Z AUTO 00000KT //// 26/23 A3011;","","","","","","","","","",""
"00702699999","2012-07-16T09:59:00","0.0","0.0","7026.0","WXPOD 7026, AF","FM-16","4","30.11","73","79","","","","","84","","","","","","000","","0","","","","","","","","","","","","","","","","","","","","","","","","","","","","","","","","","","","","","","","","","","","","","","","","","","","","","","","","","","","","","","","","","","","","","","","","","","","","","","","","","","","","","","","","","","","MET069MOBOB0 METAR 7026 //008 000000 160529Z AUTO 00000KT //// 26/23 A3011;","","","","","","","","","",""
"00702699999","2012-07-16T10:14:00","0.0","0.0","7026.0","WXPOD 7026, AF","FM-16","4","30.11","73","79","","","","","84","","","","","","000","","0","","","","","","","","","","","","","","","","","","","","","","","","","","","","","","","","","","","","","","","","","","","","","","","","","","","","","","","","","","","","","","","","","","","","","","","","","","","","","","","","","","","","","","","","","","","MET069MOBOB0 METAR 7026 //008 000000 160544Z AUTO 00000KT //// 26/23 A3011;","","","","","","","","","",""
"00702699999","2012-07-16T10:44:00","0.0","0.0","7026.0","WXPOD 7026, AF","FM-16","4","30.10","73","79","","","","","84","","","","","","280","","1","","","","","","","","","","","","","","","","","","","","","","","","","","","","","","","","","","","","","","","","","","","","","","","","","","","","","","","","","","","","","","","","","","","","","","","","","","","","","","","","","","","","","","","","","","","MET069MOBOB0 METAR 7026 //008 000000 160614Z AUTO 28001KT //// 26/23 A3010;","","","","","","","","","",""
"00702699999","2012-07-16T10:59:00","0.0","0.0","7026.0","WXPOD 7026, AF","FM-16","4","30.10","75","79","","","","","89","","","","","","000","","0","","","","","","","","","","","","","","","","","","","","","","","","","","","","","","","","","","","","","","","","","","","","","","","","","","","","","","","","","","","","","","","","","","","","","","","","","","","","","","","","","","","","","","","","","","","MET069MOBOB0 METAR 7026 //008 000000 160629Z AUTO 00000KT //// 26/24 A3010;","","","","","","","","","",""
"00702699999","2012-07-16T11:14:00","0.0","0.0","7026.0","WXPOD 7026, AF","FM-16","4","30.10","73","77","","","","","89","","","","","","000","","0","","","","","","","","","","","","","","","","","","","","","","","","","","","","","","","","","","","","","","","","","","","","","","","","","","","","","","","","","","","","","","","","","","","","","","","","","","","","","","","","","","","","","","","","","","","MET069MOBOB0 METAR 7026 //008 000000 160644Z AUTO 00000KT //// 25/23 A3010;","","","","","","","","","",""
"00702699999","2012-07-16T11:30:00","0.0","0.0","7026.0","WXPOD 7026, AF","FM-15","4","30.10","73","77","","","","","89","","","","","","280","","1","","","","","","","","","","","","","","","","","","","","","","","","","","","","","","","","","","","","","","","","","","","","","","","","","","","","","","","","","","","","","","","","","","","","","","","","","","","","","","","","","","","","","","","","","","","MET069MOBOB0 METAR 7026 //008 000000 160659Z AUTO 28001KT //// 25/23 A3010;","","","","","","","","","",""
"00702699999","2012-07-16T11:44:00","0.0","0.0","7026.0","WXPOD 7026, AF","FM-16","4","30.09","73","77","","","","","89","","","","","","010","","1","","","","","","","","","","","","","","","","","","","","","","","","","","","","","","","","","","","","","","","","","","","","","","","","","","","","","","","","","","","","","","","","","","","","","","","","","","","","","","","","","","","","","","","","","","","MET069MOBOB0 METAR 7026 //008 000000 160714Z AUTO 01001KT //// 25/23 A3009;","","","","","","","","","",""
"00702699999","2012-07-16T11:59:00","0.0","0.0","7026.0","WXPOD 7026, AF","FM-16","4","30.09","73","77","","","","","89","","","","","","000","","0","","","","","","","","","","","","","","","","","","","","","","","","","","","","","","","","","","","","","","","","","","","","","","","","","","","","","","","","","","","","","","","","","","","","","","","","","","","","","","","","","","","","","","","","","","","MET069MOBOB0 METAR 7026 //008 000000 160729Z AUTO 00000KT //// 25/23 A3009;","","","","","","","","","",""
"00702699999","2012-07-16T12:14:00","0.0","0.0","7026.0","WXPOD 7026, AF","FM-16","4","30.08","73","77","","","","","89","","","","","","000","","0","","","","","","","","","","","","","","","","","","","","","","","","","","","","","","","","","","","","","","","","","","","","","","","","","","","","","","","","","","","","","","","","","","","","","","","","","","","","","","","","","","","","","","","","","","","MET069MOBOB0 METAR 7026 //008 000000 160744Z AUTO 00000KT //// 25/23 A3008;","","","","","","","","","",""
"00702699999","2012-07-16T12:30:00","0.0","0.0","7026.0","WXPOD 7026, AF","FM-15","4","30.08","73","77","","","","","89","","","","","","000","","0","","","","","","","","","","","","","","","","","","","","","","","","","","","","","","","","","","","","","","","","","","","","","","","","","","","","","","","","","","","","","","","","","","","","","","","","","","","","","","","","","","","","","","","","","","","MET069MOBOB0 METAR 7026 //008 000000 160759Z AUTO 00000KT //// 25/23 A3008;","","","","","","","","","",""
"00702699999","2012-07-16T12:44:00","0.0","0.0","7026.0","WXPOD 7026, AF","FM-16","4","30.07","73","77","","","","","89","","","","","","000","","0","","","","","","","","","","","","","","","","","","","","","","","","","","","","","","","","","","","","","","","","","","","","","","","","","","","","","","","","","","","","","","","","","","","","","","","","","","","","","","","","","","","","","","","","","","","MET069MOBOB0 METAR 7026 //008 000000 160814Z AUTO 00000KT //// 25/23 A3007;","","","","","","","","","",""
"00702699999","2012-07-16T12:59:00","0.0","0.0","7026.0","WXPOD 7026, AF","FM-16","4","30.07","73","77","","","","","89","","","","","","000","","0","","","","","","","","","","","","","","","","","","","","","","","","","","","","","","","","","","","","","","","","","","","","","","","","","","","","","","","","","","","","","","","","","","","","","","","","","","","","","","","","","","","","","","","","","","","MET069MOBOB0 METAR 7026 //008 000000 160829Z AUTO 00000KT //// 25/23 A3007;","","","","","","","","","",""
"00702699999","2012-07-16T13:14:00","0.0","0.0","7026.0","WXPOD 7026, AF","FM-16","4","30.07","73","77","","","","","89","","","","","","280","","1","","","","","","","","","","","","","","","","","","","","","","","","","","","","","","","","","","","","","","","","","","","","","","","","","","","","","","","","","","","","","","","","","","","","","","","","","","","","","","","","","","","","","","","","","","","MET069MOBOB0 METAR 7026 //008 000000 160844Z AUTO 28001KT //// 25/23 A3007;","","","","","","","","","",""
"00702699999","2012-07-16T13:30:00","0.0","0.0","7026.0","WXPOD 7026, AF","FM-15","4","30.07","73","77","","","","","89","","","","","","000","","0","","","","","","","","","","","","","","","","","","","","","","","","","","","","","","","","","","","","","","","","","","","","","","","","","","","","","","","","","","","","","","","","","","","","","","","","","","","","","","","","","","","","","","","","","","","MET069MOBOB0 METAR 7026 //008 000000 160859Z AUTO 00000KT //// 25/23 A3007;","","","","","","","","","",""
"00702699999","2012-07-16T13:44:00","0.0","0.0","7026.0","WXPOD 7026, AF","FM-16","4","30.07","73","77","","","","","89","","","","","","000","","0","","","","","","","","","","","","","","","","","","","","","","","","","","","","","","","","","","","","","","","","","","","","","","","","","","","","","","","","","","","","","","","","","","","","","","","","","","","","","","","","","","","","","","","","","","","MET069MOBOB0 METAR 7026 //008 000000 160914Z AUTO 00000KT //// 25/23 A3007;","","","","","","","","","",""
"00702699999","2012-07-16T13:59:00","0.0","0.0","7026.0","WXPOD 7026, AF","FM-16","4","30.07","73","77","","","","","89","","","","","","000","","0","","","","","","","","","","","","","","","","","","","","","","","","","","","","","","","","","","","","","","","","","","","","","","","","","","","","","","","","","","","","","","","","","","","","","","","","","","","","","","","","","","","","","","","","","","","MET069MOBOB0 METAR 7026 //008 000000 160929Z AUTO 00000KT //// 25/23 A3007;","","","","","","","","","",""
"00702699999","2012-07-16T14:14:00","0.0","0.0","7026.0","WXPOD 7026, AF","FM-16","4","30.07","73","77","","","","","89","","","","","","000","","0","","","","","","","","","","","","","","","","","","","","","","","","","","","","","","","","","","","","","","","","","","","","","","","","","","","","","","","","","","","","","","","","","","","","","","","","","","","","","","","","","","","","","","","","","","","MET069MOBOB0 METAR 7026 //008 000000 160944Z AUTO 00000KT //// 25/23 A3007;","","","","","","","","","",""
"00702699999","2012-07-16T14:30:00","0.0","0.0","7026.0","WXPOD 7026, AF","FM-15","4","30.07","73","77","","","","","89","","","","","","000","","0","","","","","","","","","","","","","","","","","","","","","","","","","","","","","","","","","","","","","","","","","","","","","","","","","","","","","","","","","","","","","","","","","","","","","","","","","","","","","","","","","","","","","","","","","","","MET069MOBOB0 METAR 7026 //008 000000 160959Z AUTO 00000KT //// 25/23 A3007;","","","","","","","","","",""
"00702699999","2012-07-16T14:44:00","0.0","0.0","7026.0","WXPOD 7026, AF","FM-16","4","30.08","73","75","","","","","94","","","","","","000","","0","","","","","","","","","","","","","","","","","","","","","","","","","","","","","","","","","","","","","","","","","","","","","","","","","","","","","","","","","","","","","","","","","","","","","","","","","","","","","","","","","","","","","","","","","","","MET069MOBOB0 METAR 7026 //008 000000 161014Z AUTO 00000KT //// 24/23 A3008;","","","","","","","","","",""
"00702699999","2012-07-16T14:59:00","0.0","0.0","7026.0","WXPOD 7026, AF","FM-16","4","30.08","73","75","","","","","94","","","","","","000","","0","","","","","","","","","","","","","","","","","","","","","","","","","","","","","","","","","","","","","","","","","","","","","","","","","","","","","","","","","","","","","","","","","","","","","","","","","","","","","","","","","","","","","","","","","","","MET069MOBOB0 METAR 7026 //008 000000 161029Z AUTO 00000KT //// 24/23 A3008;","","","","","","","","","",""
"00702699999","2012-07-16T15:14:00","0.0","0.0","7026.0","WXPOD 7026, AF","FM-16","4","30.08","73","77","","","","","89","","","","","","280","","1","","","","","","","","","","","","","","","","","","","","","","","","","","","","","","","","","","","","","","","","","","","","","","","","","","","","","","","","","","","","","","","","","","","","","","","","","","","","","","","","","","","","","","","","","","","MET069MOBOB0 METAR 7026 //008 000000 161044Z AUTO 28001KT //// 25/23 A3008;","","","","","","","","","",""
"00702699999","2012-07-16T15:30:00","0.0","0.0","7026.0","WXPOD 7026, AF","FM-15","4","30.08","73","77","","","","","89","","","","","","290","","1","","","","","","","","","","","","","","","","","","","","","","","","","","","","","","","","","","","","","","","","","","","","","","","","","","","","","","","","","","","","","","","","","","","","","","","","","","","","","","","","","","","","","","","","","","","MET069MOBOB0 METAR 7026 //008 000000 161059Z AUTO 29001KT //// 25/23 A3008;","","","","","","","","","",""
"00702699999","2012-07-16T15:44:00","0.0","0.0","7026.0","WXPOD 7026, AF","FM-16","4","30.08","73","77","","","","","89","","","","","","270","","1","","","","","","","","","","","","","","","","","","","","","","","","","","","","","","","","","","","","","","","","","","","","","","","","","","","","","","","","","","","","","","","","","","","","","","","","","","","","","","","","","","","","","","","","","","","MET069MOBOB0 METAR 7026 //008 000000 161114Z AUTO 27001KT //// 25/23 A3008;","","","","","","","","","",""
"00702699999","2012-07-16T15:59:00","0.0","0.0","7026.0","WXPOD 7026, AF","FM-16","4","30.09","73","77","","","","","89","","","","","","VRB","","1","","","","","","","","","","","","","","","","","","","","","","","","","","","","","","","","","","","","","","","","","","","","","","","","","","","","","","","","","","","","","","","","","","","","","","","","","","","","","","","","","","","","","","","","","","","MET069MOBOB0 METAR 7026 //008 000000 161129Z AUTO VRB01KT //// 25/23 A3009;","","","","","","","","","",""
"00702699999","2012-07-16T16:14:00","0.0","0.0","7026.0","WXPOD 7026, AF","FM-16","4","30.09","73","79","","","","","84","","","","","","000","","0","","","","","","","","","","","","","","","","","","","","","","","","","","","","","","","","","","","","","","","","","","","","","","","","","","","","","","","","","","","","","","","","","","","","","","","","","","","","","","","","","","","","","","","","","","","MET069MOBOB0 METAR 7026 //008 000000 161144Z AUTO 00000KT //// 26/23 A3009;","","","","","","","","","",""
"00702699999","2012-07-16T16:30:00","0.0","0.0","7026.0","WXPOD 7026, AF","FM-15","4","30.09","73","79","","","","","84","","","","","","000","","0","","","","","","","","","","","","","","","","","","","","","","","","","","","","","","","","","","","","","","","","","","","","","","","","","","","","","","","","","","","","","","","","","","","","","","","","","","","","","","","","","","","","","","","","","","","MET069MOBOB0 METAR 7026 //008 000000 161159Z AUTO 00000KT //// 26/23 A3009;","","","","","","","","","",""
"00702699999","2012-07-16T16:44:00","0.0","0.0","7026.0","WXPOD 7026, AF","FM-16","4","30.09","73","81","","","","","79","","","","","","000","","0","","","","","","","","","","","","","","","","","","","","","","","","","","","","","","","","","","","","","","","","","","","","","","","","","","","","","","","","","","","","","","","","","","","","","","","","","","","","","","","","","","","","","","","","","","","MET069MOBOB0 METAR 7026 //008 000000 161214Z AUTO 00000KT //// 27/23 A3009;","","","","","","","","","",""
"00702699999","2012-07-16T16:59:00","0.0","0.0","7026.0","WXPOD 7026, AF","FM-16","4","30.09","73","82","","","","","74","","","","","","000","","0","","","","","","","","","","","","","","","","","","","","","","","","","","","","","","","","","","","","","","","","","","","","","","","","","","","","","","","","","","","","","","","","","","","","","","","","","","","","","","","","","","","","","","","","","","","MET069MOBOB0 METAR 7026 //008 000000 161229Z AUTO 00000KT //// 28/23 A3009;","","","","","","","","","",""
"00702699999","2012-07-16T17:14:00","0.0","0.0","7026.0","WXPOD 7026, AF","FM-16","4","30.09","73","82","","","","","74","","","","","","000","","0","","","","","","","","","","","","","","","","","","","","","","","","","","","","","","","","","","","","","","","","","","","","","","","","","","","","","","","","","","","","","","","","","","","","","","","","","","","","","","","","","","","","","","","","","","","MET069MOBOB0 METAR 7026 //008 000000 161244Z AUTO 00000KT //// 28/23 A3009;","","","","","","","","","",""
"00702699999","2012-07-16T17:30:00","0.0","0.0","7026.0","WXPOD 7026, AF","FM-15","4","30.09","73","84","","","","","70","","","","","","160","","1","","","","","","","","","","","","","","","","","","","","","","","","","","","","","","","","","","","","","","","","","","","","","","","","","","","","","","","","","","","","","","","","","","","","","","","","","","","","","","","","","","","","","","","","","","","MET069MOBOB0 METAR 7026 //008 000000 161259Z AUTO 16001KT //// 29/23 A3009;","","","","","","","","","",""
"00702699999","2012-07-16T17:44:00","0.0","0.0","7026.0","WXPOD 7026, AF","FM-16","4","30.09","73","84","","","","","70","","","","","","000","","0","","","","","","","","","","","","","","","","","","","","","","","","","","","","","","","","","","","","","","","","","","","","","","","","","","","","","","","","","","","","","","","","","","","","","","","","","","","","","","","","","","","","","","","","","","","MET069MOBOB0 METAR 7026 //008 000000 161314Z AUTO 00000KT //// 29/23 A3009;","","","","","","","","","",""
"00702699999","2012-07-16T17:59:00","0.0","0.0","7026.0","WXPOD 7026, AF","FM-16","4","30.09","75","86","","","","","70","","","","","","180","","1","","","","","","","","","","","","","","","","","","","","","","","","","","","","","","","","","","","","","","","","","","","","","","","","","","","","","","","","","","","","","","","","","","","","","","","","","","","","","","","","","","","","","","","","","","","MET069MOBOB0 METAR 7026 //008 000000 161329Z AUTO 18001KT //// 30/24 A3009;","","","","","","","","","",""
"00702699999","2012-07-16T18:14:00","0.0","0.0","7026.0","WXPOD 7026, AF","FM-16","4","30.08","75","88","","","","","66","","","","","","000","","0","","","","","","","","","","","","","","","","","","","","","","","","","","","","","","","","","","","","","","","","","","","","","","","","","","","","","","","","","","","","","","","","","","","","","","","","","","","","","","","","","","","","","","","","","","","MET069MOBOB0 METAR 7026 //008 000000 161344Z AUTO 00000KT //// 31/24 A3008;","","","","","","","","","",""
"00702699999","2012-07-16T18:30:00","0.0","0.0","7026.0","WXPOD 7026, AF","FM-15","4","30.08","73","88","","","","","62","","","","","","180","","1","","","","","","","","","","","","","","","","","","","","","","","","","","","","","","","","","","","","","","","","","","","","","","","","","","","","","","","","","","","","","","","","","","","","","","","","","","","","","","","","","","","","","","","","","","","MET069MOBOB0 METAR 7026 //008 000000 161359Z AUTO 18001KT //// 31/23 A3008;","","","","","","","","","",""
"00702699999","2012-07-16T18:44:00","0.0","0.0","7026.0","WXPOD 7026, AF","FM-16","4","30.07","75","91","","","","","59","","","","","","000","","0","","","","","","","","","","","","","","","","","","","","","","","","","","","","","","","","","","","","","","","","","","","","","","","","","","","","","","","","","","","","","","","","","","","","","","","","","","","","","","","","","","","","","","","","","","","MET069MOBOB0 METAR 7026 //008 000000 161414Z AUTO 00000KT //// 33/24 A3007;","","","","","","","","","",""
"00702699999","2012-07-16T19:14:00","0.0","0.0","7026.0","WXPOD 7026, AF","FM-16","4","30.07","75","97","","","","","50","","","","","","000","","0","","","","","","","","","","","","","","","","","","","","","","","","","","","","","","","","","","","","","","","","","","","","","","","","","","","","","","","","","","","","","","","","","","","","","","","","","","","","","","","","","","","","","","","","","","","MET069MOBOB0 METAR 7026 //008 000000 161444Z AUTO 00000KT //// 36/24 A3007;","","","","","","","","","",""
"00702699999","2012-07-16T19:30:00","0.0","0.0","7026.0","WXPOD 7026, AF","FM-15","4","30.06","75","99","","","","","47","","","","","","000","","0","","","","","","","","","","","","","","","","","","","","","","","","","","","","","","","","","","","","","","","","","","","","","","","","","","","","","","","","","","","","","","","","","","","","","","","","","","","","","","","","","","","","","","","","","","","MET069MOBOB0 METAR 7026 //008 000000 161459Z AUTO 00000KT //// 37/24 A3006;","","","","","","","","","",""
"00702699999","2012-07-16T19:44:00","0.0","0.0","7026.0","WXPOD 7026, AF","FM-16","4","30.06","75","99","","","","","47","","","","","","VRB","","2","","","","","","","","","","","","","","","","","","","","","","","","","","","","","","","","","","","","","","","","","","","","","","","","","","","","","","","","","","","","","","","","","","","","","","","","","","","","","","","","","","","","","","","","","","","MET069MOBOB0 METAR 7026 //008 000000 161514Z AUTO VRB02KT //// 37/24 A3006;","","","","","","","","","",""
"00702699999","2012-07-16T19:59:00","0.0","0.0","7026.0","WXPOD 7026, AF","FM-16","4","30.06","77","100","","","","","47","","","","","","250","","1","","","","","","","","","","","","","","","","","","","","","","","","","","","","","","","","","","","","","","","","","","","","","","","","","","","","","","","","","","","","","","","","","","","","","","","","","","","","","","","","","","","","","","","","","","","MET069MOBOB0 METAR 7026 //008 000000 161529Z AUTO 25001KT //// 38/25 A3006;","","","","","","","","","",""
"00702699999","2012-07-16T20:14:00","0.0","0.0","7026.0","WXPOD 7026, AF","FM-16","4","30.06","75","102","","","","","42","","","","","","250","","1","","","","","","","","","","","","","","","","","","","","","","","","","","","","","","","","","","","","","","","","","","","","","","","","","","","","","","","","","","","","","","","","","","","","","","","","","","","","","","","","","","","","","","","","","","","MET069MOBOB0 METAR 7026 //008 000000 161544Z AUTO 25001KT //// 39/24 A3006;","","","","","","","","","",""
"00702699999","2012-07-16T20:30:00","0.0","0.0","7026.0","WXPOD 7026, AF","FM-15","4","30.06","75","102","","","","","42","","","","","","VRB","","1","","","","","","","","","","","","","","","","","","","","","","","","","","","","","","","","","","","","","","","","","","","","","","","","","","","","","","","","","","","","","","","","","","","","","","","","","","","","","","","","","","","","","","","","","","","MET069MOBOB0 METAR 7026 //008 000000 161559Z AUTO VRB01KT //// 39/24 A3006;","","","","","","","","","",""
"00702699999","2012-07-16T20:44:00","0.0","0.0","7026.0","WXPOD 7026, AF","FM-16","4","30.05","75","100","","","","","45","","","","","","VRB","","1","","","","","","","","","","","","","","","","","","","","","","","","","","","","","","","","","","","","","","","","","","","","","","","","","","","","","","","","","","","","","","","","","","","","","","","","","","","","","","","","","","","","","","","","","","","MET069MOBOB0 METAR 7026 //008 000000 161614Z AUTO VRB01KT //// 38/24 A3005;","","","","","","","","","",""
"00702699999","2012-07-16T21:14:00","0.0","0.0","7026.0","WXPOD 7026, AF","FM-16","4","30.04","75","104","","","","","40","","","","","","VRB","","1","","","","","","","","","","","","","","","","","","","","","","","","","","","","","","","","","","","","","","","","","","","","","","","","","","","","","","","","","","","","","","","","","","","","","","","","","","","","","","","","","","","","","","","","","","","MET069MOBOB0 METAR 7026 //008 000000 161644Z AUTO VRB01KT //// 40/24 A3004;","","","","","","","","","",""
"00702699999","2012-07-16T21:30:00","0.0","0.0","7026.0","WXPOD 7026, AF","FM-15","4","30.03","73","100","","","","","42","","","","","","190","","1","","","","","","","","","","","","","","","","","","","","","","","","","","","","","","","","","","","","","","","","","","","","","","","","","","","","","","","","","","","","","","","","","","","","","","","","","","","","","","","","","","","","","","","","","","","MET069MOBOB0 METAR 7026 //008 000000 161659Z AUTO 19001KT //// 38/23 A3003;","","","","","","","","","",""
"00702699999","2012-07-16T21:44:00","0.0","0.0","7026.0","WXPOD 7026, AF","FM-16","4","30.02","75","106","","","","","38","","","","","","VRB","","1","","","","","","","","","","","","","","","","","","","","","","","","","","","","","","","","","","","","","","","","","","","","","","","","","","","","","","","","","","","","","","","","","","","","","","","","","","","","","","","","","","","","","","","","","","","MET069MOBOB0 METAR 7026 //008 000000 161714Z AUTO VRB01KT //// 41/24 A3002;","","","","","","","","","",""
"00702699999","2012-07-16T21:59:00","0.0","0.0","7026.0","WXPOD 7026, AF","FM-16","4","30.01","75","106","","","","","38","","","","","","180","","1","","","","","","","","","","","","","","","","","","","","","","","","","","","","","","","","","","","","","","","","","","","","","","","","","","","","","","","","","","","","","","","","","","","","","","","","","","","","","","","","","","","","","","","","","","","MET069MOBOB0 METAR 7026 //008 000000 161729Z AUTO 18001KT //// 41/24 A3001;","","","","","","","","","",""
"00702699999","2012-07-16T22:14:00","0.0","0.0","7026.0","WXPOD 7026, AF","FM-16","4","30.00","75","100","","","","","45","","","","","","000","","0","","","","","","","","","","","","","","","","","","","","","","","","","","","","","","","","","","","","","","","","","","","","","","","","","","","","","","","","","","","","","","","","","","","","","","","","","","","","","","","","","","","","","","","","","","","MET069MOBOB0 METAR 7026 //008 000000 161744Z AUTO 00000KT //// 38/24 A3000;","","","","","","","","","",""
"00702699999","2012-07-16T22:30:00","0.0","0.0","7026.0","WXPOD 7026, AF","FM-15","4","30.00","75","97","","","","","50","","","","","","VRB","","2","","","","","","","","","","","","","","","","","","","","","","","","","","","","","","","","","","","","","","","","","","","","","","","","","","","","","","","","","","","","","","","","","","","","","","","","","","","","","","","","","","","","","","","","","","","MET069MOBOB0 METAR 7026 //008 000000 161759Z AUTO VRB02KT //// 36/24 A3000;","","","","","","","","","",""
"00702699999","2012-07-16T22:44:00","0.0","0.0","7026.0","WXPOD 7026, AF","FM-16","4","30.01","75","91","","","","","59","","","","","","030","","1","","","","","","","","","","","","","","","","","","","","","","","","","","","","","","","","","","","","","","","","","","","","","","","","","","","","","","","","","","","","","","","","","","","","","","","","","","","","","","","","","","","","","","","","","","","MET069MOBOB0 METAR 7026 //008 000000 161814Z AUTO 03001KT //// 33/24 A3001;","","","","","","","","","",""
"00702699999","2012-07-16T22:59:00","0.0","0.0","7026.0","WXPOD 7026, AF","FM-16","4","30.00","73","90","","","","","59","","","","","","000","","0","","","","","","","","","","","","","","","","","","","","","","","","","","","","","","","","","","","","","","","","","","","","","","","","","","","","","","","","","","","","","","","","","","","","","","","","","","","","","","","","","","","","","","","","","","","MET069MOBOB0 METAR 7026 //008 000000 161829Z AUTO 00000KT //// 32/23 A3000;","","","","","","","","","",""
"00702699999","2012-07-16T23:14:00","0.0","0.0","7026.0","WXPOD 7026, AF","FM-16","4","29.99","73","88","","","","","62","","","","","","350","","1","","","","","","","","","","","","","","","","","","","","","","","","","","","","","","","","","","","","","","","","","","","","","","","","","","","","","","","","","","","","","","","","","","","","","","","","","","","","","","","","","","","","","","","","","","","MET069MOBOB0 METAR 7026 //008 000000 161844Z AUTO 35001KT //// 31/23 A2999;","","","","","","","","","",""
"00702699999","2012-07-16T23:30:00","0.0","0.0","7026.0","WXPOD 7026, AF","FM-15","4","30.01","75","91","","","","","59","","","","","","000","","0","","","","","","","","","","","","","","","","","","","","","","","","","","","","","","","","","","","","","","","","","","","","","","","","","","","","","","","","","","","","","","","","","","","","","","","","","","","","","","","","","","","","","","","","","","","MET069MOBOB0 METAR 7026 //008 000000 161859Z AUTO 00000KT //// 33/24 A3001;","","","","","","","","","",""
"00702699999","2012-07-16T23:44:00","0.0","0.0","7026.0","WXPOD 7026, AF","FM-16","4","30.00","79","82","","","","","89","","","","","","000","","0","","","","","","","","","","","","","","","","","","","","","","","","","","","","","","","","","","","","","","","","","","","","","","","","","","","","","","","","","","","","","","","","","","","","","","","","","","","","","","","","","","","","","","","","","","","MET069MOBOB0 METAR 7026 //008 000000 161914Z AUTO 00000KT //// 28/26 A3000;","","","","","","","","","",""
"00702699999","2012-07-16T23:59:00","0.0","0.0","7026.0","WXPOD 7026, AF","FM-16","4","29.96","77","81","","","","","89","","","","","","000","","0","","","","","","","","","","","","","","","","","","","","","","","","","","","","","","","","","","","","","","","","","","","","","","","","","","","","","","","","","","","","","","","","","","","","","","","","","","","","","","","","","","","","","","","","","","","MET069MOBOB0 METAR 7026 //008 000000 161929Z AUTO 00000KT //// 27/25 A2996;","","","","","","","","","",""
"00702699999","2012-07-17T00:14:00","0.0","0.0","7026.0","WXPOD 7026, AF","FM-16","4","29.98","75","79","","","","","89","","","","","","330","","1","","","","","","","","","","","","","","","","","","","","","","","","","","","","","","","","","","","","","","","","","","","","","","","","","","","","","","","","","","","","","","","","","","","","","","","","","","","","","","","","","","","","","","","","","","","MET069MOBOB0 METAR 7026 //008 000000 161944Z AUTO 33001KT //// 26/24 A2998;","","","","","","","","","",""
"00702699999","2012-07-17T00:30:00","0.0","0.0","7026.0","WXPOD 7026, AF","FM-15","4","29.98","75","79","","","","","89","","","","","","330","","1","","","","","","","","","","","","","","","","","","","","","","","","","","","","","","","","","","","","","","","","","","","","","","","","","","","","","","","","","","","","","","","","","","","","","","","","","","","","","","","","","","","","","","","","","","","MET069MOBOB0 METAR 7026 //008 000000 161959Z AUTO 33001KT //// 26/24 A2998;","","","","","","","","","",""
"00702699999","2012-07-17T00:44:00","0.0","0.0","7026.0","WXPOD 7026, AF","FM-16","4","29.98","75","79","","","","","89","","","","","","000","","0","","","","","","","","","","","","","","","","","","","","","","","","","","","","","","","","","","","","","","","","","","","","","","","","","","","","","","","","","","","","","","","","","","","","","","","","","","","","","","","","","","","","","","","","","","","MET069MOBOB0 METAR 7026 //008 000000 162014Z AUTO 00000KT //// 26/24 A2998;","","","","","","","","","",""
"00702699999","2012-07-17T01:14:00","0.0","0.0","7026.0","WXPOD 7026, AF","FM-16","4","29.99","75","79","","","","","89","","","","","","330","","1","","","","","","","","","","","","","","","","","","","","","","","","","","","","","","","","","","","","","","","","","","","","","","","","","","","","","","","","","","","","","","","","","","","","","","","","","","","","","","","","","","","","","","","","","","","MET069MOBOB0 METAR 7026 //008 000000 162044Z AUTO 33001KT //// 26/24 A2999;","","","","","","","","","",""
"00702699999","2012-07-17T01:30:00","0.0","0.0","7026.0","WXPOD 7026, AF","FM-15","4","29.98","75","79","","","","","89","","","","","","000","","0","","","","","","","","","","","","","","","","","","","","","","","","","","","","","","","","","","","","","","","","","","","","","","","","","","","","","","","","","","","","","","","","","","","","","","","","","","","","","","","","","","","","","","","","","","","MET069MOBOB0 METAR 7026 //008 000000 162059Z AUTO 00000KT //// 26/24 A2998;","","","","","","","","","",""
"00702699999","2012-07-17T01:44:00","0.0","0.0","7026.0","WXPOD 7026, AF","FM-16","4","29.97","75","79","","","","","89","","","","","","000","","0","","","","","","","","","","","","","","","","","","","","","","","","","","","","","","","","","","","","","","","","","","","","","","","","","","","","","","","","","","","","","","","","","","","","","","","","","","","","","","","","","","","","","","","","","","","MET069MOBOB0 METAR 7026 //008 000000 162114Z AUTO 00000KT //// 26/24 A2997;","","","","","","","","","",""
"00702699999","2012-07-17T01:59:00","0.0","0.0","7026.0","WXPOD 7026, AF","FM-16","4","29.96","75","79","","","","","89","","","","","","000","","0","","","","","","","","","","","","","","","","","","","","","","","","","","","","","","","","","","","","","","","","","","","","","","","","","","","","","","","","","","","","","","","","","","","","","","","","","","","","","","","","","","","","","","","","","","","MET069MOBOB0 METAR 7026 //008 000000 162129Z AUTO 00000KT //// 26/24 A2996;","","","","","","","","","",""
"00702699999","2012-07-17T02:14:00","0.0","0.0","7026.0","WXPOD 7026, AF","FM-16","4","29.96","75","79","","","","","89","","","","","","000","","0","","","","","","","","","","","","","","","","","","","","","","","","","","","","","","","","","","","","","","","","","","","","","","","","","","","","","","","","","","","","","","","","","","","","","","","","","","","","","","","","","","","","","","","","","","","MET069MOBOB0 METAR 7026 //008 000000 162144Z AUTO 00000KT //// 26/24 A2996;","","","","","","","","","",""
"00702699999","2012-07-17T02:30:00","0.0","0.0","7026.0","WXPOD 7026, AF","FM-15","4","29.97","73","79","","","","","84","","","","","","000","","0","","","","","","","","","","","","","","","","","","","","","","","","","","","","","","","","","","","","","","","","","","","","","","","","","","","","","","","","","","","","","","","","","","","","","","","","","","","","","","","","","","","","","","","","","","","MET069MOBOB0 METAR 7026 //008 000000 162159Z AUTO 00000KT //// 26/23 A2997;","","","","","","","","","",""
"00702699999","2012-07-17T02:44:00","0.0","0.0","7026.0","WXPOD 7026, AF","FM-16","4","29.96","73","79","","","","","84","","","","","","000","","0","","","","","","","","","","","","","","","","","","","","","","","","","","","","","","","","","","","","","","","","","","","","","","","","","","","","","","","","","","","","","","","","","","","","","","","","","","","","","","","","","","","","","","","","","","","MET069MOBOB0 METAR 7026 //008 000000 162214Z AUTO 00000KT //// 26/23 A2996;","","","","","","","","","",""
"00702699999","2012-07-17T02:59:00","0.0","0.0","7026.0","WXPOD 7026, AF","FM-16","4","29.96","73","79","","","","","84","","","","","","000","","0","","","","","","","","","","","","","","","","","","","","","","","","","","","","","","","","","","","","","","","","","","","","","","","","","","","","","","","","","","","","","","","","","","","","","","","","","","","","","","","","","","","","","","","","","","","MET069MOBOB0 METAR 7026 //008 000000 162229Z AUTO 00000KT //// 26/23 A2996;","","","","","","","","","",""
"00702699999","2012-07-17T03:14:00","0.0","0.0","7026.0","WXPOD 7026, AF","FM-16","4","29.96","73","79","","","","","84","","","","","","130","","1","","","","","","","","","","","","","","","","","","","","","","","","","","","","","","","","","","","","","","","","","","","","","","","","","","","","","","","","","","","","","","","","","","","","","","","","","","","","","","","","","","","","","","","","","","","MET069MOBOB0 METAR 7026 //008 000000 162244Z AUTO 13001KT //// 26/23 A2996;","","","","","","","","","",""
"00702699999","2012-07-17T03:30:00","0.0","0.0","7026.0","WXPOD 7026, AF","FM-15","4","29.96","73","79","","","","","84","","","","","","000","","0","","","","","","","","","","","","","","","","","","","","","","","","","","","","","","","","","","","","","","","","","","","","","","","","","","","","","","","","","","","","","","","","","","","","","","","","","","","","","","","","","","","","","","","","","","","MET069MOBOB0 METAR 7026 //008 000000 162259Z AUTO 00000KT //// 26/23 A2996;","","","","","","","","","",""
"00702699999","2012-07-17T03:44:00","0.0","0.0","7026.0","WXPOD 7026, AF","FM-16","4","29.96","75","79","","","","","89","","","","","","250","","1","","","","","","","","","","","","","","","","","","","","","","","","","","","","","","","","","","","","","","","","","","","","","","","","","","","","","","","","","","","","","","","","","","","","","","","","","","","","","","","","","","","","","","","","","","","MET069MOBOB0 METAR 7026 //008 000000 162314Z AUTO 25001KT //// 26/24 A2996;","","","","","","","","","",""
"00702699999","2012-07-17T03:59:00","0.0","0.0","7026.0","WXPOD 7026, AF","FM-16","4","29.98","73","79","","","","","84","","","","","","000","","0","","","","","","","","","","","","","","","","","","","","","","","","","","","","","","","","","","","","","","","","","","","","","","","","","","","","","","","","","","","","","","","","","","","","","","","","","","","","","","","","","","","","","","","","","","","MET069MOBOB0 METAR 7026 //008 000000 162329Z AUTO 00000KT //// 26/23 A2998;","","","","","","","","","",""
"00702699999","2012-07-17T04:14:00","0.0","0.0","7026.0","WXPOD 7026, AF","FM-16","4","29.98","73","79","","","","","84","","","","","","000","","0","","","","","","","","","","","","","","","","","","","","","","","","","","","","","","","","","","","","","","","","","","","","","","","","","","","","","","","","","","","","","","","","","","","","","","","","","","","","","","","","","","","","","","","","","","","MET069MOBOB0 METAR 7026 //008 000000 162344Z AUTO 00000KT //// 26/23 A2998;","","","","","","","","","",""
"00702699999","2012-07-17T04:30:00","0.0","0.0","7026.0","WXPOD 7026, AF","FM-15","4","29.98","73","79","","","","","84","","","","","","000","","0","","","","","","","","","","","","","","","","","","","","","","","","","","","","","","","","","","","","","","","","","","","","","","","","","","","","","","","","","","","","","","","","","","","","","","","","","","","","","","","","","","","","","","","","","","","MET069MOBOB0 METAR 7026 //008 000000 162359Z AUTO 00000KT //// 26/23 A2998;","","","","","","","","","",""
"00702699999","2012-07-17T04:45:00","0.0","0.0","7026.0","WXPOD 7026, AF","FM-16","4","29.98","73","79","","","","","84","","","","","","000","","0","","","","","","","","","","","","","","","","","","","","","","","","","","","","","","","","","","","","","","","","","","","","","","","","","","","","","","","","","","","","","","","","","","","","","","","","","","","","","","","","","","","","","","","","","","","MET069MOBOB0 METAR 7026 //008 000000 170015Z AUTO 00000KT //// 26/23 A2998;","","","","","","","","","",""
"00702699999","2012-07-17T05:14:00","0.0","0.0","7026.0","WXPOD 7026, AF","FM-16","4","29.97","73","77","","","","","89","","","","","","000","","0","","","","","","","","","","","","","","","","","","","","","","","","","","","","","","","","","","","","","","","","","","","","","","","","","","","","","","","","","","","","","","","","","","","","","","","","","","","","","","","","","","","","","","","","","","","MET069MOBOB0 METAR 7026 //008 000000 170044Z AUTO 00000KT //// 25/23 A2997;","","","","","","","","","",""
"00702699999","2012-07-17T05:30:00","0.0","0.0","7026.0","WXPOD 7026, AF","FM-15","4","29.97","73","77","","","","","89","","","","","","000","","0","","","","","","","","","","","","","","","","","","","","","","","","","","","","","","","","","","","","","","","","","","","","","","","","","","","","","","","","","","","","","","","","","","","","","","","","","","","","","","","","","","","","","","","","","","","MET069MOBOB0 METAR 7026 //008 000000 170059Z AUTO 00000KT //// 25/23 A2997;","","","","","","","","","",""
"00702699999","2012-07-17T05:44:00","0.0","0.0","7026.0","WXPOD 7026, AF","FM-16","4","29.97","73","77","","","","","89","","","","","","000","","0","","","","","","","","","","","","","","","","","","","","","","","","","","","","","","","","","","","","","","","","","","","","","","","","","","","","","","","","","","","","","","","","","","","","","","","","","","","","","","","","","","","","","","","","","","","MET069MOBOB0 METAR 7026 //008 000000 170114Z AUTO 00000KT //// 25/23 A2997;","","","","","","","","","",""
"00702699999","2012-07-17T05:59:00","0.0","0.0","7026.0","WXPOD 7026, AF","FM-16","4","29.98","73","77","","","","","89","","","","","","000","","0","","","","","","","","","","","","","","","","","","","","","","","","","","","","","","","","","","","","","","","","","","","","","","","","","","","","","","","","","","","","","","","","","","","","","","","","","","","","","","","","","","","","","","","","","","","MET069MOBOB0 METAR 7026 //008 000000 170129Z AUTO 00000KT //// 25/23 A2998;","","","","","","","","","",""
"00702699999","2012-07-17T06:14:00","0.0","0.0","7026.0","WXPOD 7026, AF","FM-16","4","29.98","73","77","","","","","89","","","","","","000","","0","","","","","","","","","","","","","","","","","","","","","","","","","","","","","","","","","","","","","","","","","","","","","","","","","","","","","","","","","","","","","","","","","","","","","","","","","","","","","","","","","","","","","","","","","","","MET069MOBOB0 METAR 7026 //008 000000 170144Z AUTO 00000KT //// 25/23 A2998;","","","","","","","","","",""
"00702699999","2012-07-17T06:30:00","0.0","0.0","7026.0","WXPOD 7026, AF","FM-15","4","29.99","73","77","","","","","89","","","","","","000","","0","","","","","","","","","","","","","","","","","","","","","","","","","","","","","","","","","","","","","","","","","","","","","","","","","","","","","","","","","","","","","","","","","","","","","","","","","","","","","","","","","","","","","","","","","","","MET069MOBOB0 METAR 7026 //008 000000 170159Z AUTO 00000KT //// 25/23 A2999;","","","","","","","","","",""
"00702699999","2012-07-17T06:44:00","0.0","0.0","7026.0","WXPOD 7026, AF","FM-16","4","29.98","73","77","","","","","89","","","","","","000","","0","","","","","","","","","","","","","","","","","","","","","","","","","","","","","","","","","","","","","","","","","","","","","","","","","","","","","","","","","","","","","","","","","","","","","","","","","","","","","","","","","","","","","","","","","","","MET069MOBOB0 METAR 7026 //008 000000 170214Z AUTO 00000KT //// 25/23 A2998;","","","","","","","","","",""
"00702699999","2012-07-17T06:59:00","0.0","0.0","7026.0","WXPOD 7026, AF","FM-16","4","29.98","73","77","","","","","89","","","","","","000","","0","","","","","","","","","","","","","","","","","","","","","","","","","","","","","","","","","","","","","","","","","","","","","","","","","","","","","","","","","","","","","","","","","","","","","","","","","","","","","","","","","","","","","","","","","","","MET069MOBOB0 METAR 7026 //008 000000 170229Z AUTO 00000KT //// 25/23 A2998;","","","","","","","","","",""
"00702699999","2012-07-17T07:14:00","0.0","0.0","7026.0","WXPOD 7026, AF","FM-16","4","29.98","73","77","","","","","89","","","","","","000","","0","","","","","","","","","","","","","","","","","","","","","","","","","","","","","","","","","","","","","","","","","","","","","","","","","","","","","","","","","","","","","","","","","","","","","","","","","","","","","","","","","","","","","","","","","","","MET069MOBOB0 METAR 7026 //008 000000 170244Z AUTO 00000KT //// 25/23 A2998;","","","","","","","","","",""
"00702699999","2012-07-17T07:30:00","0.0","0.0","7026.0","WXPOD 7026, AF","FM-15","4","29.97","73","77","","","","","89","","","","","","000","","0","","","","","","","","","","","","","","","","","","","","","","","","","","","","","","","","","","","","","","","","","","","","","","","","","","","","","","","","","","","","","","","","","","","","","","","","","","","","","","","","","","","","","","","","","","","MET069MOBOB0 METAR 7026 //008 000000 170259Z AUTO 00000KT //// 25/23 A2997;","","","","","","","","","",""
"00702699999","2012-07-17T07:44:00","0.0","0.0","7026.0","WXPOD 7026, AF","FM-16","4","29.97","73","77","","","","","89","","","","","","000","","0","","","","","","","","","","","","","","","","","","","","","","","","","","","","","","","","","","","","","","","","","","","","","","","","","","","","","","","","","","","","","","","","","","","","","","","","","","","","","","","","","","","","","","","","","","","MET069MOBOB0 METAR 7026 //008 000000 170314Z AUTO 00000KT //// 25/23 A2997;","","","","","","","","","",""
"00702699999","2012-07-17T08:14:00","0.0","0.0","7026.0","WXPOD 7026, AF","FM-16","4","29.97","73","77","","","","","89","","","","","","000","","0","","","","","","","","","","","","","","","","","","","","","","","","","","","","","","","","","","","","","","","","","","","","","","","","","","","","","","","","","","","","","","","","","","","","","","","","","","","","","","","","","","","","","","","","","","","MET069MOBOB0 METAR 7026 //008 000000 170344Z AUTO 00000KT //// 25/23 A2997;","","","","","","","","","",""
"00702699999","2012-07-17T08:30:00","0.0","0.0","7026.0","WXPOD 7026, AF","FM-15","4","29.98","73","77","","","","","89","","","","","","000","","0","","","","","","","","","","","","","","","","","","","","","","","","","","","","","","","","","","","","","","","","","","","","","","","","","","","","","","","","","","","","","","","","","","","","","","","","","","","","","","","","","","","","","","","","","","","MET069MOBOB0 METAR 7026 //008 000000 170359Z AUTO 00000KT //// 25/23 A2998;","","","","","","","","","",""
"00702699999","2012-07-17T08:44:00","0.0","0.0","7026.0","WXPOD 7026, AF","FM-16","4","29.98","73","77","","","","","89","","","","","","000","","0","","","","","","","","","","","","","","","","","","","","","","","","","","","","","","","","","","","","","","","","","","","","","","","","","","","","","","","","","","","","","","","","","","","","","","","","","","","","","","","","","","","","","","","","","","","MET069MOBOB0 METAR 7026 //008 000000 170414Z AUTO 00000KT //// 25/23 A2998;","","","","","","","","","",""
"00702699999","2012-07-17T08:59:00","0.0","0.0","7026.0","WXPOD 7026, AF","FM-16","4","29.98","73","75","","","","","94","","","","","","000","","0","","","","","","","","","","","","","","","","","","","","","","","","","","","","","","","","","","","","","","","","","","","","","","","","","","","","","","","","","","","","","","","","","","","","","","","","","","","","","","","","","","","","","","","","","","","MET069MOBOB0 METAR 7026 //008 000000 170429Z AUTO 00000KT //// 24/23 A2998;","","","","","","","","","",""
"00702699999","2012-07-17T09:14:00","0.0","0.0","7026.0","WXPOD 7026, AF","FM-16","4","29.97","73","75","","","","","94","","","","","","000","","0","","","","","","","","","","","","","","","","","","","","","","","","","","","","","","","","","","","","","","","","","","","","","","","","","","","","","","","","","","","","","","","","","","","","","","","","","","","","","","","","","","","","","","","","","","","MET069MOBOB0 METAR 7026 //008 000000 170444Z AUTO 00000KT //// 24/23 A2997;","","","","","","","","","",""
"00702699999","2012-07-17T09:30:00","0.0","0.0","7026.0","WXPOD 7026, AF","FM-15","4","29.96","73","75","","","","","94","","","","","","000","","0","","","","","","","","","","","","","","","","","","","","","","","","","","","","","","","","","","","","","","","","","","","","","","","","","","","","","","","","","","","","","","","","","","","","","","","","","","","","","","","","","","","","","","","","","","","MET069MOBOB0 METAR 7026 //008 000000 170459Z AUTO 00000KT //// 24/23 A2996;","","","","","","","","","",""
"00702699999","2012-07-17T09:44:00","0.0","0.0","7026.0","WXPOD 7026, AF","FM-16","4","29.97","73","75","","","","","94","","","","","","000","","0","","","","","","","","","","","","","","","","","","","","","","","","","","","","","","","","","","","","","","","","","","","","","","","","","","","","","","","","","","","","","","","","","","","","","","","","","","","","","","","","","","","","","","","","","","","MET069MOBOB0 METAR 7026 //008 000000 170514Z AUTO 00000KT //// 24/23 A2997;","","","","","","","","","",""
"00702699999","2012-07-17T09:59:00","0.0","0.0","7026.0","WXPOD 7026, AF","FM-16","4","29.97","73","75","","","","","94","","","","","","000","","0","","","","","","","","","","","","","","","","","","","","","","","","","","","","","","","","","","","","","","","","","","","","","","","","","","","","","","","","","","","","","","","","","","","","","","","","","","","","","","","","","","","","","","","","","","","MET069MOBOB0 METAR 7026 //008 000000 170529Z AUTO 00000KT //// 24/23 A2997;","","","","","","","","","",""
"00702699999","2012-07-17T10:14:00","0.0","0.0","7026.0","WXPOD 7026, AF","FM-16","4","29.97","73","75","","","","","94","","","","","","000","","0","","","","","","","","","","","","","","","","","","","","","","","","","","","","","","","","","","","","","","","","","","","","","","","","","","","","","","","","","","","","","","","","","","","","","","","","","","","","","","","","","","","","","","","","","","","MET069MOBOB0 METAR 7026 //008 000000 170544Z AUTO 00000KT //// 24/23 A2997;","","","","","","","","","",""
"00702699999","2012-07-17T10:30:00","0.0","0.0","7026.0","WXPOD 7026, AF","FM-15","4","29.97","72","75","","","","","89","","","","","","000","","0","","","","","","","","","","","","","","","","","","","","","","","","","","","","","","","","","","","","","","","","","","","","","","","","","","","","","","","","","","","","","","","","","","","","","","","","","","","","","","","","","","","","","","","","","","","MET069MOBOB0 METAR 7026 //008 000000 170559Z AUTO 00000KT //// 24/22 A2997;","","","","","","","","","",""
"00702699999","2012-07-17T10:44:00","0.0","0.0","7026.0","WXPOD 7026, AF","FM-16","4","29.97","72","75","","","","","89","","","","","","000","","0","","","","","","","","","","","","","","","","","","","","","","","","","","","","","","","","","","","","","","","","","","","","","","","","","","","","","","","","","","","","","","","","","","","","","","","","","","","","","","","","","","","","","","","","","","","MET069MOBOB0 METAR 7026 //008 000000 170614Z AUTO 00000KT //// 24/22 A2997;","","","","","","","","","",""
"00702699999","2012-07-17T10:59:00","0.0","0.0","7026.0","WXPOD 7026, AF","FM-16","4","29.97","72","75","","","","","89","","","","","","000","","0","","","","","","","","","","","","","","","","","","","","","","","","","","","","","","","","","","","","","","","","","","","","","","","","","","","","","","","","","","","","","","","","","","","","","","","","","","","","","","","","","","","","","","","","","","","MET069MOBOB0 METAR 7026 //008 000000 170629Z AUTO 00000KT //// 24/22 A2997;","","","","","","","","","",""
"00702699999","2012-07-17T11:14:00","0.0","0.0","7026.0","WXPOD 7026, AF","FM-16","4","29.97","72","73","","","","","94","","","","","","000","","0","","","","","","","","","","","","","","","","","","","","","","","","","","","","","","","","","","","","","","","","","","","","","","","","","","","","","","","","","","","","","","","","","","","","","","","","","","","","","","","","","","","","","","","","","","","MET069MOBOB0 METAR 7026 //008 000000 170644Z AUTO 00000KT //// 23/22 A2997;","","","","","","","","","",""
"00702699999","2012-07-17T11:30:00","0.0","0.0","7026.0","WXPOD 7026, AF","FM-15","4","29.97","72","73","","","","","94","","","","","","000","","0","","","","","","","","","","","","","","","","","","","","","","","","","","","","","","","","","","","","","","","","","","","","","","","","","","","","","","","","","","","","","","","","","","","","","","","","","","","","","","","","","","","","","","","","","","","MET069MOBOB0 METAR 7026 //008 000000 170659Z AUTO 00000KT //// 23/22 A2997;","","","","","","","","","",""
"00702699999","2012-07-17T11:44:00","0.0","0.0","7026.0","WXPOD 7026, AF","FM-16","4","29.96","72","73","","","","","94","","","","","","000","","0","","","","","","","","","","","","","","","","","","","","","","","","","","","","","","","","","","","","","","","","","","","","","","","","","","","","","","","","","","","","","","","","","","","","","","","","","","","","","","","","","","","","","","","","","","","MET069MOBOB0 METAR 7026 //008 000000 170714Z AUTO 00000KT //// 23/22 A2996;","","","","","","","","","",""
"00702699999","2012-07-17T11:59:00","0.0","0.0","7026.0","WXPOD 7026, AF","FM-16","4","29.96","72","73","","","","","94","","","","","","000","","0","","","","","","","","","","","","","","","","","","","","","","","","","","","","","","","","","","","","","","","","","","","","","","","","","","","","","","","","","","","","","","","","","","","","","","","","","","","","","","","","","","","","","","","","","","","MET069MOBOB0 METAR 7026 //008 000000 170729Z AUTO 00000KT //// 23/22 A2996;","","","","","","","","","",""
"00702699999","2012-07-17T12:14:00","0.0","0.0","7026.0","WXPOD 7026, AF","FM-16","4","29.96","72","73","","","","","94","","","","","","000","","0","","","","","","","","","","","","","","","","","","","","","","","","","","","","","","","","","","","","","","","","","","","","","","","","","","","","","","","","","","","","","","","","","","","","","","","","","","","","","","","","","","","","","","","","","","","MET069MOBOB0 METAR 7026 //008 000000 170744Z AUTO 00000KT //// 23/22 A2996;","","","","","","","","","",""
"00702699999","2012-07-17T12:30:00","0.0","0.0","7026.0","WXPOD 7026, AF","FM-15","4","29.96","72","73","","","","","94","","","","","","000","","0","","","","","","","","","","","","","","","","","","","","","","","","","","","","","","","","","","","","","","","","","","","","","","","","","","","","","","","","","","","","","","","","","","","","","","","","","","","","","","","","","","","","","","","","","","","MET069MOBOB0 METAR 7026 //008 000000 170759Z AUTO 00000KT //// 23/22 A2996;","","","","","","","","","",""
"00702699999","2012-07-17T12:44:00","0.0","0.0","7026.0","WXPOD 7026, AF","FM-16","4","29.95","72","73","","","","","94","","","","","","000","","0","","","","","","","","","","","","","","","","","","","","","","","","","","","","","","","","","","","","","","","","","","","","","","","","","","","","","","","","","","","","","","","","","","","","","","","","","","","","","","","","","","","","","","","","","","","MET069MOBOB0 METAR 7026 //008 000000 170814Z AUTO 00000KT //// 23/22 A2995;","","","","","","","","","",""
"00702699999","2012-07-17T12:59:00","0.0","0.0","7026.0","WXPOD 7026, AF","FM-16","4","29.94","72","73","","","","","94","","","","","","000","","0","","","","","","","","","","","","","","","","","","","","","","","","","","","","","","","","","","","","","","","","","","","","","","","","","","","","","","","","","","","","","","","","","","","","","","","","","","","","","","","","","","","","","","","","","","","MET069MOBOB0 METAR 7026 //008 000000 170829Z AUTO 00000KT //// 23/22 A2994;","","","","","","","","","",""
"00702699999","2012-07-17T13:14:00","0.0","0.0","7026.0","WXPOD 7026, AF","FM-16","4","29.94","70","73","","","","","89","","","","","","000","","0","","","","","","","","","","","","","","","","","","","","","","","","","","","","","","","","","","","","","","","","","","","","","","","","","","","","","","","","","","","","","","","","","","","","","","","","","","","","","","","","","","","","","","","","","","","MET069MOBOB0 METAR 7026 //008 000000 170844Z AUTO 00000KT //// 23/21 A2994;","","","","","","","","","",""
"00702699999","2012-07-17T13:30:00","0.0","0.0","7026.0","WXPOD 7026, AF","FM-15","4","29.95","70","73","","","","","89","","","","","","000","","0","","","","","","","","","","","","","","","","","","","","","","","","","","","","","","","","","","","","","","","","","","","","","","","","","","","","","","","","","","","","","","","","","","","","","","","","","","","","","","","","","","","","","","","","","","","MET069MOBOB0 METAR 7026 //008 000000 170859Z AUTO 00000KT //// 23/21 A2995;","","","","","","","","","",""
"00702699999","2012-07-17T13:44:00","0.0","0.0","7026.0","WXPOD 7026, AF","FM-16","4","29.95","70","73","","","","","89","","","","","","000","","0","","","","","","","","","","","","","","","","","","","","","","","","","","","","","","","","","","","","","","","","","","","","","","","","","","","","","","","","","","","","","","","","","","","","","","","","","","","","","","","","","","","","","","","","","","","MET069MOBOB0 METAR 7026 //008 000000 170914Z AUTO 00000KT //// 23/21 A2995;","","","","","","","","","",""
"00702699999","2012-07-17T13:59:00","0.0","0.0","7026.0","WXPOD 7026, AF","FM-16","4","29.96","70","73","","","","","89","","","","","","000","","0","","","","","","","","","","","","","","","","","","","","","","","","","","","","","","","","","","","","","","","","","","","","","","","","","","","","","","","","","","","","","","","","","","","","","","","","","","","","","","","","","","","","","","","","","","","MET069MOBOB0 METAR 7026 //008 000000 170929Z AUTO 00000KT //// 23/21 A2996;","","","","","","","","","",""
"00702699999","2012-07-17T14:14:00","0.0","0.0","7026.0","WXPOD 7026, AF","FM-16","4","29.96","70","73","","","","","89","","","","","","000","","0","","","","","","","","","","","","","","","","","","","","","","","","","","","","","","","","","","","","","","","","","","","","","","","","","","","","","","","","","","","","","","","","","","","","","","","","","","","","","","","","","","","","","","","","","","","MET069MOBOB0 METAR 7026 //008 000000 170944Z AUTO 00000KT //// 23/21 A2996;","","","","","","","","","",""
"00702699999","2012-07-17T14:31:00","0.0","0.0","7026.0","WXPOD 7026, AF","FM-16","4","29.96","70","73","","","","","89","","","","","","280","","1","","","","","","","","","","","","","","","","","","","","","","","","","","","","","","","","","","","","","","","","","","","","","","","","","","","","","","","","","","","","","","","","","","","","","","","","","","","","","","","","","","","","","","","","","","","MET069MOBOB0 METAR 7026 //008 000000 171001Z AUTO 28001KT //// 23/21 A2996;","","","","","","","","","",""
"00702699999","2012-07-17T14:59:00","0.0","0.0","7026.0","WXPOD 7026, AF","FM-16","4","29.97","72","72","","","","","100","","","","","","000","","0","","","","","","","","","","","","","","","","","","","","","","","","","","","","","","","","","","","","","","","","","","","","","","","","","","","","","","","","","","","","","","","","","","","","","","","","","","","","","","","","","","","","","","","","","","","MET069MOBOB0 METAR 7026 //008 000000 171029Z AUTO 00000KT //// 22/22 A2997;","","","","","","","","","",""
"00702699999","2012-07-17T15:14:00","0.0","0.0","7026.0","WXPOD 7026, AF","FM-16","4","29.97","72","72","","","","","100","","","","","","000","","0","","","","","","","","","","","","","","","","","","","","","","","","","","","","","","","","","","","","","","","","","","","","","","","","","","","","","","","","","","","","","","","","","","","","","","","","","","","","","","","","","","","","","","","","","","","MET069MOBOB0 METAR 7026 //008 000000 171044Z AUTO 00000KT //// 22/22 A2997;","","","","","","","","","",""
"00702699999","2012-07-17T15:30:00","0.0","0.0","7026.0","WXPOD 7026, AF","FM-15","4","29.97","72","73","","","","","94","","","","","","000","","0","","","","","","","","","","","","","","","","","","","","","","","","","","","","","","","","","","","","","","","","","","","","","","","","","","","","","","","","","","","","","","","","","","","","","","","","","","","","","","","","","","","","","","","","","","","MET069MOBOB0 METAR 7026 //008 000000 171059Z AUTO 00000KT //// 23/22 A2997;","","","","","","","","","",""
"00702699999","2012-07-17T15:44:00","0.0","0.0","7026.0","WXPOD 7026, AF","FM-16","4","29.97","72","73","","","","","94","","","","","","000","","0","","","","","","","","","","","","","","","","","","","","","","","","","","","","","","","","","","","","","","","","","","","","","","","","","","","","","","","","","","","","","","","","","","","","","","","","","","","","","","","","","","","","","","","","","","","MET069MOBOB0 METAR 7026 //008 000000 171114Z AUTO 00000KT //// 23/22 A2997;","","","","","","","","","",""
"00702699999","2012-07-17T15:59:00","0.0","0.0","7026.0","WXPOD 7026, AF","FM-16","4","29.98","72","73","","","","","94","","","","","","000","","0","","","","","","","","","","","","","","","","","","","","","","","","","","","","","","","","","","","","","","","","","","","","","","","","","","","","","","","","","","","","","","","","","","","","","","","","","","","","","","","","","","","","","","","","","","","MET069MOBOB0 METAR 7026 //008 000000 171129Z AUTO 00000KT //// 23/22 A2998;","","","","","","","","","",""
"00702699999","2012-07-17T16:14:00","0.0","0.0","7026.0","WXPOD 7026, AF","FM-16","4","29.98","72","75","","","","","89","","","","","","000","","0","","","","","","","","","","","","","","","","","","","","","","","","","","","","","","","","","","","","","","","","","","","","","","","","","","","","","","","","","","","","","","","","","","","","","","","","","","","","","","","","","","","","","","","","","","","MET069MOBOB0 METAR 7026 //008 000000 171144Z AUTO 00000KT //// 24/22 A2998;","","","","","","","","","",""
"00702699999","2012-07-17T16:30:00","0.0","0.0","7026.0","WXPOD 7026, AF","FM-15","4","29.98","72","77","","","","","83","","","","","","000","","0","","","","","","","","","","","","","","","","","","","","","","","","","","","","","","","","","","","","","","","","","","","","","","","","","","","","","","","","","","","","","","","","","","","","","","","","","","","","","","","","","","","","","","","","","","","MET069MOBOB0 METAR 7026 //008 000000 171159Z AUTO 00000KT //// 25/22 A2998;","","","","","","","","","",""
"00702699999","2012-07-17T16:44:00","0.0","0.0","7026.0","WXPOD 7026, AF","FM-16","4","29.98","73","79","","","","","84","","","","","","280","","1","","","","","","","","","","","","","","","","","","","","","","","","","","","","","","","","","","","","","","","","","","","","","","","","","","","","","","","","","","","","","","","","","","","","","","","","","","","","","","","","","","","","","","","","","","","MET069MOBOB0 METAR 7026 //008 000000 171214Z AUTO 28001KT //// 26/23 A2998;","","","","","","","","","",""
"00702699999","2012-07-17T16:59:00","0.0","0.0","7026.0","WXPOD 7026, AF","FM-16","4","29.99","73","79","","","","","84","","","","","","270","","1","","","","","","","","","","","","","","","","","","","","","","","","","","","","","","","","","","","","","","","","","","","","","","","","","","","","","","","","","","","","","","","","","","","","","","","","","","","","","","","","","","","","","","","","","","","MET069MOBOB0 METAR 7026 //008 000000 171229Z AUTO 27001KT //// 26/23 A2999;","","","","","","","","","",""
"00702699999","2012-07-17T17:14:00","0.0","0.0","7026.0","WXPOD 7026, AF","FM-16","4","29.98","73","79","","","","","84","","","","","","000","","0","","","","","","","","","","","","","","","","","","","","","","","","","","","","","","","","","","","","","","","","","","","","","","","","","","","","","","","","","","","","","","","","","","","","","","","","","","","","","","","","","","","","","","","","","","","MET069MOBOB0 METAR 7026 //008 000000 171244Z AUTO 00000KT //// 26/23 A2998;","","","","","","","","","",""
"00702699999","2012-07-17T17:30:00","0.0","0.0","7026.0","WXPOD 7026, AF","FM-15","4","29.99","73","81","","","","","79","","","","","","000","","0","","","","","","","","","","","","","","","","","","","","","","","","","","","","","","","","","","","","","","","","","","","","","","","","","","","","","","","","","","","","","","","","","","","","","","","","","","","","","","","","","","","","","","","","","","","MET069MOBOB0 METAR 7026 //008 000000 171259Z AUTO 00000KT //// 27/23 A2999;","","","","","","","","","",""
"00702699999","2012-07-17T17:44:00","0.0","0.0","7026.0","WXPOD 7026, AF","FM-16","4","29.99","73","82","","","","","74","","","","","","240","","1","","","","","","","","","","","","","","","","","","","","","","","","","","","","","","","","","","","","","","","","","","","","","","","","","","","","","","","","","","","","","","","","","","","","","","","","","","","","","","","","","","","","","","","","","","","MET069MOBOB0 METAR 7026 //008 000000 171314Z AUTO 24001KT //// 28/23 A2999;","","","","","","","","","",""
"00702699999","2012-07-17T17:59:00","0.0","0.0","7026.0","WXPOD 7026, AF","FM-16","4","29.99","73","86","","","","","66","","","","","","090","","1","","","","","","","","","","","","","","","","","","","","","","","","","","","","","","","","","","","","","","","","","","","","","","","","","","","","","","","","","","","","","","","","","","","","","","","","","","","","","","","","","","","","","","","","","","","MET069MOBOB0 METAR 7026 //008 000000 171329Z AUTO 09001KT //// 30/23 A2999;","","","","","","","","","",""
"00702699999","2012-07-17T18:14:00","0.0","0.0","7026.0","WXPOD 7026, AF","FM-16","4","29.98","75","90","","","","","63","","","","","","000","","0","","","","","","","","","","","","","","","","","","","","","","","","","","","","","","","","","","","","","","","","","","","","","","","","","","","","","","","","","","","","","","","","","","","","","","","","","","","","","","","","","","","","","","","","","","","MET069MOBOB0 METAR 7026 //008 000000 171344Z AUTO 00000KT //// 32/24 A2998;","","","","","","","","","",""
"00702699999","2012-07-17T18:44:00","0.0","0.0","7026.0","WXPOD 7026, AF","FM-16","4","29.99","77","97s","","","","","53","","","","","","360","","1","","","","","","","","","","","","","","","","","","","","","","","","","","","","","","","","","","","","","","","","","","","","","","","","","","","","","","","","","","","","","","","","","","","","","","","","","","","","","","","","","","","","","","","","","","","MET069MOBOB0 METAR 7026 //008 000000 171414Z AUTO 36001KT //// 36/25 A2999;","","","","","","","","","",""
"00702699999","2012-12-17T23:55:00","0.0","0.0","7026.0","WXPOD 7026, AF","FM-15","4","30.19","73","81","","","","","79","","","","","","040","","1","","","","","","","","","","","","","","","","","","","","","","","","","","","","","","","","","","","","","","","","","","","","","","","","","","","","","","","","","","","","","","","","","","","","","","","","","","","","","","","","","","","","","","","","","","","MET069MOBOB0 METAR 7026 //008 000000 171925Z AUTO 04001KT //// 27/23 A3019;","","","","","","","","","",""
"00702699999","2012-12-18T00:00:00","0.0","0.0","7026.0","WXPOD 7026, AF","FM-15","4","30.19","75","81","","","","","84","","","","","","000","","0","","","","","","","","","","","","","","","","","","","","","","","","","","","","","","","","","","","","","","","","","","","","","","","","","","","","","","","","","","","","","","","","","","","","","","","","","","","","","","","","","","","","","","","","","","","MET069MOBOB0 METAR 7026 //008 000000 171930Z AUTO 00000KT //// 27/24 A3019;","","","","","","","","","",""
"00702699999","2012-12-18T00:05:00","0.0","0.0","7026.0","WXPOD 7026, AF","FM-16","4","30.19","75","81","","","","","84","","","","","","000","","0","","","","","","","","","","","","","","","","","","","","","","","","","","","","","","","","","","","","","","","","","","","","","","","","","","","","","","","","","","","","","","","","","","","","","","","","","","","","","","","","","","","","","","","","","","","MET069MOBOB0 METAR 7026 //008 000000 171935Z AUTO 00000KT //// 27/24 A3019;","","","","","","","","","",""
"00702699999","2012-12-18T00:10:00","0.0","0.0","7026.0","WXPOD 7026, AF","FM-16","4","30.19","75","81","","","","","84","","","","","","000","","0","","","","","","","","","","","","","","","","","","","","","","","","","","","","","","","","","","","","","","","","","","","","","","","","","","","","","","","","","","","","","","","","","","","","","","","","","","","","","","","","","","","","","","","","","","","MET069MOBOB0 METAR 7026 //008 000000 171940Z AUTO 00000KT //// 27/24 A3019;","","","","","","","","","",""
"00702699999","2012-12-18T00:20:00","0.0","0.0","7026.0","WXPOD 7026, AF","FM-15","4","30.19","75","81","","","","","84","","","","","","000","","0","","","","","","","","","","","","","","","","","","","","","","","","","","","","","","","","","","","","","","","","","","","","","","","","","","","","","","","","","","","","","","","","","","","","","","","","","","","","","","","","","","","","","","","","","","","MET069MOBOB0 METAR 7026 //008 000000 171950Z AUTO 00000KT //// 27/24 A3019;","","","","","","","","","",""
"00702699999","2012-12-18T00:30:00","0.0","0.0","7026.0","WXPOD 7026, AF","FM-15","4","30.19","73","81","","","","","79","","","","","","000","","0","","","","","","","","","","","","","","","","","","","","","","","","","","","","","","","","","","","","","","","","","","","","","","","","","","","","","","","","","","","","","","","","","","","","","","","","","","","","","","","","","","","","","","","","","","","MET069MOBOB0 METAR 7026 //008 000000 171955Z AUTO 00000KT //// 27/23 A3019;","","","","","","","","","",""
"00702699999","2012-12-18T00:35:00","0.0","0.0","7026.0","WXPOD 7026, AF","FM-16","4","30.19","75","81","","","","","84","","","","","","000","","0","","","","","","","","","","","","","","","","","","","","","","","","","","","","","","","","","","","","","","","","","","","","","","","","","","","","","","","","","","","","","","","","","","","","","","","","","","","","","","","","","","","","","","","","","","","MET069MOBOB0 METAR 7026 //008 000000 172005Z AUTO 00000KT //// 27/24 A3019;","","","","","","","","","",""
