"STATION","DATE","LATITUDE","LONGITUDE","ELEVATION","NAME","REPORT_TYPE","SOURCE","HourlyAltimeterSetting","HourlyDewPointTemperature","HourlyDryBulbTemperature","HourlyPrecipitation","HourlyPresentWeatherType","HourlyPressureChange","HourlyPressureTendency","HourlyRelativeHumidity","HourlySkyConditions","HourlySeaLevelPressure","HourlyStationPressure","HourlyVisibility","HourlyWetBulbTemperature","HourlyWindDirection","HourlyWindGustSpeed","HourlyWindSpeed","Sunrise","Sunset","DailyAverageDewPointTemperature","DailyAverageDryBulbTemperature","DailyAverageRelativeHumidity","DailyAverageSeaLevelPressure","DailyAverageStationPressure","DailyAverageWetBulbTemperature","DailyAverageWindSpeed","DailyCoolingDegreeDays","DailyDepartureFromNormalAverageTemperature","DailyHeatingDegreeDays","DailyMaximumDryBulbTemperature","DailyMinimumDryBulbTemperature","DailyPeakWindDirection","DailyPeakWindSpeed","DailyPrecipitation","DailySnowDepth","DailySnowfall","DailySustainedWindDirection","DailySustainedWindSpeed","DailyWeather","MonthlyAverageRH","MonthlyDaysWithGT001Precip","MonthlyDaysWithGT010Precip","MonthlyDaysWithGT32Temp","MonthlyDaysWithGT90Temp","MonthlyDaysWithLT0Temp","MonthlyDaysWithLT32Temp","MonthlyDepartureFromNormalAverageTemperature","MonthlyDepartureFromNormalCoolingDegreeDays","MonthlyDepartureFromNormalHeatingDegreeDays","MonthlyDepartureFromNormalMaximumTemperature","MonthlyDepartureFromNormalMinimumTemperature","MonthlyDepartureFromNormalPrecipitation","MonthlyDewpointTemperature","MonthlyGreatestPrecip","MonthlyGreatestPrecipDate","MonthlyGreatestSnowDepth","MonthlyGreatestSnowDepthDate","MonthlyGreatestSnowfall","MonthlyGreatestSnowfallDate","MonthlyMaxSeaLevelPressureValue","MonthlyMaxSeaLevelPressureValueDate","MonthlyMaxSeaLevelPressureValueTime","MonthlyMaximumTemperature","MonthlyMeanTemperature","MonthlyMinSeaLevelPressureValue","MonthlyMinSeaLevelPressureValueDate","MonthlyMinSeaLevelPressureValueTime","MonthlyMinimumTemperature","MonthlySeaLevelPressure","MonthlyStationPressure","MonthlyTotalLiquidPrecipitation","MonthlyTotalSnowfall","MonthlyWetBulb","AWND","CDSD","CLDD","DSNW","HDSD","HTDD","DYTS","DYHF","NormalsCoolingDegreeDay","NormalsHeatingDegreeDay","ShortDurationEndDate005","ShortDurationEndDate010","ShortDurationEndDate015","ShortDurationEndDate020","ShortDurationEndDate030","ShortDurationEndDate045","ShortDurationEndDate060","ShortDurationEndDate080","ShortDurationEndDate100","ShortDurationEndDate120","ShortDurationEndDate150","ShortDurationEndDate180","ShortDurationPrecipitationValue005","ShortDurationPrecipitationValue010","ShortDurationPrecipitationValue015","ShortDurationPrecipitationValue020","ShortDurationPrecipitationValue030","ShortDurationPrecipitationValue045","ShortDurationPrecipitationValue060","ShortDurationPrecipitationValue080","ShortDurationPrecipitationValue100","ShortDurationPrecipitationValue120","ShortDurationPrecipitationValue150","ShortDurationPrecipitationValue180","REM","BackupDirection","BackupDistance","BackupDistanceUnit","BackupElements","BackupElevation","BackupEquipment","BackupLatitude","BackupLongitude","BackupName","WindEquipmentChangeDate"
"00826899999","2012-03-02T03:44:00","32.95","65.5666666","1156.72","WXPOD8278, AF","FM-16","4","30.49","50","59","","","","","72","","","","7.00","","260","","8","","","","","","","","","","","","","","","","","","","","","","","","","","","","","","","","","","","","","","","","","","","","","","","","","","","","","","","","","","","","","","","","","","","","","","","","","","","","","","","","","","","","","","","","","","","MET090MOBOB0 METAR 8268 //011 000000 012314Z AUTO 26007KT 9999 CLR 15/10 A3049 RMK CDP03528 CLR;","","","","","","","","","",""
"00826899999","2012-03-02T04:00:00","32.95","65.5666666","1156.72","WXPOD8278, AF","FM-15","4","30.48","48","57","","","","","72","","","","7.00","","210","","9","","","","","","","","","","","","","","","","","","","","","","","","","","","","","","","","","","","","","","","","","","","","","","","","","","","","","","","","","","","","","","","","","","","","","","","","","","","","","","","","","","","","","","","","","","","MET090MOBOB1 METAR 8268 //011 383220 012330Z AUTO 21008KT 9999 CLR 14/09 A3048 RMK CDP03528 CLR;","","","","","","","","","",""
"00826899999","2012-03-02T04:14:00","32.95","65.5666666","1156.72","WXPOD8278, AF","FM-16","4","30.48","50","59","","","","","72","","","","7.00","","220","","10","","","","","","","","","","","","","","","","","","","","","","","","","","","","","","","","","","","","","","","","","","","","","","","","","","","","","","","","","","","","","","","","","","","","","","","","","","","","","","","","","","","","","","","","","","","MET090MOBOB1 METAR 8268 //011 383220 012344Z AUTO 22009KT 9999 CLR 15/10 A3048 RMK CDP03528 CLR;","","","","","","","","","",""
"00826899999","2012-03-02T04:30:00","32.95","65.5666666","1156.72","WXPOD8278, AF","FM-15","4","30.47","46","57","","","","","67","","","","7.00","","230","","10","","","","","","","","","","","","","","","","","","","","","","","","","","","","","","","","","","","","","","","","","","","","","","","","","","","","","","","","","","","","","","","","","","","","","","","","","","","","","","","","","","","","","","","","","","","MET090MOBOB1 METAR 8268 //011 383220 012359Z AUTO 23009KT 9999 CLR 14/08 A3047 RMK CDP03528 CLR;","","","","","","","","","",""
"00826899999","2012-03-02T04:44:00","32.95","65.5666666","1156.72","WXPOD8278, AF","FM-16","4","30.48","48","57","","","","","72","","","","7.00","","240","","10","","","","","","","","","","","","","","","","","","","","","","","","","","","","","","","","","","","","","","","","","","","","","","","","","","","","","","","","","","","","","","","","","","","","","","","","","","","","","","","","","","","","","","","","","","","MET090MOBOB1 METAR 8268 //011 383220 020014Z AUTO 24009KT 9999 CLR 14/09 A3048 RMK CDP03528 CLR;","","","","","","","","","",""
"00826899999","2012-03-02T04:59:00","32.95","65.5666666","1156.72","WXPOD8278, AF","FM-16","4","30.49","45","57","","","","","63","","","","7.00","","230","","9","","","","","","","","","","","","","","","","","","","","","","","","","","","","","","","","","","","","","","","","","","","","","","","","","","","","","","","","","","","","","","","","","","","","","","","","","","","","","","","","","","","","","","","","","","","MET090MOBOB1 METAR 8268 //011 383220 020029Z AUTO 23008KT 9999 CLR 14/07 A3049 RMK CDP03528 CLR;","","","","","","","","","",""
"00826899999","2012-03-02T05:14:00","32.95","65.5666666","1156.72","WXPOD8278, AF","FM-16","4","30.49","48","55","","","","","77","","","","7.00","","220","","10","","","","","","","","","","","","","","","","","","","","","","","","","","","","","","","","","","","","","","","","","","","","","","","","","","","","","","","","","","","","","","","","","","","","","","","","","","","","","","","","","","","","","","","","","","","MET090MOBOB1 METAR 8268 //011 383220 020044Z AUTO 22009KT 9999 CLR 13/09 A3049 RMK CDP03528 CLR;","","","","","","","","","",""
"00826899999","2012-03-02T05:30:00","32.95","65.5666666","1156.72","WXPOD8278, AF","FM-15","4","30.49","46","55","","","","","72","","","","7.00","","230","","9","","","","","","","","","","","","","","","","","","","","","","","","","","","","","","","","","","","","","","","","","","","","","","","","","","","","","","","","","","","","","","","","","","","","","","","","","","","","","","","","","","","","","","","","","","","MET090MOBOB1 METAR 8268 //011 383220 020059Z AUTO 23008KT 9999 CLR 13/08 A3049 RMK CDP03528 CLR;","","","","","","","","","",""
"00826899999","2012-03-02T05:44:00","32.95","65.5666666","1156.72","WXPOD8278, AF","FM-16","4","30.49","46","55","","","","","72","","","","7.00","","240","","7","","","","","","","","","","","","","","","","","","","","","","","","","","","","","","","","","","","","","","","","","","","","","","","","","","","","","","","","","","","","","","","","","","","","","","","","","","","","","","","","","","","","","","","","","","","MET090MOBOB1 METAR 8268 //011 383220 020114Z AUTO 24006KT 9999 CLR 13/08 A3049 RMK CDP03528 CLR;","","","","","","","","","",""
"00826899999","2012-03-02T05:59:00","32.95","65.5666666","1156.72","WXPOD8278, AF","FM-16","4","30.49","46","55","","","","","72","","","","7.00","","230","","9","","","","","","","","","","","","","","","","","","","","","","","","","","","","","","","","","","","","","","","","","","","","","","","","","","","","","","","","","","","","","","","","","","","","","","","","","","","","","","","","","","","","","","","","","","","MET090MOBOB1 METAR 8268 //011 383220 020129Z AUTO 23008KT 9999 CLR 13/08 A3049 RMK CDP03528 CLR;","","","","","","","","","",""
"00826899999","2012-03-02T06:14:00","32.95","65.5666666","1156.72","WXPOD8278, AF","FM-16","4","30.49","46","54","","","","","77","","","","7.00","","230","","8","","","","","","","","","","","","","","","","","","","","","","","","","","","","","","","","","","","","","","","","","","","","","","","","","","","","","","","","","","","","","","","","","","","","","","","","","","","","","","","","","","","","","","","","","","","MET090MOBOB1 METAR 8268 //011 383220 020144Z AUTO 23007KT 9999 CLR 12/08 A3049 RMK CDP03528 CLR;","","","","","","","","","",""
"00826899999","2012-03-02T06:30:00","32.95","65.5666666","1156.72","WXPOD8278, AF","FM-15","4","30.49","46","52","","","","","82","","","","7.00","","230","","8","","","","","","","","","","","","","","","","","","","","","","","","","","","","","","","","","","","","","","","","","","","","","","","","","","","","","","","","","","","","","","","","","","","","","","","","","","","","","","","","","","","","","","","","","","","MET090MOBOB1 METAR 8268 //011 383220 020159Z AUTO 23007KT 9999 CLR 11/08 A3049 RMK CDP03528 CLR;","","","","","","","","","",""
"00826899999","2012-03-02T06:44:00","32.95","65.5666666","1156.72","WXPOD8278, AF","FM-16","4","30.50","45","50","","","","","82","","","","7.00","","230","","6","","","","","","","","","","","","","","","","","","","","","","","","","","","","","","","","","","","","","","","","","","","","","","","","","","","","","","","","","","","","","","","","","","","","","","","","","","","","","","","","","","","","","","","","","","","MET090MOBOB1 METAR 8268 //011 383220 020214Z AUTO 23005KT 9999 CLR 10/07 A3050 RMK CDP03528 CLR;","","","","","","","","","",""
"00826899999","2012-03-02T06:59:00","32.95","65.5666666","1156.72","WXPOD8278, AF","FM-16","4","30.49","45","50","","","","","82","","","","7.00","","230","","7","","","","","","","","","","","","","","","","","","","","","","","","","","","","","","","","","","","","","","","","","","","","","","","","","","","","","","","","","","","","","","","","","","","","","","","","","","","","","","","","","","","","","","","","","","","MET090MOBOB1 METAR 8268 //011 383220 020229Z AUTO 23006KT 9999 CLR 10/07 A3049 RMK CDP03528 CLR;","","","","","","","","","",""
"00826899999","2012-03-02T07:14:00","32.95","65.5666666","1156.72","WXPOD8278, AF","FM-16","4","30.50","45","48","","","","","87","","","","7.00","","200","","6","","","","","","","","","","","","","","","","","","","","","","","","","","","","","","","","","","","","","","","","","","","","","","","","","","","","","","","","","","","","","","","","","","","","","","","","","","","","","","","","","","","","","","","","","","","MET090MOBOB1 METAR 8268 //011 383220 020244Z AUTO 20005KT 9999 CLR 09/07 A3050 RMK CDP03528 CLR;","","","","","","","","","",""
"00826899999","2012-03-02T07:30:00","32.95","65.5666666","1156.72","WXPOD8278, AF","FM-15","4","30.50","45","48","","","","","87","","","","7.00","","220","","7","","","","","","","","","","","","","","","","","","","","","","","","","","","","","","","","","","","","","","","","","","","","","","","","","","","","","","","","","","","","","","","","","","","","","","","","","","","","","","","","","","","","","","","","","","","MET090MOBOB1 METAR 8268 //011 383220 020259Z AUTO 22006KT 9999 CLR 09/07 A3050 RMK CDP03528 CLR;","","","","","","","","","",""
"00826899999","2012-03-02T07:44:00","32.95","65.5666666","1156.72","WXPOD8278, AF","FM-16","4","30.50","43","48","","","","","82","","","","7.00","","220","","7","","","","","","","","","","","","","","","","","","","","","","","","","","","","","","","","","","","","","","","","","","","","","","","","","","","","","","","","","","","","","","","","","","","","","","","","","","","","","","","","","","","","","","","","","","","MET090MOBOB1 METAR 8268 //011 383220 020314Z AUTO 22006KT 9999 CLR 09/06 A3050 RMK CDP03528 CLR;","","","","","","","","","",""
"00826899999","2012-03-02T07:59:00","32.95","65.5666666","1156.72","WXPOD8278, AF","FM-16","4","30.51","43","46","","","","","87","","","","7.00","","210","","5","","","","","","","","","","","","","","","","","","","","","","","","","","","","","","","","","","","","","","","","","","","","","","","","","","","","","","","","","","","","","","","","","","","","","","","","","","","","","","","","","","","","","","","","","","","MET090MOBOB1 METAR 8268 //011 383220 020329Z AUTO 21004KT 9999 CLR 08/06 A3051 RMK CDP03528 CLR;","","","","","","","","","",""
"00826899999","2012-03-02T08:14:00","32.95","65.5666666","1156.72","WXPOD8278, AF","FM-16","4","30.51","43","46","","","","","87","","","","7.00","","210","","3","","","","","","","","","","","","","","","","","","","","","","","","","","","","","","","","","","","","","","","","","","","","","","","","","","","","","","","","","","","","","","","","","","","","","","","","","","","","","","","","","","","","","","","","","","","MET090MOBOB1 METAR 8268 //011 383220 020344Z AUTO 21003KT 9999 CLR 08/06 A3051 RMK CDP03528 CLR;","","","","","","","","","",""
"00826899999","2012-03-02T08:30:00","32.95","65.5666666","1156.72","WXPOD8278, AF","FM-15","4","30.52","43","43","","","","","100","","","","7.00","","180","","2","","","","","","","","","","","","","","","","","","","","","","","","","","","","","","","","","","","","","","","","","","","","","","","","","","","","","","","","","","","","","","","","","","","","","","","","","","","","","","","","","","","","","","","","","","","MET090MOBOB1 METAR 8268 //011 383220 020359Z AUTO 18002KT 9999 CLR 06/06 A3052 RMK CDP03528 CLR;","","","","","","","","","",""
"00826899999","2012-03-02T08:44:00","32.95","65.5666666","1156.72","WXPOD8278, AF","FM-16","4","30.52","43","43","","","","","100","","","","7.00","","210","","3","","","","","","","","","","","","","","","","","","","","","","","","","","","","","","","","","","","","","","","","","","","","","","","","","","","","","","","","","","","","","","","","","","","","","","","","","","","","","","","","","","","","","","","","","","","MET090MOBOB1 METAR 8268 //011 383220 020414Z AUTO 21003KT 9999 CLR 06/06 A3052 RMK CDP03528 CLR;","","","","","","","","","",""
"00826899999","2012-03-02T08:59:00","32.95","65.5666666","1156.72","WXPOD8278, AF","FM-16","4","30.53","43","43","","","","","100","","","","7.00","","200","","3","","","","","","","","","","","","","","","","","","","","","","","","","","","","","","","","","","","","","","","","","","","","","","","","","","","","","","","","","","","","","","","","","","","","","","","","","","","","","","","","","","","","","","","","","","","MET090MOBOB1 METAR 8268 //011 383220 020429Z AUTO 20003KT 9999 CLR 06/06 A3053 RMK CDP03528 CLR;","","","","","","","","","",""
"00826899999","2012-03-02T09:14:00","32.95","65.5666666","1156.72","WXPOD8278, AF","FM-16","4","30.54","43","43","","","","","100","","","","7.00","","210","","3","","","","","","","","","","","","","","","","","","","","","","","","","","","","","","","","","","","","","","","","","","","","","","","","","","","","","","","","","","","","","","","","","","","","","","","","","","","","","","","","","","","","","","","","","","","MET090MOBOB1 METAR 8268 //011 383220 020444Z AUTO 21003KT 9999 CLR 06/06 A3054 RMK CDP03528 CLR;","","","","","","","","","",""
"00826899999","2012-03-02T09:30:00","32.95","65.5666666","1156.72","WXPOD8278, AF","FM-15","4","30.54","41","41","","","","","100","","","","7.00","","220","","1","","","","","","","","","","","","","","","","","","","","","","","","","","","","","","","","","","","","","","","","","","","","","","","","","","","","","","","","","","","","","","","","","","","","","","","","","","","","","","","","","","","","","","","","","","","MET090MOBOB1 METAR 8268 //011 383220 020459Z AUTO 22001KT 9999 CLR 05/05 A3054 RMK CDP03528 CLR;","","","","","","","","","",""
"00826899999","2012-03-02T09:44:00","32.95","65.5666666","1156.72","WXPOD8278, AF","FM-16","4","30.56","41","43","","","","","93","","","","7.00","","360","","2","","","","","","","","","","","","","","","","","","","","","","","","","","","","","","","","","","","","","","","","","","","","","","","","","","","","","","","","","","","","","","","","","","","","","","","","","","","","","","","","","","","","","","","","","","","MET090MOBOB1 METAR 8268 //011 383220 020514Z AUTO 36002KT 9999 CLR 06/05 A3056 RMK CDP03528 CLR;","","","","","","","","","",""
"00826899999","2012-03-02T09:59:00","32.95","65.5666666","1156.72","WXPOD8278, AF","FM-16","4","30.57","43","43","","","","","100","","","","7.00","","000","","0","","","","","","","","","","","","","","","","","","","","","","","","","","","","","","","","","","","","","","","","","","","","","","","","","","","","","","","","","","","","","","","","","","","","","","","","","","","","","","","","","","","","","","","","","","","MET090MOBOB1 METAR 8268 //011 383220 020529Z AUTO 00000KT 9999 CLR 06/06 A3057 RMK CDP03528 CLR;","","","","","","","","","",""
"00826899999","2012-03-02T10:14:00","32.95","65.5666666","1156.72","WXPOD8278, AF","FM-16","4","30.57","45","45","","","","","100","","","","7.00","","360","","1","","","","","","","","","","","","","","","","","","","","","","","","","","","","","","","","","","","","","","","","","","","","","","","","","","","","","","","","","","","","","","","","","","","","","","","","","","","","","","","","","","","","","","","","","","","MET090MOBOB1 METAR 8268 //011 383220 020544Z AUTO 36001KT 9999 CLR 07/07 A3057 RMK CDP03528 CLR;","","","","","","","","","",""
"00826899999","2012-03-02T10:30:00","32.95","65.5666666","1156.72","WXPOD8278, AF","FM-15","4","30.57","46","46","","","","","100","","","","7.00","","360","","3","","","","","","","","","","","","","","","","","","","","","","","","","","","","","","","","","","","","","","","","","","","","","","","","","","","","","","","","","","","","","","","","","","","","","","","","","","","","","","","","","","","","","","","","","","","MET090MOBOB1 METAR 8268 //011 383220 020559Z AUTO 36003KT 9999 CLR 08/08 A3057 RMK CDP03528 CLR;","","","","","","","","","",""
"00826899999","2012-03-02T10:44:00","32.95","65.5666666","1156.72","WXPOD8278, AF","FM-16","4","30.57","46","46","","","","","100","","","","7.00","","340","","2","","","","","","","","","","","","","","","","","","","","","","","","","","","","","","","","","","","","","","","","","","","","","","","","","","","","","","","","","","","","","","","","","","","","","","","","","","","","","","","","","","","","","","","","","","","MET090MOBOB1 METAR 8268 //011 383220 020614Z AUTO 34002KT 9999 CLR 08/08 A3057 RMK CDP03528 CLR;","","","","","","","","","",""
"00826899999","2012-03-02T10:59:00","32.95","65.5666666","1156.72","WXPOD8278, AF","FM-16","4","30.58","46","46","","","","","100","","","","7.00","","320","","3","","","","","","","","","","","","","","","","","","","","","","","","","","","","","","","","","","","","","","","","","","","","","","","","","","","","","","","","","","","","","","","","","","","","","","","","","","","","","","","","","","","","","","","","","","","MET090MOBOB1 METAR 8268 //011 383220 020629Z AUTO 32003KT 9999 CLR 08/08 A3058 RMK CDP03528 CLR;","","","","","","","","","",""
"00826899999","2012-03-02T11:14:00","32.95","65.5666666","1156.72","WXPOD8278, AF","FM-16","4","30.58","46","46","","","","","100","","","","7.00","","270","","1","","","","","","","","","","","","","","","","","","","","","","","","","","","","","","","","","","","","","","","","","","","","","","","","","","","","","","","","","","","","","","","","","","","","","","","","","","","","","","","","","","","","","","","","","","","MET090MOBOB1 METAR 8268 //011 383220 020644Z AUTO 27001KT 9999 CLR 08/08 A3058 RMK CDP03528 CLR;","","","","","","","","","",""
"00826899999","2012-03-02T11:30:00","32.95","65.5666666","1156.72","WXPOD8278, AF","FM-15","4","30.58","45","45","","","","","100","","","","7.00","","220","","1","","","","","","","","","","","","","","","","","","","","","","","","","","","","","","","","","","","","","","","","","","","","","","","","","","","","","","","","","","","","","","","","","","","","","","","","","","","","","","","","","","","","","","","","","","","MET090MOBOB1 METAR 8268 //011 383220 020659Z AUTO 22001KT 9999 CLR 07/07 A3058 RMK CDP03528 CLR;","","","","","","","","","",""
"00826899999","2012-03-02T11:44:00","32.95","65.5666666","1156.72","WXPOD8278, AF","FM-16","4","30.58","45","45","","","","","100","","","","3.73","","100","","1","","","","","","","","","","","","","","","","","","","","","","","","","","","","","","","","","","","","","","","","","","","","","","","","","","","","","","","","","","","","","","","","","","","","","","","","","","","","","","","","","","","","","","","","","","","MET093MOBOB1 METAR 8268 //011 383220 020714Z AUTO 10001KT 6000 HZ CLR 07/07 A3058 RMK CDP03528 CLR;","","","","","","","","","",""
"00826899999","2012-03-02T11:59:00","32.95","65.5666666","1156.72","WXPOD8278, AF","FM-16","4","30.58","43","43","","","","","100","","","","7.00","","260","","2","","","","","","","","","","","","","","","","","","","","","","","","","","","","","","","","","","","","","","","","","","","","","","","","","","","","","","","","","","","","","","","","","","","","","","","","","","","","","","","","","","","","","","","","","","","MET090MOBOB1 METAR 8268 //011 383220 020729Z AUTO 26002KT 9999 CLR 06/06 A3058 RMK CDP03528 CLR;","","","","","","","","","",""
"00826899999","2012-03-02T12:14:00","32.95","65.5666666","1156.72","WXPOD8278, AF","FM-16","4","30.58","45","45","","","","","100","","","","7.00","","340","","2","","","","","","","","","","","","","","","","","","","","","","","","","","","","","","","","","","","","","","","","","","","","","","","","","","","","","","","","","","","","","","","","","","","","","","","","","","","","","","","","","","","","","","","","","","","MET090MOBOB1 METAR 8268 //011 383220 020744Z AUTO 34002KT 9999 CLR 07/07 A3058 RMK CDP03528 CLR;","","","","","","","","","",""
"00826899999","2012-03-02T12:30:00","32.95","65.5666666","1156.72","WXPOD8278, AF","FM-15","4","30.59","45","45","","","","","100","","","","7.00","","340","","2","","","","","","","","","","","","","","","","","","","","","","","","","","","","","","","","","","","","","","","","","","","","","","","","","","","","","","","","","","","","","","","","","","","","","","","","","","","","","","","","","","","","","","","","","","","MET090MOBOB1 METAR 8268 //011 383220 020759Z AUTO 34002KT 9999 CLR 07/07 A3059 RMK CDP03528 CLR;","","","","","","","","","",""
"00826899999","2012-03-02T12:44:00","32.95","65.5666666","1156.72","WXPOD8278, AF","FM-16","4","30.58","45","45","","","","","100","","","","7.00","","290","","1","","","","","","","","","","","","","","","","","","","","","","","","","","","","","","","","","","","","","","","","","","","","","","","","","","","","","","","","","","","","","","","","","","","","","","","","","","","","","","","","","","","","","","","","","","","MET090MOBOB1 METAR 8268 //011 383220 020814Z AUTO 29001KT 9999 CLR 07/07 A3058 RMK CDP03528 CLR;","","","","","","","","","",""
"00826899999","2012-03-02T12:59:00","32.95","65.5666666","1156.72","WXPOD8278, AF","FM-16","4","30.58","45","45","","","","","100","","","","7.00","","320","","1","","","","","","","","","","","","","","","","","","","","","","","","","","","","","","","","","","","","","","","","","","","","","","","","","","","","","","","","","","","","","","","","","","","","","","","","","","","","","","","","","","","","","","","","","","","MET090MOBOB1 METAR 8268 //011 383220 020829Z AUTO 32001KT 9999 CLR 07/07 A3058 RMK CDP03528 CLR;","","","","","","","","","",""
"00826899999","2012-03-02T13:14:00","32.95","65.5666666","1156.72","WXPOD8278, AF","FM-16","4","30.58","43","43","","","","","100","","","","7.00","","250","","1","","","","","","","","","","","","","","","","","","","","","","","","","","","","","","","","","","","","","","","","","","","","","","","","","","","","","","","","","","","","","","","","","","","","","","","","","","","","","","","","","","","","","","","","","","","MET090MOBOB1 METAR 8268 //011 383220 020844Z AUTO 25001KT 9999 CLR 06/06 A3058 RMK CDP03528 CLR;","","","","","","","","","",""
"00826899999","2012-03-02T13:30:00","32.95","65.5666666","1156.72","WXPOD8278, AF","FM-15","4","30.60","43","43","","","","","100","","","","7.00","","000","","0","","","","","","","","","","","","","","","","","","","","","","","","","","","","","","","","","","","","","","","","","","","","","","","","","","","","","","","","","","","","","","","","","","","","","","","","","","","","","","","","","","","","","","","","","","","MET090MOBOB1 METAR 8268 //011 383220 020859Z AUTO 00000KT 9999 CLR 06/06 A3060 RMK CDP03528 CLR;","","","","","","","","","",""
"00826899999","2012-03-02T13:44:00","32.95","65.5666666","1156.72","WXPOD8278, AF","FM-16","4","30.60","41","41","","","","","100","","","","2.98","","360","","2","","","","","","","","","","","","","","","","","","","","","","","","","","","","","","","","","","","","","","","","","","","","","","","","","","","","","","","","","","","","","","","","","","","","","","","","","","","","","","","","","","","","","","","","","","","MET093MOBOB1 METAR 8268 //011 383220 020914Z AUTO 36002KT 4800 HZ CLR 05/05 A3060 RMK CDP03528 CLR;","","","","","","","","","",""
"00826899999","2012-03-02T13:59:00","32.95","65.5666666","1156.72","WXPOD8278, AF","FM-16","4","30.60","41","41","","","","","100","","","","7.00","","050","","1","","","","","","","","","","","","","","","","","","","","","","","","","","","","","","","","","","","","","","","","","","","","","","","","","","","","","","","","","","","","","","","","","","","","","","","","","","","","","","","","","","","","","","","","","","","MET090MOBOB1 METAR 8268 //011 383220 020929Z AUTO 05001KT 9999 CLR 05/05 A3060 RMK CDP03528 CLR;","","","","","","","","","",""
"00826899999","2012-03-02T14:14:00","32.95","65.5666666","1156.72","WXPOD8278, AF","FM-16","4","30.60","43","43","","","","","100","","","","7.00","","000","","0","","","","","","","","","","","","","","","","","","","","","","","","","","","","","","","","","","","","","","","","","","","","","","","","","","","","","","","","","","","","","","","","","","","","","","","","","","","","","","","","","","","","","","","","","","","MET090MOBOB1 METAR 8268 //011 383220 020944Z AUTO 00000KT 9999 CLR 06/06 A3060 RMK CDP03528 CLR;","","","","","","","","","",""
"00826899999","2012-03-02T14:30:00","32.95","65.5666666","1156.72","WXPOD8278, AF","FM-15","4","30.60","36","45","","","","","71","","","","7.00","","340","","3","","","","","","","","","","","","","","","","","","","","","","","","","","","","","","","","","","","","","","","","","","","","","","","","","","","","","","","","","","","","","","","","","","","","","","","","","","","","","","","","","","","","","","","","","","","MET090MOBOB1 METAR 8268 //011 383220 020959Z AUTO 34003KT 9999 CLR 07/02 A3060 RMK CDP03528 CLR;","","","","","","","","","",""
"00826899999","2012-03-02T14:44:00","32.95","65.5666666","1156.72","WXPOD8278, AF","FM-16","4","30.60","34","45","","","","","66","","","","7.00","","350","","2","","","","","","","","","","","","","","","","","","","","","","","","","","","","","","","","","","","","","","","","","","","","","","","","","","","","","","","","","","","","","","","","","","","","","","","","","","","","","","","","","","","","","","","","","","","MET090MOBOB1 METAR 8268 //011 383220 021014Z AUTO 35002KT 9999 CLR 07/01 A3060 RMK CDP03528 CLR;","","","","","","","","","",""
"00826899999","2012-03-02T14:59:00","32.95","65.5666666","1156.72","WXPOD8278, AF","FM-16","4","30.60","34","45","","","","","66","","","","7.00","","330","","3","","","","","","","","","","","","","","","","","","","","","","","","","","","","","","","","","","","","","","","","","","","","","","","","","","","","","","","","","","","","","","","","","","","","","","","","","","","","","","","","","","","","","","","","","","","MET090MOBOB1 METAR 8268 //011 383220 021029Z AUTO 33003KT 9999 CLR 07/01 A3060 RMK CDP03528 CLR;","","","","","","","","","",""
"00826899999","2012-03-02T15:14:00","32.95","65.5666666","1156.72","WXPOD8278, AF","FM-16","4","30.59","39","41","","","","","93","","","","7.00","","250","","1","","","","","","","","","","","","","","","","","","","","","","","","","","","","","","","","","","","","","","","","","","","","","","","","","","","","","","","","","","","","","","","","","","","","","","","","","","","","","","","","","","","","","","","","","","","MET090MOBOB1 METAR 8268 //011 383220 021044Z AUTO 25001KT 9999 CLR 05/04 A3059 RMK CDP03528 CLR;","","","","","","","","","",""
"00826899999","2012-03-02T15:30:00","32.95","65.5666666","1156.72","WXPOD8278, AF","FM-15","4","30.59","39","39","","","","","100","","","","7.00","","210","","1","","","","","","","","","","","","","","","","","","","","","","","","","","","","","","","","","","","","","","","","","","","","","","","","","","","","","","","","","","","","","","","","","","","","","","","","","","","","","","","","","","","","","","","","","","","MET090MOBOB1 METAR 8268 //011 383220 021059Z AUTO 21001KT 9999 CLR 04/04 A3059 RMK CDP03528 CLR;","","","","","","","","","",""
"00826899999","2012-03-02T15:44:00","32.95","65.5666666","1156.72","WXPOD8278, AF","FM-16","4","30.59","37","39","","","","","93","","","","7.00","","270","","1","","","","","","","","","","","","","","","","","","","","","","","","","","","","","","","","","","","","","","","","","","","","","","","","","","","","","","","","","","","","","","","","","","","","","","","","","","","","","","","","","","","","","","","","","","","MET090MOBOB1 METAR 8268 //011 383220 021114Z AUTO 27001KT 9999 CLR 04/03 A3059 RMK CDP03528 CLR;","","","","","","","","","",""
"00826899999","2012-03-02T15:59:00","32.95","65.5666666","1156.72","WXPOD8278, AF","FM-16","4","30.59","36","37","","","","","93","","","","7.00","","240","","2","","","","","","","","","","","","","","","","","","","","","","","","","","","","","","","","","","","","","","","","","","","","","","","","","","","","","","","","","","","","","","","","","","","","","","","","","","","","","","","","","","","","","","","","","","","MET090MOBOB1 METAR 8268 //011 383220 021129Z AUTO 24002KT 9999 CLR 03/02 A3059 RMK CDP03528 CLR;","","","","","","","","","",""
"00826899999","2012-03-02T16:14:00","32.95","65.5666666","1156.72","WXPOD8278, AF","FM-16","4","30.59","34","37","","","","","87","","","","7.00","","230","","1","","","","","","","","","","","","","","","","","","","","","","","","","","","","","","","","","","","","","","","","","","","","","","","","","","","","","","","","","","","","","","","","","","","","","","","","","","","","","","","","","","","","","","","","","","","MET090MOBOB1 METAR 8268 //011 383220 021144Z AUTO 23001KT 9999 CLR 03/01 A3059 RMK CDP03528 CLR;","","","","","","","","","",""
"00826899999","2012-03-02T16:30:00","32.95","65.5666666","1156.72","WXPOD8278, AF","FM-15","4","30.60","32","39","","","","","75","","","","7.00","","210","","1","","","","","","","","","","","","","","","","","","","","","","","","","","","","","","","","","","","","","","","","","","","","","","","","","","","","","","","","","","","","","","","","","","","","","","","","","","","","","","","","","","","","","","","","","","","MET090MOBOB1 METAR 8268 //011 383220 021159Z AUTO 21001KT 9999 CLR 04/00 A3060 RMK CDP03528 CLR;","","","","","","","","","",""
"00826899999","2012-03-02T16:44:00","32.95","65.5666666","1156.72","WXPOD8278, AF","FM-16","4","30.60","32","39","","","","","75","","","","7.00","","000","","0","","","","","","","","","","","","","","","","","","","","","","","","","","","","","","","","","","","","","","","","","","","","","","","","","","","","","","","","","","","","","","","","","","","","","","","","","","","","","","","","","","","","","","","","","","","MET090MOBOB1 METAR 8268 //011 383220 021214Z AUTO 00000KT 9999 CLR 04/00 A3060 RMK CDP03528 CLR;","","","","","","","","","",""
"00826899999","2012-03-02T16:59:00","32.95","65.5666666","1156.72","WXPOD8278, AF","FM-16","4","30.60","32","39","","","","","75","","","","7.00","","180","","1","","","","","","","","","","","","","","","","","","","","","","","","","","","","","","","","","","","","","","","","","","","","","","","","","","","","","","","","","","","","","","","","","","","","","","","","","","","","","","","","","","","","","","","","","","","MET090MOBOB1 METAR 8268 //011 383220 021229Z AUTO 18001KT 9999 CLR 04/00 A3060 RMK CDP03528 CLR;","","","","","","","","","",""
"00826899999","2012-03-02T17:14:00","32.95","65.5666666","1156.72","WXPOD8278, AF","FM-16","4","30.60","34","39","","","","","81","","","","7.00","","190","","1","","","","","","","","","","","","","","","","","","","","","","","","","","","","","","","","","","","","","","","","","","","","","","","","","","","","","","","","","","","","","","","","","","","","","","","","","","","","","","","","","","","","","","","","","","","MET090MOBOB1 METAR 8268 //011 383220 021244Z AUTO 19001KT 9999 CLR 04/01 A3060 RMK CDP03528 CLR;","","","","","","","","","",""
"00826899999","2012-03-02T17:30:00","32.95","65.5666666","1156.72","WXPOD8278, AF","FM-15","4","30.60","32","37","","","","","81","","","","7.00","","180","","1","","","","","","","","","","","","","","","","","","","","","","","","","","","","","","","","","","","","","","","","","","","","","","","","","","","","","","","","","","","","","","","","","","","","","","","","","","","","","","","","","","","","","","","","","","","MET090MOBOB1 METAR 8268 //011 383220 021259Z AUTO 18001KT 9999 CLR 03/00 A3060 RMK CDP03528 CLR;","","","","","","","","","",""
"00826899999","2012-03-02T17:44:00","32.95","65.5666666","1156.72","WXPOD8278, AF","FM-16","4","30.61","32","41","","","","","70","","","","7.00","","170","","1","","","","","","","","","","","","","","","","","","","","","","","","","","","","","","","","","","","","","","","","","","","","","","","","","","","","","","","","","","","","","","","","","","","","","","","","","","","","","","","","","","","","","","","","","","","MET090MOBOB1 METAR 8268 //011 383220 021314Z AUTO 17001KT 9999 CLR 05/00 A3061 RMK CDP03528 CLR;","","","","","","","","","",""
"00826899999","2012-03-02T17:59:00","32.95","65.5666666","1156.72","WXPOD8278, AF","FM-16","4","30.61","32","39","","","","","75","","","","7.00","","140","","1","","","","","","","","","","","","","","","","","","","","","","","","","","","","","","","","","","","","","","","","","","","","","","","","","","","","","","","","","","","","","","","","","","","","","","","","","","","","","","","","","","","","","","","","","","","MET090MOBOB1 METAR 8268 //011 383220 021329Z AUTO 14001KT 9999 CLR 04/00 A3061 RMK CDP03528 CLR;","","","","","","","","","",""
"00826899999","2012-03-02T18:14:00","32.95","65.5666666","1156.72","WXPOD8278, AF","FM-16","4","30.61","32","37","","","","","81","","","","7.00","","190","","2","","","","","","","","","","","","","","","","","","","","","","","","","","","","","","","","","","","","","","","","","","","","","","","","","","","","","","","","","","","","","","","","","","","","","","","","","","","","","","","","","","","","","","","","","","","MET090MOBOB1 METAR 8268 //011 383220 021344Z AUTO 19002KT 9999 CLR 03/00 A3061 RMK CDP03528 CLR;","","","","","","","","","",""
"00826899999","2012-03-02T18:30:00","32.95","65.5666666","1156.72","WXPOD8278, AF","FM-15","4","30.62","32","37","","","","","81","","","","7.00","","120","","2","","","","","","","","","","","","","","","","","","","","","","","","","","","","","","","","","","","","","","","","","","","","","","","","","","","","","","","","","","","","","","","","","","","","","","","","","","","","","","","","","","","","","","","","","","","MET090MOBOB1 METAR 8268 //011 383220 021359Z AUTO 12002KT 9999 CLR 03/00 A3062 RMK CDP03528 CLR;","","","","","","","","","",""
"00826899999","2012-03-02T18:44:00","32.95","65.5666666","1156.72","WXPOD8278, AF","FM-16","4","30.62","32","39","","","","","75","","","","7.00","","100","","2","","","","","","","","","","","","","","","","","","","","","","","","","","","","","","","","","","","","","","","","","","","","","","","","","","","","","","","","","","","","","","","","","","","","","","","","","","","","","","","","","","","","","","","","","","","MET090MOBOB1 METAR 8268 //011 383220 021414Z AUTO 10002KT 9999 CLR 04/00 A3062 RMK CDP03528 CLR;","","","","","","","","","",""
"00826899999","2012-03-02T18:59:00","32.95","65.5666666","1156.72","WXPOD8278, AF","FM-16","4","30.63","37","39","","","","","93","","","","7.00","","080","","3","","","","","","","","","","","","","","","","","","","","","","","","","","","","","","","","","","","","","","","","","","","","","","","","","","","","","","","","","","","","","","","","","","","","","","","","","","","","","","","","","","","","","","","","","","","MET090MOBOB1 METAR 8268 //011 383220 021429Z AUTO 08003KT 9999 CLR 04/03 A3063 RMK CDP03528 CLR;","","","","","","","","","",""
"00826899999","2012-03-02T19:14:00","32.95","65.5666666","1156.72","WXPOD8278, AF","FM-16","4","30.63","37","39","","","","","93","FEW:02 21","","","7.00","","120","","2","","","","","","","","","","","","","","","","","","","","","","","","","","","","","","","","","","","","","","","","","","","","","","","","","","","","","","","","","","","","","","","","","","","","","","","","","","","","","","","","","","","","","","","","","","","MET108MOBOB1 METAR 8268 //011 383220 021444Z AUTO 12002KT 9999 FEW021 04/03 A3063 RMK CDP03528 FEW021 CLD AVG 021;","","","","","","","","","",""
"00826899999","2012-03-02T19:30:00","32.95","65.5666666","1156.72","WXPOD8278, AF","FM-15","4","30.63","37","39","","","","","93","","","","7.00","","160","","2","","","","","","","","","","","","","","","","","","","","","","","","","","","","","","","","","","","","","","","","","","","","","","","","","","","","","","","","","","","","","","","","","","","","","","","","","","","","","","","","","","","","","","","","","","","MET090MOBOB1 METAR 8268 //011 383220 021459Z AUTO 16002KT 9999 CLR 04/03 A3063 RMK CDP03528 CLR;","","","","","","","","","",""
"00826899999","2012-03-02T19:44:00","32.95","65.5666666","1156.72","WXPOD8278, AF","FM-16","4","30.64","37","41","","","","","87","","","","7.00","","000","","0","","","","","","","","","","","","","","","","","","","","","","","","","","","","","","","","","","","","","","","","","","","","","","","","","","","","","","","","","","","","","","","","","","","","","","","","","","","","","","","","","","","","","","","","","","","MET090MOBOB1 METAR 8268 //011 383220 021514Z AUTO 00000KT 9999 CLR 05/03 A3064 RMK CDP03528 CLR;","","","","","","","","","",""
"00826899999","2012-03-02T19:59:00","32.95","65.5666666","1156.72","WXPOD8278, AF","FM-16","4","30.64","36","39","","","","","87","","","","7.00","","180","","5","","","","","","","","","","","","","","","","","","","","","","","","","","","","","","","","","","","","","","","","","","","","","","","","","","","","","","","","","","","","","","","","","","","","","","","","","","","","","","","","","","","","","","","","","","","MET090MOBOB1 METAR 8268 //011 383220 021529Z AUTO 18004KT 9999 CLR 04/02 A3064 RMK CDP03528 CLR;","","","","","","","","","",""
"00826899999","2012-03-02T20:14:00","32.95","65.5666666","1156.72","WXPOD8278, AF","FM-16","4","30.66","34","43","","","","","71","","","","7.00","","170","","1","","","","","","","","","","","","","","","","","","","","","","","","","","","","","","","","","","","","","","","","","","","","","","","","","","","","","","","","","","","","","","","","","","","","","","","","","","","","","","","","","","","","","","","","","","","MET090MOBOB1 METAR 8268 //011 383220 021544Z AUTO 17001KT 9999 CLR 06/01 A3066 RMK CDP03528 CLR;","","","","","","","","","",""
"00826899999","2012-03-02T20:30:00","32.95","65.5666666","1156.72","WXPOD8278, AF","FM-15","4","30.66","34","46","","","","","62","","","","7.00","","120","","1","","","","","","","","","","","","","","","","","","","","","","","","","","","","","","","","","","","","","","","","","","","","","","","","","","","","","","","","","","","","","","","","","","","","","","","","","","","","","","","","","","","","","","","","","","","MET090MOBOB1 METAR 8268 //011 383220 021559Z AUTO 12001KT 9999 CLR 08/01 A3066 RMK CDP03528 CLR;","","","","","","","","","",""
"00826899999","2012-03-02T20:44:00","32.95","65.5666666","1156.72","WXPOD8278, AF","FM-16","4","30.66","36","50","","","","","58","","","","7.00","","170","","3","","","","","","","","","","","","","","","","","","","","","","","","","","","","","","","","","","","","","","","","","","","","","","","","","","","","","","","","","","","","","","","","","","","","","","","","","","","","","","","","","","","","","","","","","","","MET090MOBOB1 METAR 8268 //011 383220 021614Z AUTO 17003KT 9999 CLR 10/02 A3066 RMK CDP03528 CLR;","","","","","","","","","",""
"00826899999","2012-03-02T20:59:00","32.95","65.5666666","1156.72","WXPOD8278, AF","FM-16","4","30.67","36","50","","","","","58","","","","7.00","","190","","5","","","","","","","","","","","","","","","","","","","","","","","","","","","","","","","","","","","","","","","","","","","","","","","","","","","","","","","","","","","","","","","","","","","","","","","","","","","","","","","","","","","","","","","","","","","MET090MOBOB1 METAR 8268 //011 383220 021629Z AUTO 19004KT 9999 CLR 10/02 A3067 RMK CDP03528 CLR;","","","","","","","","","",""
"00826899999","2012-03-02T21:14:00","32.95","65.5666666","1156.72","WXPOD8278, AF","FM-16","4","30.68","36","52","","","","","54","","","","7.00","","180","","5","","","","","","","","","","","","","","","","","","","","","","","","","","","","","","","","","","","","","","","","","","","","","","","","","","","","","","","","","","","","","","","","","","","","","","","","","","","","","","","","","","","","","","","","","","","MET090MOBOB1 METAR 8268 //011 383220 021644Z AUTO 18004KT 9999 CLR 11/02 A3068 RMK CDP03528 CLR;","","","","","","","","","",""
"00826899999","2012-03-02T21:30:00","32.95","65.5666666","1156.72","WXPOD8278, AF","FM-15","4","30.68","32","54","","","","","44","","","","7.00","","180","","3","","","","","","","","","","","","","","","","","","","","","","","","","","","","","","","","","","","","","","","","","","","","","","","","","","","","","","","","","","","","","","","","","","","","","","","","","","","","","","","","","","","","","","","","","","","MET090MOBOB1 METAR 8268 //011 383220 021659Z AUTO 18003KT 9999 CLR 12/00 A3068 RMK CDP03528 CLR;","","","","","","","","","",""
"00826899999","2012-03-02T21:44:00","32.95","65.5666666","1156.72","WXPOD8278, AF","FM-16","4","30.68","32","52","","","","","47","","","","7.00","","220","","6","","","","","","","","","","","","","","","","","","","","","","","","","","","","","","","","","","","","","","","","","","","","","","","","","","","","","","","","","","","","","","","","","","","","","","","","","","","","","","","","","","","","","","","","","","","MET090MOBOB1 METAR 8268 //011 383220 021714Z AUTO 22005KT 9999 CLR 11/00 A3068 RMK CDP03528 CLR;","","","","","","","","","",""
"00826899999","2012-03-02T21:59:00","32.95","65.5666666","1156.72","WXPOD8278, AF","FM-16","4","30.69","32","55","","","","","41","","","","7.00","","170","","3","","","","","","","","","","","","","","","","","","","","","","","","","","","","","","","","","","","","","","","","","","","","","","","","","","","","","","","","","","","","","","","","","","","","","","","","","","","","","","","","","","","","","","","","","","","MET090MOBOB1 METAR 8268 //011 383220 021729Z AUTO 17003KT 9999 CLR 13/00 A3069 RMK CDP03528 CLR;","","","","","","","","","",""
"00826899999","2012-03-02T22:14:00","32.95","65.5666666","1156.72","WXPOD8278, AF","FM-16","4","30.69","34","59","","","","","39","FEW:02 24","","","7.00","","210","","1","","","","","","","","","","","","","","","","","","","","","","","","","","","","","","","","","","","","","","","","","","","","","","","","","","","","","","","","","","","","","","","","","","","","","","","","","","","","","","","","","","","","","","","","","","","MET108MOBOB1 METAR 8268 //011 383220 021744Z AUTO 21001KT 9999 FEW024 15/01 A3069 RMK CDP03528 FEW024 CLD AVG 024;","","","","","","","","","",""
"00826899999","2012-03-02T22:30:00","32.95","65.5666666","1156.72","WXPOD8278, AF","FM-15","4","30.69","34","57","","","","","41","","","","7.00","","190","","2","","","","","","","","","","","","","","","","","","","","","","","","","","","","","","","","","","","","","","","","","","","","","","","","","","","","","","","","","","","","","","","","","","","","","","","","","","","","","","","","","","","","","","","","","","","MET090MOBOB1 METAR 8268 //011 383220 021759Z AUTO 19002KT 9999 CLR 14/01 A3069 RMK CDP03528 CLR;","","","","","","","","","",""
"00826899999","2012-03-02T22:59:00","32.95","65.5666666","1156.72","WXPOD8278, AF","FM-16","4","30.69","34","61","","","","","36","","","","7.00","","030","","1","","","","","","","","","","","","","","","","","","","","","","","","","","","","","","","","","","","","","","","","","","","","","","","","","","","","","","","","","","","","","","","","","","","","","","","","","","","","","","","","","","","","","","","","","","","MET090MOBOB1 METAR 8268 //011 383220 021829Z AUTO 03001KT 9999 CLR 16/01 A3069 RMK CDP03528 CLR;","","","","","","","","","",""
"00826899999","2012-03-02T23:14:00","32.95","65.5666666","1156.72","WXPOD8278, AF","FM-16","4","30.68","32","59","","","","","36","","","","7.00","","230","","2","","","","","","","","","","","","","","","","","","","","","","","","","","","","","","","","","","","","","","","","","","","","","","","","","","","","","","","","","","","","","","","","","","","","","","","","","","","","","","","","","","","","","","","","","","","MET090MOBOB1 METAR 8268 //011 383220 021844Z AUTO 23002KT 9999 CLR 15/00 A3068 RMK CDP03528 CLR;","","","","","","","","","",""
"00826899999","2012-03-02T23:30:00","32.95","65.5666666","1156.72","WXPOD8278, AF","FM-15","4","30.30","36","59","","","","","42","","","","7.00","","300","","3","","","","","","","","","","","","","","","","","","","","","","","","","","","","","","","","","","","","","","","","","","","","","","","","","","","","","","","","","","","","","","","","","","","","","","","","","","","","","","","","","","","","","","","","","","","MET090MOBOB1 METAR 8268 //000 383220 021859Z AUTO 30003KT 9999 CLR 15/02 A3030 RMK CDP03528 CLR;","","","","","","","","","",""
"00826899999","2012-03-02T23:44:00","32.95","65.5666666","1156.72","WXPOD8278, AF","FM-16","4","30.30","32","59","","","","","36","","","","7.00","","350","","10","","","","","","","","","","","","","","","","","","","","","","","","","","","","","","","","","","","","","","","","","","","","","","","","","","","","","","","","","","","","","","","","","","","","","","","","","","","","","","","","","","","","","","","","","","","MET090MOBOB1 METAR 8268 //000 383220 021914Z AUTO 35009KT 9999 CLR 15/00 A3030 RMK CDP03528 CLR;","","","","","","","","","",""
"00826899999","2012-03-02T23:59:00","32.95","65.5666666","1156.72","WXPOD8278, AF","FM-16","4","30.29","34","59","","","","","39","","","","7.00","","360","","8","","","","","","","","","","","","","","","","","","","","","","","","","","","","","","","","","","","","","","","","","","","","","","","","","","","","","","","","","","","","","","","","","","","","","","","","","","","","","","","","","","","","","","","","","","","MET090MOBOB1 METAR 8268 //000 383220 021929Z AUTO 36007KT 9999 CLR 15/01 A3029 RMK CDP03528 CLR;","","","","","","","","","",""
"00826899999","2012-03-03T00:14:00","32.95","65.5666666","1156.72","WXPOD8278, AF","FM-16","4","30.29","34","59","","","","","39","","","","7.00","","360","","9","","","","","","","","","","","","","","","","","","","","","","","","","","","","","","","","","","","","","","","","","","","","","","","","","","","","","","","","","","","","","","","","","","","","","","","","","","","","","","","","","","","","","","","","","","","MET090MOBOB1 METAR 8268 //000 383220 021944Z AUTO 36008KT 9999 CLR 15/01 A3029 RMK CDP03528 CLR;","","","","","","","","","",""
"00826899999","2012-03-03T00:30:00","32.95","65.5666666","1156.72","WXPOD8278, AF","FM-15","4","30.28","34","61","","","","","36","","","","7.00","","350","","10","","","","","","","","","","","","","","","","","","","","","","","","","","","","","","","","","","","","","","","","","","","","","","","","","","","","","","","","","","","","","","","","","","","","","","","","","","","","","","","","","","","","","","","","","","","MET090MOBOB1 METAR 8268 //000 383220 021959Z AUTO 35009KT 9999 CLR 16/01 A3028 RMK CDP03528 CLR;","","","","","","","","","",""
"00826899999","2012-03-03T00:44:00","32.95","65.5666666","1156.72","WXPOD8278, AF","FM-16","4","30.28","32","61","","","","","34","","","","7.00","","010","","13","","","","","","","","","","","","","","","","","","","","","","","","","","","","","","","","","","","","","","","","","","","","","","","","","","","","","","","","","","","","","","","","","","","","","","","","","","","","","","","","","","","","","","","","","","","MET090MOBOB1 METAR 8268 //000 383220 022014Z AUTO 01011KT 9999 CLR 16/00 A3028 RMK CDP03528 CLR;","","","","","","","","","",""
"00826899999","2012-03-03T00:59:00","32.95","65.5666666","1156.72","WXPOD8278, AF","FM-16","4","30.27","36","61","","","","","39","","","","7.00","","360","","10","","","","","","","","","","","","","","","","","","","","","","","","","","","","","","","","","","","","","","","","","","","","","","","","","","","","","","","","","","","","","","","","","","","","","","","","","","","","","","","","","","","","","","","","","","","MET090MOBOB1 METAR 8268 //000 383220 022029Z AUTO 36009KT 9999 CLR 16/02 A3027 RMK CDP03528 CLR;","","","","","","","","","",""
"00826899999","2012-03-03T01:14:00","32.95","65.5666666","1156.72","WXPOD8278, AF","FM-16","4","30.27","34","63","","","","","34","","","","7.00","","350","","9","","","","","","","","","","","","","","","","","","","","","","","","","","","","","","","","","","","","","","","","","","","","","","","","","","","","","","","","","","","","","","","","","","","","","","","","","","","","","","","","","","","","","","","","","","","MET090MOBOB1 METAR 8268 //000 383220 022044Z AUTO 35008KT 9999 CLR 17/01 A3027 RMK CDP03528 CLR;","","","","","","","","","",""
"00826899999","2012-03-03T01:30:00","32.95","65.5666666","1156.72","WXPOD8278, AF","FM-15","4","30.26","34","63","","","","","34","","","","7.00","","360","","10","","","","","","","","","","","","","","","","","","","","","","","","","","","","","","","","","","","","","","","","","","","","","","","","","","","","","","","","","","","","","","","","","","","","","","","","","","","","","","","","","","","","","","","","","","","MET090MOBOB1 METAR 8268 //000 383220 022059Z AUTO 36009KT 9999 CLR 17/01 A3026 RMK CDP03528 CLR;","","","","","","","","","",""
"00826899999","2012-03-03T01:44:00","32.95","65.5666666","1156.72","WXPOD8278, AF","FM-16","4","30.25s","34","63","","","","","34","FEW:02 140","","","7.00","","020","","9","","","","","","","","","","","","","","","","","","","","","","","","","","","","","","","","","","","","","","","","","","","","","","","","","","","","","","","","","","","","","","","","","","","","","","","","","","","","","","","","","","","","","","","","","","","MET108MOBOB1 METAR 8268 //000 383220 022114Z AUTO 02008KT 9999 FEW142 17/01 A3025 RMK CDP03528 FEW142 CLD AVG 142;","","","","","","","","","",""
"00826899999","2012-03-20T21:59:00","32.95","65.5666666","1156.72","WXPOD8278, AF","FM-16","4","30.17","61","72","","","","","69","","","","7.00","","020","","8","","","","","","","","","","","","","","","","","","","","","","","","","","","","","","","","","","","","","","","","","","","","","","","","","","","","","","","","","","","","","","","","","","","","","","","","","","","","","","","","","","","","","","","","","","","MET090MOBOB0 METAR 8268 //000 000000 201729Z AUTO 02007KT 9999 CLR 22/16 A3017 RMK CDP03528 CLR;","","","","","","","","","",""
"00826899999","2012-03-20T23:14:00","32.95","65.5666666","1156.72","WXPOD8278, AF","FM-16","4","30.14","59","72","","","","","65","","","","7.00","","090","","8","","","","","","","","","","","","","","","","","","","","","","","","","","","","","","","","","","","","","","","","","","","","","","","","","","","","","","","","","","","","","","","","","","","","","","","","","","","","","","","","","","","","","","","","","","","MET090MOBOB0 METAR 8268 //000 000000 201844Z AUTO 09007KT 9999 CLR 22/15 A3014 RMK CDP03528 CLR;","","","","","","","","","",""
"00826899999","2012-03-20T23:44:00","32.95","65.5666666","1156.72","WXPOD8278, AF","FM-16","4","30.13","63","73","","","","","69","","","","7.00","","110","","6","","","","","","","","","","","","","","","","","","","","","","","","","","","","","","","","","","","","","","","","","","","","","","","","","","","","","","","","","","","","","","","","","","","","","","","","","","","","","","","","","","","","","","","","","","","MET090MOBOB0 METAR 8268 //000 400744 201914Z AUTO 11005KT 9999 CLR 23/17 A3013 RMK CDP03528 CLR;","","","","","","","","","",""
"00826899999","2012-03-20T23:59:00","32.95","65.5666666","1156.72","WXPOD8278, AF","FM-16","4","30.13","61","73","","","","","65","","","","7.00","","120","","6","","","","","","","","","","","","","","","","","","","","","","","","","","","","","","","","","","","","","","","","","","","","","","","","","","","","","","","","","","","","","","","","","","","","","","","","","","","","","","","","","","","","","","","","","","","MET090MOBOB0 METAR 8268 //000 400744 201929Z AUTO 12005KT 9999 CLR 23/16 A3013 RMK CDP03528 CLR;","","","","","","","","","",""
"00826899999","2012-03-21T00:14:00","32.95","65.5666666","1156.72","WXPOD8278, AF","FM-16","4","30.13","63","72","","","","","73","","","","7.00","","150","","6","","","","","","","","","","","","","","","","","","","","","","","","","","","","","","","","","","","","","","","","","","","","","","","","","","","","","","","","","","","","","","","","","","","","","","","","","","","","","","","","","","","","","","","","","","","MET090MOBOB0 METAR 8268 //000 400744 201944Z AUTO 15005KT 9999 CLR 22/17 A3013 RMK CDP03528 CLR;","","","","","","","","","",""
"00826899999","2012-03-21T00:30:00","32.95","65.5666666","1156.72","WXPOD8278, AF","FM-15","4","30.13","63","72","","","","","73","","","","7.00","","160","","7","","","","","","","","","","","","","","","","","","","","","","","","","","","","","","","","","","","","","","","","","","","","","","","","","","","","","","","","","","","","","","","","","","","","","","","","","","","","","","","","","","","","","","","","","","","MET090MOBOB0 METAR 8268 //000 400744 201959Z AUTO 16006KT 9999 CLR 22/17 A3013 RMK CDP03528 CLR;","","","","","","","","","",""
"00826899999","2012-03-21T00:44:00","32.95","65.5666666","1156.72","WXPOD8278, AF","FM-16","4","30.13","61","70","","","","","73","","","","7.00","","120","","5","","","","","","","","","","","","","","","","","","","","","","","","","","","","","","","","","","","","","","","","","","","","","","","","","","","","","","","","","","","","","","","","","","","","","","","","","","","","","","","","","","","","","","","","","","","MET090MOBOB0 METAR 8268 //000 400744 202014Z AUTO 12004KT 9999 CLR 21/16 A3013 RMK CDP03528 CLR;","","","","","","","","","",""
"00826899999","2012-03-21T00:59:00","32.95","65.5666666","1156.72","WXPOD8278, AF","FM-16","4","30.13","61","70","","","","","73","","","","7.00","","120","","5","","","","","","","","","","","","","","","","","","","","","","","","","","","","","","","","","","","","","","","","","","","","","","","","","","","","","","","","","","","","","","","","","","","","","","","","","","","","","","","","","","","","","","","","","","","MET090MOBOB0 METAR 8268 //000 400744 202029Z AUTO 12004KT 9999 CLR 21/16 A3013 RMK CDP03528 CLR;","","","","","","","","","",""
"00826899999","2012-03-21T01:14:00","32.95","65.5666666","1156.72","WXPOD8278, AF","FM-16","4","30.12","63","72","","","","","73","","","","7.00","","140","","6","","","","","","","","","","","","","","","","","","","","","","","","","","","","","","","","","","","","","","","","","","","","","","","","","","","","","","","","","","","","","","","","","","","","","","","","","","","","","","","","","","","","","","","","","","","MET090MOBOB0 METAR 8268 //000 400744 202044Z AUTO 14005KT 9999 CLR 22/17 A3012 RMK CDP03528 CLR;","","","","","","","","","",""
"00826899999","2012-03-21T01:30:00","32.95","65.5666666","1156.72","WXPOD8278, AF","FM-15","4","30.12","61","70","","","","","73","FEW:02 16","","","7.00","","120","","5","","","","","","","","","","","","","","","","","","","","","","","","","","","","","","","","","","","","","","","","","","","","","","","","","","","","","","","","","","","","","","","","","","","","","","","","","","","","","","","","","","","","","","","","","","","MET108MOBOB0 METAR 8268 //000 400744 202059Z AUTO 12004KT 9999 FEW016 21/16 A3012 RMK CDP03528 FEW016 CLD AVG 016;","","","","","","","","","",""
"00826899999","2012-03-21T01:44:00","32.95","65.5666666","1156.72","WXPOD8278, AF","FM-16","4","30.12","63","68","","","","","83","","","","7.00","","140","","7","","","","","","","","","","","","","","","","","","","","","","","","","","","","","","","","","","","","","","","","","","","","","","","","","","","","","","","","","","","","","","","","","","","","","","","","","","","","","","","","","","","","","","","","","","","MET090MOBOB0 METAR 8268 //000 400744 202114Z AUTO 14006KT 9999 CLR 20/17 A3012 RMK CDP03528 CLR;","","","","","","","","","",""
"00826899999","2012-03-21T01:59:00","32.95","65.5666666","1156.72","WXPOD8278, AF","FM-16","4","30.12","63","68","","","","","83","","","","7.00","","140","","7","","","","","","","","","","","","","","","","","","","","","","","","","","","","","","","","","","","","","","","","","","","","","","","","","","","","","","","","","","","","","","","","","","","","","","","","","","","","","","","","","","","","","","","","","","","MET090MOBOB0 METAR 8268 //000 400744 202129Z AUTO 14006KT 9999 CLR 20/17 A3012 RMK CDP03528 CLR;","","","","","","","","","",""
"00826899999","2012-03-21T02:14:00","32.95","65.5666666","1156.72","WXPOD8278, AF","FM-16","4","30.13","61","66","","","","","83","","","","7.00","","160","","6","","","","","","","","","","","","","","","","","","","","","","","","","","","","","","","","","","","","","","","","","","","","","","","","","","","","","","","","","","","","","","","","","","","","","","","","","","","","","","","","","","","","","","","","","","","MET090MOBOB0 METAR 8268 //000 400744 202144Z AUTO 16005KT 9999 CLR 19/16 A3013 RMK CDP03528 CLR;","","","","","","","","","",""
"00826899999","2012-03-21T02:30:00","32.95","65.5666666","1156.72","WXPOD8278, AF","FM-15","4","30.13","63","66","","","","","88","SCT:04 23","","","7.00","","120","","6","","","","","","","","","","","","","","","","","","","","","","","","","","","","","","","","","","","","","","","","","","","","","","","","","","","","","","","","","","","","","","","","","","","","","","","","","","","","","","","","","","","","","","","","","","","MET108MOBOB0 METAR 8268 //000 400744 202159Z AUTO 12005KT 9999 SCT023 19/17 A3013 RMK CDP03528 SCT023 CLD AVG 023;","","","","","","","","","",""
"00826899999","2012-03-21T02:44:00","32.95","65.5666666","1156.72","WXPOD8278, AF","FM-16","4","30.13","61","64","","","","","88","OVC:08 22","","","7.00","","130","","3","","","","","","","","","","","","","","","","","","","","","","","","","","","","","","","","","","","","","","","","","","","","","","","","","","","","","","","","","","","","","","","","","","","","","","","","","","","","","","","","","","","","","","","","","","","MET108MOBOB0 METAR 8268 //000 400744 202214Z AUTO 13003KT 9999 OVC022 18/16 A3013 RMK CDP03528 OVC022 CLD AVG 023;","","","","","","","","","",""
"00826899999","2012-03-21T02:59:00","32.95","65.5666666","1156.72","WXPOD8278, AF","FM-16","4","30.13","61","63","","","","","94","OVC:08 21","","","7.00","","130","","5","","","","","","","","","","","","","","","","","","","","","","","","","","","","","","","","","","","","","","","","","","","","","","","","","","","","","","","","","","","","","","","","","","","","","","","","","","","","","","","","","","","","","","","","","","","MET108MOBOB0 METAR 8268 //000 400744 202229Z AUTO 13004KT 9999 OVC021 17/16 A3013 RMK CDP03528 OVC021 CLD AVG 022;","","","","","","","","","",""
"00826899999","2012-03-21T03:14:00","32.95","65.5666666","1156.72","WXPOD8278, AF","FM-16","4","30.13","61","63","","","","","94","BKN:07 5","","","7.00","","150","","5","","","","","","","","","","","","","","","","","","","","","","","","","","","","","","","","","","","","","","","","","","","","","","","","","","","","","","","","","","","","","","","","","","","","","","","","","","","","","","","","","","","","","","","","","","","MET108MOBOB0 METAR 8268 //000 400744 202244Z AUTO 15004KT 9999 BKN005 17/16 A3013 RMK CDP03528 BKN005 CLD AVG 006;","","","","","","","","","",""
"00826899999","2012-03-21T03:30:00","32.95","65.5666666","1156.72","WXPOD8278, AF","FM-15","4","30.13","61","61","","","","","100","OVC:08 5","","","7.00","","130","","3","","","","","","","","","","","","","","","","","","","","","","","","","","","","","","","","","","","","","","","","","","","","","","","","","","","","","","","","","","","","","","","","","","","","","","","","","","","","","","","","","","","","","","","","","","","MET108MOBOB0 METAR 8268 //000 400744 202259Z AUTO 13003KT 9999 OVC005 16/16 A3013 RMK CDP03528 OVC005 CLD AVG 007;","","","","","","","","","",""
"00826899999","2012-03-21T03:44:00","32.95","65.5666666","1156.72","WXPOD8278, AF","FM-16","4","30.13","59","59","","","","","100","OVC:08 4","","","7.00","","120","","3","","","","","","","","","","","","","","","","","","","","","","","","","","","","","","","","","","","","","","","","","","","","","","","","","","","","","","","","","","","","","","","","","","","","","","","","","","","","","","","","","","","","","","","","","","","MET108MOBOB0 METAR 8268 //000 400744 202314Z AUTO 12003KT 9999 OVC004 15/15 A3013 RMK CDP03528 OVC004 CLD AVG 005;","","","","","","","","","",""
"00826899999","2012-03-21T03:59:00","32.95","65.5666666","1156.72","WXPOD8278, AF","FM-16","4","30.14","59","59","","","","","100","OVC:08 6","","","7.00","","100","","5","","","","","","","","","","","","","","","","","","","","","","","","","","","","","","","","","","","","","","","","","","","","","","","","","","","","","","","","","","","","","","","","","","","","","","","","","","","","","","","","","","","","","","","","","","","MET108MOBOB0 METAR 8268 //000 400744 202329Z AUTO 10004KT 9999 OVC006 15/15 A3014 RMK CDP03528 OVC006 CLD AVG 007;","","","","","","","","","",""
"00826899999","2012-03-21T04:14:00","32.95","65.5666666","1156.72","WXPOD8278, AF","FM-16","4","30.14","57","57","","","","","100","OVC:08 5","","","7.00","","090","","5","","","","","","","","","","","","","","","","","","","","","","","","","","","","","","","","","","","","","","","","","","","","","","","","","","","","","","","","","","","","","","","","","","","","","","","","","","","","","","","","","","","","","","","","","","","MET108MOBOB0 METAR 8268 //000 400744 202344Z AUTO 09004KT 9999 OVC005 14/14 A3014 RMK CDP03528 OVC005 CLD AVG 008;","","","","","","","","","",""
"00826899999","2012-03-21T04:30:00","32.95","65.5666666","1156.72","WXPOD8278, AF","FM-15","4","30.14","57","57","","","","","100","OVC:08 5","","","7.00","","110","","3","","","","","","","","","","","","","","","","","","","","","","","","","","","","","","","","","","","","","","","","","","","","","","","","","","","","","","","","","","","","","","","","","","","","","","","","","","","","","","","","","","","","","","","","","","","MET108MOBOB0 METAR 8268 //000 400744 202359Z AUTO 11003KT 9999 OVC005 14/14 A3014 RMK CDP03528 OVC005 CLD AVG 006;","","","","","","","","","",""
"00826899999","2012-03-21T04:44:00","32.95","65.5666666","1156.72","WXPOD8278, AF","FM-16","4","30.15","57","57","","","","","100","OVC:08 4","","","7.00","","150","","5","","","","","","","","","","","","","","","","","","","","","","","","","","","","","","","","","","","","","","","","","","","","","","","","","","","","","","","","","","","","","","","","","","","","","","","","","","","","","","","","","","","","","","","","","","","MET108MOBOB0 METAR 8268 //000 400744 210014Z AUTO 15004KT 9999 OVC004 14/14 A3015 RMK CDP03528 OVC004 CLD AVG 005;","","","","","","","","","",""
"00826899999","2012-03-21T05:14:00","32.95","65.5666666","1156.72","WXPOD8278, AF","FM-16","4","30.15","57","57","","","","","100","OVC:08 4","","","7.00","","080","","2","","","","","","","","","","","","","","","","","","","","","","","","","","","","","","","","","","","","","","","","","","","","","","","","","","","","","","","","","","","","","","","","","","","","","","","","","","","","","","","","","","","","","","","","","","","MET108MOBOB0 METAR 8268 //000 400744 210044Z AUTO 08002KT 9999 OVC004 14/14 A3015 RMK CDP03528 OVC004 CLD AVG 004;","","","","","","","","","",""
"00826899999","2012-03-21T05:30:00","32.95","65.5666666","1156.72","WXPOD8278, AF","FM-15","4","30.15","57","57","","","","","100","OVC:08 2","","","7.00","","100","","2","","","","","","","","","","","","","","","","","","","","","","","","","","","","","","","","","","","","","","","","","","","","","","","","","","","","","","","","","","","","","","","","","","","","","","","","","","","","","","","","","","","","","","","","","","","MET108MOBOB0 METAR 8268 //000 400744 210059Z AUTO 10002KT 9999 OVC002 14/14 A3015 RMK CDP03528 OVC002 CLD AVG 003;","","","","","","","","","",""
"00826899999","2012-03-21T05:44:00","32.95","65.5666666","1156.72","WXPOD8278, AF","FM-16","4","30.15","55","55","","","","","100","OVC:08 3","","","7.00","","100","","2","","","","","","","","","","","","","","","","","","","","","","","","","","","","","","","","","","","","","","","","","","","","","","","","","","","","","","","","","","","","","","","","","","","","","","","","","","","","","","","","","","","","","","","","","","","MET108MOBOB0 METAR 8268 //000 400744 210114Z AUTO 10002KT 9999 OVC003 13/13 A3015 RMK CDP03528 OVC003 CLD AVG 003;","","","","","","","","","",""
"00826899999","2012-03-21T05:59:00","32.95","65.5666666","1156.72","WXPOD8278, AF","FM-16","4","30.16","55","55","","","","","100","BKN:07 2","","","4.97","","150","","3","","","","","","","","","","","","","","","","","","","","","","","","","","","","","","","","","","","","","","","","","","","","","","","","","","","","","","","","","","","","","","","","","","","","","","","","","","","","","","","","","","","","","","","","","","","MET111MOBOB0 METAR 8268 //000 400744 210129Z AUTO 15003KT 8000 HZ BKN002 13/13 A3016 RMK CDP03528 BKN002 CLD AVG 002;","","","","","","","","","",""
"00826899999","2012-03-21T06:14:00","32.95","65.5666666","1156.72","WXPOD8278, AF","FM-16","4","30.16","55","55","","","","","100","OVC:08 2","","","5.59","","130","","2","","","","","","","","","","","","","","","","","","","","","","","","","","","","","","","","","","","","","","","","","","","","","","","","","","","","","","","","","","","","","","","","","","","","","","","","","","","","","","","","","","","","","","","","","","","MET108MOBOB0 METAR 8268 //000 400744 210144Z AUTO 13002KT 9000 OVC002 13/13 A3016 RMK CDP03528 OVC002 CLD AVG 002;","","","","","","","","","",""
"00826899999","2012-03-21T06:30:00","32.95","65.5666666","1156.72","WXPOD8278, AF","FM-15","4","30.17","55","55","","","","","100","OVC:08 2","","","3.73","","110","","3","","","","","","","","","","","","","","","","","","","","","","","","","","","","","","","","","","","","","","","","","","","","","","","","","","","","","","","","","","","","","","","","","","","","","","","","","","","","","","","","","","","","","","","","","","","MET111MOBOB0 METAR 8268 //000 400744 210159Z AUTO 11003KT 6000 HZ OVC002 13/13 A3017 RMK CDP03528 OVC002 CLD AVG 002;","","","","","","","","","",""
"00826899999","2012-03-21T06:44:00","32.95","65.5666666","1156.72","WXPOD8278, AF","FM-16","4","30.17","55","55","","","","","100","OVC:08 1","","","2.98","","120","","2","","","","","","","","","","","","","","","","","","","","","","","","","","","","","","","","","","","","","","","","","","","","","","","","","","","","","","","","","","","","","","","","","","","","","","","","","","","","","","","","","","","","","","","","","","","MET111MOBOB0 METAR 8268 //000 400744 210214Z AUTO 12002KT 4800 HZ OVC001 13/13 A3017 RMK CDP03528 OVC001 CLD AVG 002;","","","","","","","","","",""
"00826899999","2012-03-21T06:59:00","32.95","65.5666666","1156.72","WXPOD8278, AF","FM-16","4","30.17","55","55","","","","","100","OVC:08 1","","","2.49","","130","","2","","","","","","","","","","","","","","","","","","","","","","","","","","","","","","","","","","","","","","","","","","","","","","","","","","","","","","","","","","","","","","","","","","","","","","","","","","","","","","","","","","","","","","","","","","","MET111MOBOB0 METAR 8268 //000 400744 210229Z AUTO 13002KT 4000 HZ OVC001 13/13 A3017 RMK CDP03528 OVC001 CLD AVG 001;","","","","","","","","","",""
"00826899999","2012-03-21T07:14:00","32.95","65.5666666","1156.72","WXPOD8278, AF","FM-16","4","30.17","55","55","","","","","100","OVC:08 0","","","1.37","","110","","1","","","","","","","","","","","","","","","","","","","","","","","","","","","","","","","","","","","","","","","","","","","","","","","","","","","","","","","","","","","","","","","","","","","","","","","","","","","","","","","","","","","","","","","","","","","MET111MOBOB0 METAR 8268 //000 400744 210244Z AUTO 11001KT 2200 FG OVC000 13/13 A3017 RMK CDP03528 OVC000 CLD AVG 001;","","","","","","","","","",""
"00826899999","2012-03-21T07:30:00","32.95","65.5666666","1156.72","WXPOD8278, AF","FM-15","4","30.17","55","55","","","","","100","OVC:08 1","","","2.24","","110","","3","","","","","","","","","","","","","","","","","","","","","","","","","","","","","","","","","","","","","","","","","","","","","","","","","","","","","","","","","","","","","","","","","","","","","","","","","","","","","","","","","","","","","","","","","","","MET111MOBOB0 METAR 8268 //000 400744 210259Z AUTO 11003KT 3600 BR OVC001 13/13 A3017 RMK CDP03528 OVC001 CLD AVG 001;","","","","","","","","","",""
"00826899999","2012-03-21T07:44:00","32.95","65.5666666","1156.72","WXPOD8278, AF","FM-16","4","30.18","55","55","","","","","100","OVC:08 0","","","0.87","","120","","1","","","","","","","","","","","","","","","","","","","","","","","","","","","","","","","","","","","","","","","","","","","","","","","","","","","","","","","","","","","","","","","","","","","","","","","","","","","","","","","","","","","","","","","","","","","MET111MOBOB0 METAR 8268 //000 400744 210314Z AUTO 12001KT 1400 FG OVC000 13/13 A3018 RMK CDP03528 OVC000 CLD AVG 000;","","","","","","","","","",""
"00826899999","2012-03-21T07:59:00","32.95","65.5666666","1156.72","WXPOD8278, AF","FM-16","4","30.18","55","55","","","","","100","OVC:08 0","","","0.50","","110","","2","","","","","","","","","","","","","","","","","","","","","","","","","","","","","","","","","","","","","","","","","","","","","","","","","","","","","","","","","","","","","","","","","","","","","","","","","","","","","","","","","","","","","","","","","","","MET111MOBOB0 METAR 8268 //000 400744 210329Z AUTO 11002KT 0800 FG OVC000 13/13 A3018 RMK CDP03528 OVC000 CLD AVG 000;","","","","","","","","","",""
"00826899999","2012-03-21T08:14:00","32.95","65.5666666","1156.72","WXPOD8278, AF","FM-16","4","30.17","55","55","","","","","100","SCT:04 0","","","0.50","","090","","2","","","","","","","","","","","","","","","","","","","","","","","","","","","","","","","","","","","","","","","","","","","","","","","","","","","","","","","","","","","","","","","","","","","","","","","","","","","","","","","","","","","","","","","","","","","MET111MOBOB0 METAR 8268 //000 400744 210344Z AUTO 09002KT 0800 FG SCT000 13/13 A3017 RMK CDP03528 SCT000 CLD AVG 000;","","","","","","","","","",""
"00826899999","2012-03-21T08:30:00","32.95","65.5666666","1156.72","WXPOD8278, AF","FM-15","4","30.17","55","55","","","","","100","","","","2.98","","070","","3","","","","","","","","","","","","","","","","","","","","","","","","","","","","","","","","","","","","","","","","","","","","","","","","","","","","","","","","","","","","","","","","","","","","","","","","","","","","","","","","","","","","","","","","","","","MET093MOBOB0 METAR 8268 //000 400744 210359Z AUTO 07003KT 4800 HZ CLR 13/13 A3017 RMK CDP03528 CLR;","","","","","","","","","",""
"00826899999","2012-03-21T08:44:00","32.95","65.5666666","1156.72","WXPOD8278, AF","FM-16","4","30.17","57","57","","","","","100","","","","7.00","","080","","2","","","","","","","","","","","","","","","","","","","","","","","","","","","","","","","","","","","","","","","","","","","","","","","","","","","","","","","","","","","","","","","","","","","","","","","","","","","","","","","","","","","","","","","","","","","MET090MOBOB0 METAR 8268 //000 400744 210414Z AUTO 08002KT 9999 CLR 14/14 A3017 RMK CDP03528 CLR;","","","","","","","","","",""
"00826899999","2012-03-21T08:59:00","32.95","65.5666666","1156.72","WXPOD8278, AF","FM-16","4","30.18","57","57","","","","","100","","","","7.00","","080","","1","","","","","","","","","","","","","","","","","","","","","","","","","","","","","","","","","","","","","","","","","","","","","","","","","","","","","","","","","","","","","","","","","","","","","","","","","","","","","","","","","","","","","","","","","","","MET090MOBOB0 METAR 8268 //000 400744 210429Z AUTO 08001KT 9999 CLR 14/14 A3018 RMK CDP03528 CLR;","","","","","","","","","",""
"00826899999","2012-03-21T09:14:00","32.95","65.5666666","1156.72","WXPOD8278, AF","FM-16","4","30.18","57","57","","","","","100","","","","5.59","","080","","3","","","","","","","","","","","","","","","","","","","","","","","","","","","","","","","","","","","","","","","","","","","","","","","","","","","","","","","","","","","","","","","","","","","","","","","","","","","","","","","","","","","","","","","","","","","MET090MOBOB0 METAR 8268 //000 400744 210444Z AUTO 08003KT 9000 CLR 14/14 A3018 RMK CDP03528 CLR;","","","","","","","","","",""
"00826899999","2012-03-21T09:30:00","32.95","65.5666666","1156.72","WXPOD8278, AF","FM-15","4","30.18","57","57","","","","","100","","","","7.00","","080","","3","","","","","","","","","","","","","","","","","","","","","","","","","","","","","","","","","","","","","","","","","","","","","","","","","","","","","","","","","","","","","","","","","","","","","","","","","","","","","","","","","","","","","","","","","","","MET090MOBOB0 METAR 8268 //000 400744 210459Z AUTO 08003KT 9999 CLR 14/14 A3018 RMK CDP03528 CLR;","","","","","","","","","",""
"00826899999","2012-03-21T09:44:00","32.95","65.5666666","1156.72","WXPOD8278, AF","FM-16","4","30.18","57","57","","","","","100","","","","7.00","","090","","2","","","","","","","","","","","","","","","","","","","","","","","","","","","","","","","","","","","","","","","","","","","","","","","","","","","","","","","","","","","","","","","","","","","","","","","","","","","","","","","","","","","","","","","","","","","MET090MOBOB0 METAR 8268 //000 400744 210514Z AUTO 09002KT 9999 CLR 14/14 A3018 RMK CDP03528 CLR;","","","","","","","","","",""
"00826899999","2012-03-21T09:59:00","32.95","65.5666666","1156.72","WXPOD8278, AF","FM-16","4","30.18","57","57","","","","","100","","","","7.00","","110","","2","","","","","","","","","","","","","","","","","","","","","","","","","","","","","","","","","","","","","","","","","","","","","","","","","","","","","","","","","","","","","","","","","","","","","","","","","","","","","","","","","","","","","","","","","","","MET090MOBOB0 METAR 8268 //000 400744 210529Z AUTO 11002KT 9999 CLR 14/14 A3018 RMK CDP03528 CLR;","","","","","","","","","",""
"00826899999","2012-03-21T10:14:00","32.95","65.5666666","1156.72","WXPOD8278, AF","FM-16","4","30.18","57","57","","","","","100","","","","7.00","","080","","1","","","","","","","","","","","","","","","","","","","","","","","","","","","","","","","","","","","","","","","","","","","","","","","","","","","","","","","","","","","","","","","","","","","","","","","","","","","","","","","","","","","","","","","","","","","MET090MOBOB0 METAR 8268 //000 400744 210544Z AUTO 08001KT 9999 CLR 14/14 A3018 RMK CDP03528 CLR;","","","","","","","","","",""
"00826899999","2012-03-21T10:30:00","32.95","65.5666666","1156.72","WXPOD8278, AF","FM-15","4","30.18","57","57","","","","","100","","","","7.00","","080","","3","","","","","","","","","","","","","","","","","","","","","","","","","","","","","","","","","","","","","","","","","","","","","","","","","","","","","","","","","","","","","","","","","","","","","","","","","","","","","","","","","","","","","","","","","","","MET090MOBOB0 METAR 8268 //000 400744 210559Z AUTO 08003KT 9999 CLR 14/14 A3018 RMK CDP03528 CLR;","","","","","","","","","",""
"00826899999","2012-03-21T10:44:00","32.95","65.5666666","1156.72","WXPOD8278, AF","FM-16","4","30.18","57","57","","","","","100","","","","7.00","","090","","3","","","","","","","","","","","","","","","","","","","","","","","","","","","","","","","","","","","","","","","","","","","","","","","","","","","","","","","","","","","","","","","","","","","","","","","","","","","","","","","","","","","","","","","","","","","MET090MOBOB0 METAR 8268 //000 400744 210614Z AUTO 09003KT 9999 CLR 14/14 A3018 RMK CDP03528 CLR;","","","","","","","","","",""
"00826899999","2012-03-21T10:59:00","32.95","65.5666666","1156.72","WXPOD8278, AF","FM-16","4","30.18","57","57","","","","","100","","","","4.97","","090","","3","","","","","","","","","","","","","","","","","","","","","","","","","","","","","","","","","","","","","","","","","","","","","","","","","","","","","","","","","","","","","","","","","","","","","","","","","","","","","","","","","","","","","","","","","","","MET093MOBOB0 METAR 8268 //000 400744 210629Z AUTO 09003KT 8000 HZ CLR 14/14 A3018 RMK CDP03528 CLR;","","","","","","","","","",""
"00826899999","2012-03-21T11:14:00","32.95","65.5666666","1156.72","WXPOD8278, AF","FM-16","4","30.18","55","55","","","","","100","","","","7.00","","100","","3","","","","","","","","","","","","","","","","","","","","","","","","","","","","","","","","","","","","","","","","","","","","","","","","","","","","","","","","","","","","","","","","","","","","","","","","","","","","","","","","","","","","","","","","","","","MET090MOBOB0 METAR 8268 //000 400744 210644Z AUTO 10003KT 9999 CLR 13/13 A3018 RMK CDP03528 CLR;","","","","","","","","","",""
"00826899999","2012-03-21T11:30:00","32.95","65.5666666","1156.72","WXPOD8278, AF","FM-15","4","30.18","55","55","","","","","100","","","","7.00","","090","","3","","","","","","","","","","","","","","","","","","","","","","","","","","","","","","","","","","","","","","","","","","","","","","","","","","","","","","","","","","","","","","","","","","","","","","","","","","","","","","","","","","","","","","","","","","","MET090MOBOB0 METAR 8268 //000 400744 210659Z AUTO 09003KT 9999 CLR 13/13 A3018 RMK CDP03528 CLR;","","","","","","","","","",""
"00826899999","2012-03-21T11:44:00","32.95","65.5666666","1156.72","WXPOD8278, AF","FM-16","4","30.17","55","55","","","","","100","","","","7.00","","120","","2","","","","","","","","","","","","","","","","","","","","","","","","","","","","","","","","","","","","","","","","","","","","","","","","","","","","","","","","","","","","","","","","","","","","","","","","","","","","","","","","","","","","","","","","","","","MET090MOBOB0 METAR 8268 //000 400744 210714Z AUTO 12002KT 9999 CLR 13/13 A3017 RMK CDP03528 CLR;","","","","","","","","","",""
"00826899999","2012-03-21T11:59:00","32.95","65.5666666","1156.72","WXPOD8278, AF","FM-16","4","30.17","55","55","","","","","100","","","","7.00","","100","","3","","","","","","","","","","","","","","","","","","","","","","","","","","","","","","","","","","","","","","","","","","","","","","","","","","","","","","","","","","","","","","","","","","","","","","","","","","","","","","","","","","","","","","","","","","","MET090MOBOB0 METAR 8268 //000 400744 210729Z AUTO 10003KT 9999 CLR 13/13 A3017 RMK CDP03528 CLR;","","","","","","","","","",""
"00826899999","2012-03-21T12:14:00","32.95","65.5666666","1156.72","WXPOD8278, AF","FM-16","4","30.17","55","55","","","","","100","FEW:02 1","","","4.97","","100","","2","","","","","","","","","","","","","","","","","","","","","","","","","","","","","","","","","","","","","","","","","","","","","","","","","","","","","","","","","","","","","","","","","","","","","","","","","","","","","","","","","","","","","","","","","","","MET108MOBOB0 METAR 8268 //000 400744 210744Z AUTO 10002KT 8000 FEW001 13/13 A3017 RMK CDP03528 FEW001 CLD AVG 001;","","","","","","","","","",""
"00826899999","2012-03-21T12:30:00","32.95","65.5666666","1156.72","WXPOD8278, AF","FM-15","4","30.17","55","55","","","","","100","","","","7.00","","080","","3","","","","","","","","","","","","","","","","","","","","","","","","","","","","","","","","","","","","","","","","","","","","","","","","","","","","","","","","","","","","","","","","","","","","","","","","","","","","","","","","","","","","","","","","","","","MET090MOBOB0 METAR 8268 //000 400744 210759Z AUTO 08003KT 9999 CLR 13/13 A3017 RMK CDP03528 CLR;","","","","","","","","","",""
"00826899999","2012-03-21T12:44:00","32.95","65.5666666","1156.72","WXPOD8278, AF","FM-16","4","30.17","55","55","","","","","100","","","","7.00","","110","","3","","","","","","","","","","","","","","","","","","","","","","","","","","","","","","","","","","","","","","","","","","","","","","","","","","","","","","","","","","","","","","","","","","","","","","","","","","","","","","","","","","","","","","","","","","","MET090MOBOB0 METAR 8268 //000 400744 210814Z AUTO 11003KT 9999 CLR 13/13 A3017 RMK CDP03528 CLR;","","","","","","","","","",""
"00826899999","2012-03-21T12:59:00","32.95","65.5666666","1156.72","WXPOD8278, AF","FM-16","4","30.17","55","55","","","","","100","","","","7.00","","090","","2","","","","","","","","","","","","","","","","","","","","","","","","","","","","","","","","","","","","","","","","","","","","","","","","","","","","","","","","","","","","","","","","","","","","","","","","","","","","","","","","","","","","","","","","","","","MET090MOBOB0 METAR 8268 //000 400744 210829Z AUTO 09002KT 9999 CLR 13/13 A3017 RMK CDP03528 CLR;","","","","","","","","","",""
"00826899999","2012-03-21T13:14:00","32.95","65.5666666","1156.72","WXPOD8278, AF","FM-16","4","30.16","55","55","","","","","100","","","","7.00","","100","","2","","","","","","","","","","","","","","","","","","","","","","","","","","","","","","","","","","","","","","","","","","","","","","","","","","","","","","","","","","","","","","","","","","","","","","","","","","","","","","","","","","","","","","","","","","","MET090MOBOB0 METAR 8268 //000 400744 210844Z AUTO 10002KT 9999 CLR 13/13 A3016 RMK CDP03528 CLR;","","","","","","","","","",""
"00826899999","2012-03-21T13:30:00","32.95","65.5666666","1156.72","WXPOD8278, AF","FM-15","4","30.16","55","55","","","","","100","","","","7.00","","110","","1","","","","","","","","","","","","","","","","","","","","","","","","","","","","","","","","","","","","","","","","","","","","","","","","","","","","","","","","","","","","","","","","","","","","","","","","","","","","","","","","","","","","","","","","","","","MET090MOBOB0 METAR 8268 //000 400744 210859Z AUTO 11001KT 9999 CLR 13/13 A3016 RMK CDP03528 CLR;","","","","","","","","","",""
"00826899999","2012-03-21T13:44:00","32.95","65.5666666","1156.72","WXPOD8278, AF","FM-16","4","30.17","55","55","","","","","100","","","","7.00","","130","","2","","","","","","","","","","","","","","","","","","","","","","","","","","","","","","","","","","","","","","","","","","","","","","","","","","","","","","","","","","","","","","","","","","","","","","","","","","","","","","","","","","","","","","","","","","","MET090MOBOB0 METAR 8268 //000 400744 210914Z AUTO 13002KT 9999 CLR 13/13 A3017 RMK CDP03528 CLR;","","","","","","","","","",""
"00826899999","2012-03-21T13:59:00","32.95","65.5666666","1156.72","WXPOD8278, AF","FM-16","4","30.17","55","55","","","","","100","","","","7.00","","130","","1","","","","","","","","","","","","","","","","","","","","","","","","","","","","","","","","","","","","","","","","","","","","","","","","","","","","","","","","","","","","","","","","","","","","","","","","","","","","","","","","","","","","","","","","","","","MET090MOBOB0 METAR 8268 //000 400744 210929Z AUTO 13001KT 9999 CLR 13/13 A3017 RMK CDP03528 CLR;","","","","","","","","","",""
"00826899999","2012-03-21T14:14:00","32.95","65.5666666","1156.72","WXPOD8278, AF","FM-16","4","30.17","55","55","","","","","100","","","","3.73","","120","","1","","","","","","","","","","","","","","","","","","","","","","","","","","","","","","","","","","","","","","","","","","","","","","","","","","","","","","","","","","","","","","","","","","","","","","","","","","","","","","","","","","","","","","","","","","","MET093MOBOB0 METAR 8268 //000 400744 210944Z AUTO 12001KT 6000 HZ CLR 13/13 A3017 RMK CDP03528 CLR;","","","","","","","","","",""
"00826899999","2012-03-21T14:30:00","32.95","65.5666666","1156.72","WXPOD8278, AF","FM-15","4","30.17","55","55","","","","","100","","","","1.62","","110","","2","","","","","","","","","","","","","","","","","","","","","","","","","","","","","","","","","","","","","","","","","","","","","","","","","","","","","","","","","","","","","","","","","","","","","","","","","","","","","","","","","","","","","","","","","","","MET093MOBOB0 METAR 8268 //000 400744 210959Z AUTO 11002KT 2600 FG CLR 13/13 A3017 RMK CDP03528 CLR;","","","","","","","","","",""
"00826899999","2012-03-21T14:44:00","32.95","65.5666666","1156.72","WXPOD8278, AF","FM-16","4","30.18","55","55","","","","","100","","","","2.24","","130","","1","","","","","","","","","","","","","","","","","","","","","","","","","","","","","","","","","","","","","","","","","","","","","","","","","","","","","","","","","","","","","","","","","","","","","","","","","","","","","","","","","","","","","","","","","","","MET093MOBOB0 METAR 8268 //000 400744 211014Z AUTO 13001KT 3600 HZ CLR 13/13 A3018 RMK CDP03528 CLR;","","","","","","","","","",""
"00826899999","2012-03-21T14:59:00","32.95","65.5666666","1156.72","WXPOD8278, AF","FM-16","4","30.18","55","55","","","","","100","","","","1.99","","110","","1","","","","","","","","","","","","","","","","","","","","","","","","","","","","","","","","","","","","","","","","","","","","","","","","","","","","","","","","","","","","","","","","","","","","","","","","","","","","","","","","","","","","","","","","","","","MET093MOBOB0 METAR 8268 //000 400744 211029Z AUTO 11001KT 3200 HZ CLR 13/13 A3018 RMK CDP03528 CLR;","","","","","","","","","",""
"00826899999","2012-03-21T15:14:00","32.95","65.5666666","1156.72","WXPOD8278, AF","FM-16","4","30.18","55","55","","","","","100","","","","1.99","","140","","1","","","","","","","","","","","","","","","","","","","","","","","","","","","","","","","","","","","","","","","","","","","","","","","","","","","","","","","","","","","","","","","","","","","","","","","","","","","","","","","","","","","","","","","","","","","MET093MOBOB0 METAR 8268 //000 400744 211044Z AUTO 14001KT 3200 FG CLR 13/13 A3018 RMK CDP03528 CLR;","","","","","","","","","",""
"00826899999","2012-03-21T15:30:00","32.95","65.5666666","1156.72","WXPOD8278, AF","FM-15","4","30.18","55","55","","","","","100","","","","1.24","","110","","2","","","","","","","","","","","","","","","","","","","","","","","","","","","","","","","","","","","","","","","","","","","","","","","","","","","","","","","","","","","","","","","","","","","","","","","","","","","","","","","","","","","","","","","","","","","MET093MOBOB0 METAR 8268 //000 400744 211059Z AUTO 11002KT 2000 FG CLR 13/13 A3018 RMK CDP03528 CLR;","","","","","","","","","",""
"00826899999","2012-03-21T15:44:00","32.95","65.5666666","1156.72","WXPOD8278, AF","FM-16","4","30.19","55","55","","","","","100","","","","1.24","","110","","1","","","","","","","","","","","","","","","","","","","","","","","","","","","","","","","","","","","","","","","","","","","","","","","","","","","","","","","","","","","","","","","","","","","","","","","","","","","","","","","","","","","","","","","","","","","MET093MOBOB0 METAR 8268 //000 400744 211114Z AUTO 11001KT 2000 FG CLR 13/13 A3019 RMK CDP03528 CLR;","","","","","","","","","",""
"00826899999","2012-03-21T15:59:00","32.95","65.5666666","1156.72","WXPOD8278, AF","FM-16","4","30.19","55","55","","","","","100","","","","2.73","","100","","2","","","","","","","","","","","","","","","","","","","","","","","","","","","","","","","","","","","","","","","","","","","","","","","","","","","","","","","","","","","","","","","","","","","","","","","","","","","","","","","","","","","","","","","","","","","MET093MOBOB0 METAR 8268 //000 400744 211129Z AUTO 10002KT 4400 HZ CLR 13/13 A3019 RMK CDP03528 CLR;","","","","","","","","","",""
"00826899999","2012-03-21T16:14:00","32.95","65.5666666","1156.72","WXPOD8278, AF","FM-16","4","30.19","55","55","","","","","100","","","","2.73","","140","","1","","","","","","","","","","","","","","","","","","","","","","","","","","","","","","","","","","","","","","","","","","","","","","","","","","","","","","","","","","","","","","","","","","","","","","","","","","","","","","","","","","","","","","","","","","","MET093MOBOB0 METAR 8268 //000 400744 211144Z AUTO 14001KT 4400 HZ CLR 13/13 A3019 RMK CDP03528 CLR;","","","","","","","","","",""
"00826899999","2012-03-21T16:30:00","32.95","65.5666666","1156.72","WXPOD8278, AF","FM-15","4","30.20","55","55","","","","","100","","","","1.86","","120","","1","","","","","","","","","","","","","","","","","","","","","","","","","","","","","","","","","","","","","","","","","","","","","","","","","","","","","","","","","","","","","","","","","","","","","","","","","","","","","","","","","","","","","","","","","","","MET093MOBOB0 METAR 8268 //000 400744 211159Z AUTO 12001KT 3000 FG CLR 13/13 A3020 RMK CDP03528 CLR;","","","","","","","","","",""
"00826899999","2012-03-21T16:44:00","32.95","65.5666666","1156.72","WXPOD8278, AF","FM-16","4","30.20","55","55","","","","","100","","","","1.24","","110","","2","","","","","","","","","","","","","","","","","","","","","","","","","","","","","","","","","","","","","","","","","","","","","","","","","","","","","","","","","","","","","","","","","","","","","","","","","","","","","","","","","","","","","","","","","","","MET093MOBOB0 METAR 8268 //000 400744 211214Z AUTO 11002KT 2000 FG CLR 13/13 A3020 RMK CDP03528 CLR;","","","","","","","","","",""
"00826899999","2012-03-21T16:59:00","32.95","65.5666666","1156.72","WXPOD8278, AF","FM-16","4","30.20","55","55","","","","","100","","","","1.49","","090","","2","","","","","","","","","","","","","","","","","","","","","","","","","","","","","","","","","","","","","","","","","","","","","","","","","","","","","","","","","","","","","","","","","","","","","","","","","","","","","","","","","","","","","","","","","","","MET093MOBOB0 METAR 8268 //000 400744 211229Z AUTO 09002KT 2400 FG CLR 13/13 A3020 RMK CDP03528 CLR;","","","","","","","","","",""
"00826899999","2012-03-21T17:14:00","32.95","65.5666666","1156.72","WXPOD8278, AF","FM-16","4","30.20","55","55","","","","","100","","","","1.99","","130","","1","","","","","","","","","","","","","","","","","","","","","","","","","","","","","","","","","","","","","","","","","","","","","","","","","","","","","","","","","","","","","","","","","","","","","","","","","","","","","","","","","","","","","","","","","","","MET093MOBOB0 METAR 8268 //000 400744 211244Z AUTO 13001KT 3200 FG CLR 13/13 A3020 RMK CDP03528 CLR;","","","","","","","","","",""
"00826899999","2012-03-21T17:30:00","32.95","65.5666666","1156.72","WXPOD8278, AF","FM-15","4","30.21","55","55","","","","","100","","","","7.00","","100","","1","","","","","","","","","","","","","","","","","","","","","","","","","","","","","","","","","","","","","","","","","","","","","","","","","","","","","","","","","","","","","","","","","","","","","","","","","","","","","","","","","","","","","","","","","","","MET090MOBOB0 METAR 8268 //000 400744 211259Z AUTO 10001KT 9999 CLR 13/13 A3021 RMK CDP03528 CLR;","","","","","","","","","",""
"00826899999","2012-03-21T17:44:00","32.95","65.5666666","1156.72","WXPOD8278, AF","FM-16","4","30.21","57","57","","","","","100","","","","7.00","","000","","0","","","","","","","","","","","","","","","","","","","","","","","","","","","","","","","","","","","","","","","","","","","","","","","","","","","","","","","","","","","","","","","","","","","","","","","","","","","","","","","","","","","","","","","","","","","MET090MOBOB0 METAR 8268 //000 400744 211314Z AUTO 00000KT 9999 CLR 14/14 A3021 RMK CDP03528 CLR;","","","","","","","","","",""
"00826899999","2012-03-21T17:59:00","32.95","65.5666666","1156.72","WXPOD8278, AF","FM-16","4","30.21","57","57","","","","","100","FEW:02 2","","","7.00","","280","","1","","","","","","","","","","","","","","","","","","","","","","","","","","","","","","","","","","","","","","","","","","","","","","","","","","","","","","","","","","","","","","","","","","","","","","","","","","","","","","","","","","","","","","","","","","","MET108MOBOB0 METAR 8268 //000 400744 211329Z AUTO 28001KT 9999 FEW002 14/14 A3021 RMK CDP03528 FEW002 CLD AVG 002;","","","","","","","","","",""
"00826899999","2012-03-21T18:14:00","32.95","65.5666666","1156.72","WXPOD8278, AF","FM-16","4","30.21","57","57","","","","","100","SCT:04 2","","","7.00","","290","","1","","","","","","","","","","","","","","","","","","","","","","","","","","","","","","","","","","","","","","","","","","","","","","","","","","","","","","","","","","","","","","","","","","","","","","","","","","","","","","","","","","","","","","","","","","","MET108MOBOB0 METAR 8268 //000 400744 211344Z AUTO 29001KT 9999 SCT002 14/14 A3021 RMK CDP03528 SCT002 CLD AVG 002;","","","","","","","","","",""
"00826899999","2012-03-21T18:30:00","32.95","65.5666666","1156.72","WXPOD8278, AF","FM-15","4","30.22","59","59","","","","","100","OVC:08 2","","","7.00","","020","","1","","","","","","","","","","","","","","","","","","","","","","","","","","","","","","","","","","","","","","","","","","","","","","","","","","","","","","","","","","","","","","","","","","","","","","","","","","","","","","","","","","","","","","","","","","","MET108MOBOB0 METAR 8268 //000 400744 211359Z AUTO 02001KT 9999 OVC002 15/15 A3022 RMK CDP03528 OVC002 CLD AVG 002;","","","","","","","","","",""
"00826899999","2012-03-21T18:44:00","32.95","65.5666666","1156.72","WXPOD8278, AF","FM-16","4","30.23","59","59","","","","","100","OVC:08 2","","","7.00","","040","","1","","","","","","","","","","","","","","","","","","","","","","","","","","","","","","","","","","","","","","","","","","","","","","","","","","","","","","","","","","","","","","","","","","","","","","","","","","","","","","","","","","","","","","","","","","","MET108MOBOB0 METAR 8268 //000 400744 211414Z AUTO 04001KT 9999 OVC002 15/15 A3023 RMK CDP03528 OVC002 CLD AVG 003;","","","","","","","","","",""
"00826899999","2012-03-21T19:14:00","32.95","65.5666666","1156.72","WXPOD8278, AF","FM-16","4","30.22","61","61","","","","","100","OVC:08 5","","","7.00","","020","","1","","","","","","","","","","","","","","","","","","","","","","","","","","","","","","","","","","","","","","","","","","","","","","","","","","","","","","","","","","","","","","","","","","","","","","","","","","","","","","","","","","","","","","","","","","","MET108MOBOB0 METAR 8268 //000 400744 211444Z AUTO 02001KT 9999 OVC005 16/16 A3022 RMK CDP03528 OVC005 CLD AVG 007;","","","","","","","","","",""
"00826899999","2012-03-21T19:30:00","32.95","65.5666666","1156.72","WXPOD8278, AF","FM-15","4","30.22","63","63","","","","","100","OVC:08 9","","","7.00","","150","","3","","","","","","","","","","","","","","","","","","","","","","","","","","","","","","","","","","","","","","","","","","","","","","","","","","","","","","","","","","","","","","","","","","","","","","","","","","","","","","","","","","","","","","","","","","","MET108MOBOB0 METAR 8268 //000 400744 211459Z AUTO 15003KT 9999 OVC009 17/17 A3022 RMK CDP03528 OVC009 CLD AVG 009;","","","","","","","","","",""
"00826899999","2012-03-21T19:44:00","32.95","65.5666666","1156.72","WXPOD8278, AF","FM-16","4","30.22","63","63","","","","","100","OVC:08 8","","","7.00","","120","","1","","","","","","","","","","","","","","","","","","","","","","","","","","","","","","","","","","","","","","","","","","","","","","","","","","","","","","","","","","","","","","","","","","","","","","","","","","","","","","","","","","","","","","","","","","","MET108MOBOB0 METAR 8268 //000 400744 211514Z AUTO 12001KT 9999 OVC008 17/17 A3022 RMK CDP03528 OVC008 CLD AVG 008;","","","","","","","","","",""
"00826899999","2012-03-21T19:59:00","32.95","65.5666666","1156.72","WXPOD8278, AF","FM-16","4","30.22","63","63","","","","","100","OVC:08 10","","","7.00","","170","","2","","","","","","","","","","","","","","","","","","","","","","","","","","","","","","","","","","","","","","","","","","","","","","","","","","","","","","","","","","","","","","","","","","","","","","","","","","","","","","","","","","","","","","","","","","","MET108MOBOB0 METAR 8268 //000 400744 211529Z AUTO 17002KT 9999 OVC010 17/17 A3022 RMK CDP03528 OVC010 CLD AVG 010;","","","","","","","","","",""
"00826899999","2012-03-21T20:14:00","32.95","65.5666666","1156.72","WXPOD8278, AF","FM-16","4","30.22","63","64","","","","","94","OVC:08 11","","","7.00","","150","","2","","","","","","","","","","","","","","","","","","","","","","","","","","","","","","","","","","","","","","","","","","","","","","","","","","","","","","","","","","","","","","","","","","","","","","","","","","","","","","","","","","","","","","","","","","","MET108MOBOB0 METAR 8268 //000 400744 211544Z AUTO 15002KT 9999 OVC011 18/17 A3022 RMK CDP03528 OVC011 CLD AVG 013;","","","","","","","","","",""
"00826899999","2012-03-21T20:30:00","32.95","65.5666666","1156.72","WXPOD8278, AF","FM-15","4","30.22","63","64","","","","","94","OVC:08 13","","","7.00","","040","","1","","","","","","","","","","","","","","","","","","","","","","","","","","","","","","","","","","","","","","","","","","","","","","","","","","","","","","","","","","","","","","","","","","","","","","","","","","","","","","","","","","","","","","","","","","","MET108MOBOB0 METAR 8268 //000 400744 211559Z AUTO 04001KT 9999 OVC013 18/17 A3022 RMK CDP03528 OVC013 CLD AVG 014;","","","","","","","","","",""
"00826899999","2012-03-21T20:44:00","32.95","65.5666666","1156.72","WXPOD8278, AF","FM-16","4","30.22","63","66","","","","","88","OVC:08 15","","","7.00","","140","","1","","","","","","","","","","","","","","","","","","","","","","","","","","","","","","","","","","","","","","","","","","","","","","","","","","","","","","","","","","","","","","","","","","","","","","","","","","","","","","","","","","","","","","","","","","","MET108MOBOB0 METAR 8268 //000 400744 211614Z AUTO 14001KT 9999 OVC015 19/17 A3022 RMK CDP03528 OVC015 CLD AVG 016;","","","","","","","","","",""
"00826899999","2012-03-21T20:59:00","32.95","65.5666666","1156.72","WXPOD8278, AF","FM-16","4","30.22","63","64","","","","","94","OVC:08 14","","","7.00","","260","","2","","","","","","","","","","","","","","","","","","","","","","","","","","","","","","","","","","","","","","","","","","","","","","","","","","","","","","","","","","","","","","","","","","","","","","","","","","","","","","","","","","","","","","","","","","","MET108MOBOB0 METAR 8268 //000 400744 211629Z AUTO 26002KT 9999 OVC014 18/17 A3022 RMK CDP03528 OVC014 CLD AVG 016;","","","","","","","","","",""
"00826899999","2012-03-21T21:14:00","32.95","65.5666666","1156.72","WXPOD8278, AF","FM-16","4","30.22","63","66","","","","","88","OVC:08 15","","","7.00","","270","","2","","","","","","","","","","","","","","","","","","","","","","","","","","","","","","","","","","","","","","","","","","","","","","","","","","","","","","","","","","","","","","","","","","","","","","","","","","","","","","","","","","","","","","","","","","","MET108MOBOB0 METAR 8268 //000 400744 211644Z AUTO 27002KT 9999 OVC015 19/17 A3022 RMK CDP03528 OVC015 CLD AVG 015;","","","","","","","","","",""
"00826899999","2012-03-21T21:30:00","32.95","65.5666666","1156.72","WXPOD8278, AF","FM-15","4","30.22","63","64","","","","","94","OVC:08 15","","","7.00","","310","","1","","","","","","","","","","","","","","","","","","","","","","","","","","","","","","","","","","","","","","","","","","","","","","","","","","","","","","","","","","","","","","","","","","","","","","","","","","","","","","","","","","","","","","","","","","","MET108MOBOB0 METAR 8268 //000 400744 211659Z AUTO 31001KT 9999 OVC015 18/17 A3022 RMK CDP03528 OVC015 CLD AVG 015;","","","","","","","","","",""
"00826899999","2012-03-21T21:44:00","32.95","65.5666666","1156.72","WXPOD8278, AF","FM-16","4","30.21","63","66","","","","","88","OVC:08 14","","","7.00","","110","","1","","","","","","","","","","","","","","","","","","","","","","","","","","","","","","","","","","","","","","","","","","","","","","","","","","","","","","","","","","","","","","","","","","","","","","","","","","","","","","","","","","","","","","","","","","","MET108MOBOB0 METAR 8268 //000 400744 211714Z AUTO 11001KT 9999 OVC014 19/17 A3021 RMK CDP03528 OVC014 CLD AVG 015;","","","","","","","","","",""
"00826899999","2012-03-21T21:59:00","32.95","65.5666666","1156.72","WXPOD8278, AF","FM-16","4","30.20","64","64","","","","","100","OVC:08 14","","","7.00","","130","","2","","","","","","","","","","","","","","","","","","","","","","","","","","","","","","","","","","","","","","","","","","","","","","","","","","","","","","","","","","","","","","","","","","","","","","","","","","","","","","","","","","","","","","","","","","","MET108MOBOB0 METAR 8268 //000 400744 211729Z AUTO 13002KT 9999 OVC014 18/18 A3020 RMK CDP03528 OVC014 CLD AVG 015;","","","","","","","","","",""
"00826899999","2012-03-21T22:14:00","32.95","65.5666666","1156.72","WXPOD8278, AF","FM-16","4","30.20","63","64","","","","","94","OVC:08 14","","","7.00","","140","","2","","","","","","","","","","","","","","","","","","","","","","","","","","","","","","","","","","","","","","","","","","","","","","","","","","","","","","","","","","","","","","","","","","","","","","","","","","","","","","","","","","","","","","","","","","","MET108MOBOB0 METAR 8268 //000 400744 211744Z AUTO 14002KT 9999 OVC014 18/17 A3020 RMK CDP03528 OVC014 CLD AVG 015;","","","","","","","","","",""
"00826899999","2012-03-21T22:30:00","32.95","65.5666666","1156.72","WXPOD8278, AF","FM-15","4","30.20","64","66","","","","","94","OVC:08 9","","","7.00","","160","","2","","","","","","","","","","","","","","","","","","","","","","","","","","","","","","","","","","","","","","","","","","","","","","","","","","","","","","","","","","","","","","","","","","","","","","","","","","","","","","","","","","","","","","","","","","","MET108MOBOB0 METAR 8268 //000 400744 211759Z AUTO 16002KT 9999 OVC009 19/18 A3020 RMK CDP03528 OVC009 CLD AVG 011;","","","","","","","","","",""
"00826899999","2012-03-21T22:44:00","32.95","65.5666666","1156.72","WXPOD8278, AF","FM-16","4","30.19","64","66","","","","","94","OVC:08 8","","","7.00","","100","","1","","","","","","","","","","","","","","","","","","","","","","","","","","","","","","","","","","","","","","","","","","","","","","","","","","","","","","","","","","","","","","","","","","","","","","","","","","","","","","","","","","","","","","","","","","","MET108MOBOB0 METAR 8268 //000 400744 211814Z AUTO 10001KT 9999 OVC008 19/18 A3019 RMK CDP03528 OVC008 CLD AVG 009;","","","","","","","","","",""
"00826899999","2012-03-21T22:59:00","32.95","65.5666666","1156.72","WXPOD8278, AF","FM-16","4","30.18","64","64","","","","","100","OVC:08 10","","","7.00","","140","","2","","","","","","","","","","","","","","","","","","","","","","","","","","","","","","","","","","","","","","","","","","","","","","","","","","","","","","","","","","","","","","","","","","","","","","","","","","","","","","","","","","","","","","","","","","","MET108MOBOB0 METAR 8268 //000 400744 211829Z AUTO 14002KT 9999 OVC010 18/18 A3018 RMK CDP03528 OVC010 CLD AVG 010;","","","","","","","","","",""
"00826899999","2012-03-21T23:14:00","32.95","65.5666666","1156.72","WXPOD8278, AF","FM-16","4","30.18","63","64","","","","","94","OVC:08 10","","","7.00","","120","","2","","","","","","","","","","","","","","","","","","","","","","","","","","","","","","","","","","","","","","","","","","","","","","","","","","","","","","","","","","","","","","","","","","","","","","","","","","","","","","","","","","","","","","","","","","","MET108MOBOB0 METAR 8268 //000 400744 211844Z AUTO 12002KT 9999 OVC010 18/17 A3018 RMK CDP03528 OVC010 CLD AVG 012;","","","","","","","","","",""
"00826899999","2012-03-21T23:30:00","32.95","65.5666666","1156.72","WXPOD8278, AF","FM-15","4","30.18","63","64","","","","","94","OVC:08 14","","","7.00","","110","","2","","","","","","","","","","","","","","","","","","","","","","","","","","","","","","","","","","","","","","","","","","","","","","","","","","","","","","","","","","","","","","","","","","","","","","","","","","","","","","","","","","","","","","","","","","","MET108MOBOB0 METAR 8268 //000 400744 211859Z AUTO 11002KT 9999 OVC014 18/17 A3018 RMK CDP03528 OVC014 CLD AVG 017;","","","","","","","","","",""
"00826899999","2012-03-21T23:44:00","32.95","65.5666666","1156.72","WXPOD8278, AF","FM-16","4","30.17","63","66","","","","","88","OVC:08 16","","","7.00","","090","","3","","","","","","","","","","","","","","","","","","","","","","","","","","","","","","","","","","","","","","","","","","","","","","","","","","","","","","","","","","","","","","","","","","","","","","","","","","","","","","","","","","","","","","","","","","","MET108MOBOB0 METAR 8268 //000 400744 211914Z AUTO 09003KT 9999 OVC016 19/17 A3017 RMK CDP03528 OVC016 CLD AVG 025;","","","","","","","","","",""
"00826899999","2012-03-21T23:59:00","32.95","65.5666666","1156.72","WXPOD8278, AF","FM-16","4","30.17","63","66","","","","","88","OVC:08 16","","","7.00","","120","","2","","","","","","","","","","","","","","","","","","","","","","","","","","","","","","","","","","","","","","","","","","","","","","","","","","","","","","","","","","","","","","","","","","","","","","","","","","","","","","","","","","","","","","","","","","","MET108MOBOB0 METAR 8268 //000 400744 211929Z AUTO 12002KT 9999 OVC016 19/17 A3017 RMK CDP03528 OVC016 CLD AVG 018;","","","","","","","","","",""
"00826899999","2012-03-22T00:14:00","32.95","65.5666666","1156.72","WXPOD8278, AF","FM-16","4","30.17","64","66","","","","","94","OVC:08 24","","","7.00","","150","","5","","","","","","","","","","","","","","","","","","","","","","","","","","","","","","","","","","","","","","","","","","","","","","","","","","","","","","","","","","","","","","","","","","","","","","","","","","","","","","","","","","","","","","","","","","","MET108MOBOB0 METAR 8268 //000 400744 211944Z AUTO 15004KT 9999 OVC024 19/18 A3017 RMK CDP03528 OVC024 CLD AVG 030;","","","","","","","","","",""
"00826899999","2012-03-22T00:30:00","32.95","65.5666666","1156.72","WXPOD8278, AF","FM-15","4","30.17","63","66","","","","","88","OVC:08 32","","","7.00","","140","","3","","","","","","","","","","","","","","","","","","","","","","","","","","","","","","","","","","","","","","","","","","","","","","","","","","","","","","","","","","","","","","","","","","","","","","","","","","","","","","","","","","","","","","","","","","","MET108MOBOB0 METAR 8268 //000 400744 211959Z AUTO 14003KT 9999 OVC032 19/17 A3017 RMK CDP03528 OVC032 CLD AVG 035;","","","","","","","","","",""
"00826899999","2012-03-22T00:44:00","32.95","65.5666666","1156.72","WXPOD8278, AF","FM-16","4","30.16","63","66","","","","","88","OVC:08 26","","","7.00","","100","","5","","","","","","","","","","","","","","","","","","","","","","","","","","","","","","","","","","","","","","","","","","","","","","","","","","","","","","","","","","","","","","","","","","","","","","","","","","","","","","","","","","","","","","","","","","","MET108MOBOB0 METAR 8268 //000 400744 212014Z AUTO 10004KT 9999 OVC026 19/17 A3016 RMK CDP03528 OVC026 CLD AVG 033;","","","","","","","","","",""
"00826899999","2012-03-22T00:59:00","32.95","65.5666666","1156.72","WXPOD8278, AF","FM-16","4","30.17","63","66","","","","","88","OVC:08 32","","","7.00","","120","","2","","","","","","","","","","","","","","","","","","","","","","","","","","","","","","","","","","","","","","","","","","","","","","","","","","","","","","","","","","","","","","","","","","","","","","","","","","","","","","","","","","","","","","","","","","","MET108MOBOB0 METAR 8268 //000 400744 212029Z AUTO 12002KT 9999 OVC033 19/17 A3017 RMK CDP03528 OVC033 CLD AVG 035;","","","","","","","","","",""
"00826899999","2012-03-22T01:14:00","32.95","65.5666666","1156.72","WXPOD8278, AF","FM-16","4","30.16","63","66","","","","","88","OVC:08 27","","","7.00","","110","","5","","","","","","","","","","","","","","","","","","","","","","","","","","","","","","","","","","","","","","","","","","","","","","","","","","","","","","","","","","","","","","","","","","","","","","","","","","","","","","","","","","","","","","","","","","","MET108MOBOB0 METAR 8268 //000 400744 212044Z AUTO 11004KT 9999 OVC027 19/17 A3016 RMK CDP03528 OVC027 CLD AVG 032;","","","","","","","","","",""
"00826899999","2012-03-22T01:30:00","32.95","65.5666666","1156.72","WXPOD8278, AF","FM-15","4","30.16","63","66","","","","","88","BKN:07 28","","","7.00","","130","","3","","","","","","","","","","","","","","","","","","","","","","","","","","","","","","","","","","","","","","","","","","","","","","","","","","","","","","","","","","","","","","","","","","","","","","","","","","","","","","","","","","","","","","","","","","","MET108MOBOB0 METAR 8268 //000 400744 212059Z AUTO 13003KT 9999 BKN028 19/17 A3016 RMK CDP03528 BKN028 CLD AVG 035;","","","","","","","","","",""
"00826899999","2012-03-22T01:44:00","32.95","65.5666666","1156.72","WXPOD8278, AF","FM-16","4","30.15","63","66","","","","","88","SCT:04 25","","","7.00","","110","","6","","","","","","","","","","","","","","","","","","","","","","","","","","","","","","","","","","","","","","","","","","","","","","","","","","","","","","","","","","","","","","","","","","","","","","","","","","","","","","","","","","","","","","","","","","","MET108MOBOB0 METAR 8268 //000 400744 212114Z AUTO 11005KT 9999 SCT025 19/17 A3015 RMK CDP03528 SCT025 CLD AVG 031;","","","","","","","","","",""
"00826899999","2012-03-22T01:59:00","32.95","65.5666666","1156.72","WXPOD8278, AF","FM-16","4","30.16","63","66","","","","","88","FEW:02 52","","","7.00","","150","","5","","","","","","","","","","","","","","","","","","","","","","","","","","","","","","","","","","","","","","","","","","","","","","","","","","","","","","","","","","","","","","","","","","","","","","","","","","","","","","","","","","","","","","","","","","","MET108MOBOB0 METAR 8268 //000 400744 212129Z AUTO 15004KT 9999 FEW053 19/17 A3016 RMK CDP03528 FEW053 CLD AVG 054;","","","","","","","","","",""
"00826899999","2012-03-22T02:14:00","32.95","65.5666666","1156.72","WXPOD8278, AF","FM-16","4","30.16","61","64","","","","","88","SCT:04 41","","","7.00","","110","","3","","","","","","","","","","","","","","","","","","","","","","","","","","","","","","","","","","","","","","","","","","","","","","","","","","","","","","","","","","","","","","","","","","","","","","","","","","","","","","","","","","","","","","","","","","","MET108MOBOB0 METAR 8268 //000 400744 212144Z AUTO 11003KT 9999 SCT042 18/16 A3016 RMK CDP03528 SCT042 CLD AVG 057;","","","","","","","","","",""
"00826899999","2012-03-22T02:30:00","32.95","65.5666666","1156.72","WXPOD8278, AF","FM-15","4","30.16","63","64","","","","","94","SCT:04 30","","","7.00","","140","","2","","","","","","","","","","","","","","","","","","","","","","","","","","","","","","","","","","","","","","","","","","","","","","","","","","","","","","","","","","","","","","","","","","","","","","","","","","","","","","","","","","","","","","","","","","","MET108MOBOB0 METAR 8268 //000 400744 212159Z AUTO 14002KT 9999 SCT030 18/17 A3016 RMK CDP03528 SCT030 CLD AVG 045;","","","","","","","","","",""
"00826899999","2012-03-22T02:44:00","32.95","65.5666666","1156.72","WXPOD8278, AF","FM-16","4","30.16","61","64","","","","","88","FEW:02 36","","","7.00","","110","","2","","","","","","","","","","","","","","","","","","","","","","","","","","","","","","","","","","","","","","","","","","","","","","","","","","","","","","","","","","","","","","","","","","","","","","","","","","","","","","","","","","","","","","","","","","","MET108MOBOB0 METAR 8268 //000 400744 212214Z AUTO 11002KT 9999 FEW037 18/16 A3016 RMK CDP03528 FEW037 CLD AVG 038;","","","","","","","","","",""
"00826899999","2012-03-22T02:59:00","32.95","65.5666666","1156.72","WXPOD8278, AF","FM-16","4","30.16","61","64","","","","","88","BKN:07 32","","","7.00","","090","","3","","","","","","","","","","","","","","","","","","","","","","","","","","","","","","","","","","","","","","","","","","","","","","","","","","","","","","","","","","","","","","","","","","","","","","","","","","","","","","","","","","","","","","","","","","","MET108MOBOB0 METAR 8268 //000 400744 212229Z AUTO 09003KT 9999 BKN033 18/16 A3016 RMK CDP03528 BKN033 CLD AVG 040;","","","","","","","","","",""
"00826899999","2012-03-22T03:14:00","32.95","65.5666666","1156.72","WXPOD8278, AF","FM-16","4","30.17","61","63","","","","","94","BKN:07 37","","","7.00","","130","","2","","","","","","","","","","","","","","","","","","","","","","","","","","","","","","","","","","","","","","","","","","","","","","","","","","","","","","","","","","","","","","","","","","","","","","","","","","","","","","","","","","","","","","","","","","","MET108MOBOB0 METAR 8268 //000 400744 212244Z AUTO 13002KT 9999 BKN038 17/16 A3017 RMK CDP03528 BKN038 CLD AVG 046;","","","","","","","","","",""
"00826899999","2012-03-22T03:30:00","32.95","65.5666666","1156.72","WXPOD8278, AF","FM-15","4","30.17","61","63","","","","","94","BKN:07 38","","","7.00","","120","","1","","","","","","","","","","","","","","","","","","","","","","","","","","","","","","","","","","","","","","","","","","","","","","","","","","","","","","","","","","","","","","","","","","","","","","","","","","","","","","","","","","","","","","","","","","","MET108MOBOB0 METAR 8268 //000 400744 212259Z AUTO 12001KT 9999 BKN039 17/16 A3017 RMK CDP03528 BKN039 CLD AVG 045;","","","","","","","","","",""
"00826899999","2012-03-22T03:44:00","32.95","65.5666666","1156.72","WXPOD8278, AF","FM-16","4","30.17","61","61","","","","","100","BKN:07 37","","","7.00","","140","","3","","","","","","","","","","","","","","","","","","","","","","","","","","","","","","","","","","","","","","","","","","","","","","","","","","","","","","","","","","","","","","","","","","","","","","","","","","","","","","","","","","","","","","","","","","","MET108MOBOB0 METAR 8268 //000 400744 212314Z AUTO 14003KT 9999 BKN038 16/16 A3017 RMK CDP03528 BKN038 CLD AVG 041;","","","","","","","","","",""
"00826899999","2012-03-22T03:59:00","32.95","65.5666666","1156.72","WXPOD8278, AF","FM-16","4","30.17","61","61","","","","","100","SCT:04 51","","","7.00","","110","","2","","","","","","","","","","","","","","","","","","","","","","","","","","","","","","","","","","","","","","","","","","","","","","","","","","","","","","","","","","","","","","","","","","","","","","","","","","","","","","","","","","","","","","","","","","","MET108MOBOB0 METAR 8268 //000 400744 212329Z AUTO 11002KT 9999 SCT052 16/16 A3017 RMK CDP03528 SCT052 CLD AVG 052;","","","","","","","","","",""
"00826899999","2012-03-22T04:14:00","32.95","65.5666666","1156.72","WXPOD8278, AF","FM-16","4","30.17","59","59","","","","","100","SCT:04 41","","","7.00","","130","","2","","","","","","","","","","","","","","","","","","","","","","","","","","","","","","","","","","","","","","","","","","","","","","","","","","","","","","","","","","","","","","","","","","","","","","","","","","","","","","","","","","","","","","","","","","","MET108MOBOB0 METAR 8268 //000 400744 212344Z AUTO 13002KT 9999 SCT042 15/15 A3017 RMK CDP03528 SCT042 CLD AVG 053;","","","","","","","","","",""
"00826899999","2012-03-22T04:30:00","32.95","65.5666666","1156.72","WXPOD8278, AF","FM-15","4","30.17","59","59","","","","","100","OVC:08 2","","","7.00","","140","","2","","","","","","","","","","","","","","","","","","","","","","","","","","","","","","","","","","","","","","","","","","","","","","","","","","","","","","","","","","","","","","","","","","","","","","","","","","","","","","","","","","","","","","","","","","","MET108MOBOB0 METAR 8268 //000 400744 212359Z AUTO 14002KT 9999 OVC002 15/15 A3017 RMK CDP03528 OVC002 CLD AVG 003;","","","","","","","","","",""
"00826899999","2012-03-22T04:44:00","32.95","65.5666666","1156.72","WXPOD8278, AF","FM-16","4","30.17","59","59","","","","","100","OVC:08 2","","","7.00","","130","","2","","","","","","","","","","","","","","","","","","","","","","","","","","","","","","","","","","","","","","","","","","","","","","","","","","","","","","","","","","","","","","","","","","","","","","","","","","","","","","","","","","","","","","","","","","","MET108MOBOB0 METAR 8268 //000 400744 220014Z AUTO 13002KT 9999 OVC002 15/15 A3017 RMK CDP03528 OVC002 CLD AVG 002;","","","","","","","","","",""
"00826899999","2012-03-22T04:59:00","32.95","65.5666666","1156.72","WXPOD8278, AF","FM-16","4","30.17","57","57","","","","","100","OVC:08 1","","","4.97","","140","","3","","","","","","","","","","","","","","","","","","","","","","","","","","","","","","","","","","","","","","","","","","","","","","","","","","","","","","","","","","","","","","","","","","","","","","","","","","","","","","","","","","","","","","","","","","","MET111MOBOB0 METAR 8268 //000 400744 220029Z AUTO 14003KT 8000 HZ OVC001 14/14 A3017 RMK CDP03528 OVC001 CLD AVG 001;","","","","","","","","","",""
"00826899999","2012-03-22T05:14:00","32.95","65.5666666","1156.72","WXPOD8278, AF","FM-16","4","30.17","57","57","","","","","100","OVC:08 1","","","3.73","","140","","2","","","","","","","","","","","","","","","","","","","","","","","","","","","","","","","","","","","","","","","","","","","","","","","","","","","","","","","","","","","","","","","","","","","","","","","","","","","","","","","","","","","","","","","","","","","MET111MOBOB0 METAR 8268 //000 400744 220044Z AUTO 14002KT 6000 HZ OVC001 14/14 A3017 RMK CDP03528 OVC001 CLD AVG 001;","","","","","","","","","",""
"00826899999","2012-03-22T05:30:00","32.95","65.5666666","1156.72","WXPOD8278, AF","FM-15","4","30.17","57","57","","","","","100","OVC:08 1","","","2.49","","140","","2","","","","","","","","","","","","","","","","","","","","","","","","","","","","","","","","","","","","","","","","","","","","","","","","","","","","","","","","","","","","","","","","","","","","","","","","","","","","","","","","","","","","","","","","","","","MET111MOBOB0 METAR 8268 //000 400744 220059Z AUTO 14002KT 4000 HZ OVC001 14/14 A3017 RMK CDP03528 OVC001 CLD AVG 001;","","","","","","","","","",""
"00826899999","2012-03-22T05:44:00","32.95","65.5666666","1156.72","WXPOD8278, AF","FM-16","4","30.18","57","57","","","","","100","OVC:08 0","","","1.24","","140","","1","","","","","","","","","","","","","","","","","","","","","","","","","","","","","","","","","","","","","","","","","","","","","","","","","","","","","","","","","","","","","","","","","","","","","","","","","","","","","","","","","","","","","","","","","","","MET111MOBOB0 METAR 8268 //000 400744 220114Z AUTO 14001KT 2000 FG OVC000 14/14 A3018 RMK CDP03528 OVC000 CLD AVG 001;","","","","","","","","","",""
"00826899999","2012-03-22T05:59:00","32.95","65.5666666","1156.72","WXPOD8278, AF","FM-16","4","30.18","57","57","","","","","100","OVC:08 0","","","0.75","","140","","2","","","","","","","","","","","","","","","","","","","","","","","","","","","","","","","","","","","","","","","","","","","","","","","","","","","","","","","","","","","","","","","","","","","","","","","","","","","","","","","","","","","","","","","","","","","MET111MOBOB0 METAR 8268 //000 400744 220129Z AUTO 14002KT 1200 FG OVC000 14/14 A3018 RMK CDP03528 OVC000 CLD AVG 000;","","","","","","","","","",""
"00826899999","2012-03-22T06:14:00","32.95","65.5666666","1156.72","WXPOD8278, AF","FM-16","4","30.18","57","57","","","","","100","OVC:08 0","","","0.99","","130","","2","","","","","","","","","","","","","","","","","","","","","","","","","","","","","","","","","","","","","","","","","","","","","","","","","","","","","","","","","","","","","","","","","","","","","","","","","","","","","","","","","","","","","","","","","","","MET111MOBOB0 METAR 8268 //000 400744 220144Z AUTO 13002KT 1600 FG OVC000 14/14 A3018 RMK CDP03528 OVC000 CLD AVG 000;","","","","","","","","","",""
"00826899999","2012-03-22T06:30:00","32.95","65.5666666","1156.72","WXPOD8278, AF","FM-15","4","30.18","57","57","","","","","100","BKN:07 0","","","0.87","","150","","2","","","","","","","","","","","","","","","","","","","","","","","","","","","","","","","","","","","","","","","","","","","","","","","","","","","","","","","","","","","","","","","","","","","","","","","","","","","","","","","","","","","","","","","","","","","MET111MOBOB0 METAR 8268 //000 400744 220159Z AUTO 15002KT 1400 FG BKN000 14/14 A3018 RMK CDP03528 BKN000 CLD AVG 000;","","","","","","","","","",""
"00826899999","2012-03-22T06:44:00","32.95","65.5666666","1156.72","WXPOD8278, AF","FM-16","4","30.18","57","57","","","","","100","SCT:04 0","","","0.87","","120","","1","","","","","","","","","","","","","","","","","","","","","","","","","","","","","","","","","","","","","","","","","","","","","","","","","","","","","","","","","","","","","","","","","","","","","","","","","","","","","","","","","","","","","","","","","","","MET111MOBOB0 METAR 8268 //000 400744 220214Z AUTO 12001KT 1400 FG SCT000 14/14 A3018 RMK CDP03528 SCT000 CLD AVG 000;","","","","","","","","","",""
"00826899999","2012-03-22T06:59:00","32.95","65.5666666","1156.72","WXPOD8278, AF","FM-16","4","30.18","57","57","","","","","100","","","","2.98","","150","","2","","","","","","","","","","","","","","","","","","","","","","","","","","","","","","","","","","","","","","","","","","","","","","","","","","","","","","","","","","","","","","","","","","","","","","","","","","","","","","","","","","","","","","","","","","","MET093MOBOB0 METAR 8268 //000 400744 220229Z AUTO 15002KT 4800 HZ CLR 14/14 A3018 RMK CDP03528 CLR;","","","","","","","","","",""
"00826899999","2012-03-22T07:14:00","32.95","65.5666666","1156.72","WXPOD8278, AF","FM-16","4","30.19","57","57","","","","","100","","","","7.00","","150","","1","","","","","","","","","","","","","","","","","","","","","","","","","","","","","","","","","","","","","","","","","","","","","","","","","","","","","","","","","","","","","","","","","","","","","","","","","","","","","","","","","","","","","","","","","","","MET090MOBOB0 METAR 8268 //000 400744 220244Z AUTO 15001KT 9999 CLR 14/14 A3019 RMK CDP03528 CLR;","","","","","","","","","",""
"00826899999","2012-03-22T07:30:00","32.95","65.5666666","1156.72","WXPOD8278, AF","FM-15","4","30.18","57","57","","","","","100","","","","1.62","","170","","1","","","","","","","","","","","","","","","","","","","","","","","","","","","","","","","","","","","","","","","","","","","","","","","","","","","","","","","","","","","","","","","","","","","","","","","","","","","","","","","","","","","","","","","","","","","MET093MOBOB0 METAR 8268 //000 400744 220259Z AUTO 17001KT 2600 FG CLR 14/14 A3018 RMK CDP03528 CLR;","","","","","","","","","",""
"00826899999","2012-03-22T07:44:00","32.95","65.5666666","1156.72","WXPOD8278, AF","FM-16","4","30.18","57","57","","","","","100","","","","2.24","","170","","1","","","","","","","","","","","","","","","","","","","","","","","","","","","","","","","","","","","","","","","","","","","","","","","","","","","","","","","","","","","","","","","","","","","","","","","","","","","","","","","","","","","","","","","","","","","MET093MOBOB0 METAR 8268 //000 400744 220314Z AUTO 17001KT 3600 HZ CLR 14/14 A3018 RMK CDP03528 CLR;","","","","","","","","","",""
"00826899999","2012-03-22T07:59:00","32.95","65.5666666","1156.72","WXPOD8278, AF","FM-16","4","30.18","57","57","","","","","100","","","","2.98","","200","","2","","","","","","","","","","","","","","","","","","","","","","","","","","","","","","","","","","","","","","","","","","","","","","","","","","","","","","","","","","","","","","","","","","","","","","","","","","","","","","","","","","","","","","","","","","","MET093MOBOB0 METAR 8268 //000 400744 220329Z AUTO 20002KT 4800 HZ CLR 14/14 A3018 RMK CDP03528 CLR;","","","","","","","","","",""
"00826899999","2012-03-22T08:14:00","32.95","65.5666666","1156.72","WXPOD8278, AF","FM-16","4","30.18","57","57","","","","","100","","","","2.49","","230","","1","","","","","","","","","","","","","","","","","","","","","","","","","","","","","","","","","","","","","","","","","","","","","","","","","","","","","","","","","","","","","","","","","","","","","","","","","","","","","","","","","","","","","","","","","","","MET093MOBOB0 METAR 8268 //000 400744 220344Z AUTO 23001KT 4000 HZ CLR 14/14 A3018 RMK CDP03528 CLR;","","","","","","","","","",""
"00826899999","2012-03-22T08:30:00","32.95","65.5666666","1156.72","WXPOD8278, AF","FM-15","4","30.18","57","57","","","","","100","","","","7.00","","190","","1","","","","","","","","","","","","","","","","","","","","","","","","","","","","","","","","","","","","","","","","","","","","","","","","","","","","","","","","","","","","","","","","","","","","","","","","","","","","","","","","","","","","","","","","","","","MET090MOBOB0 METAR 8268 //000 400744 220359Z AUTO 19001KT 9999 CLR 14/14 A3018 RMK CDP03528 CLR;","","","","","","","","","",""
"00826899999","2012-03-22T08:44:00","32.95","65.5666666","1156.72","WXPOD8278, AF","FM-16","4","30.17","57","57","","","","","100","","","","7.00","","200","","2","","","","","","","","","","","","","","","","","","","","","","","","","","","","","","","","","","","","","","","","","","","","","","","","","","","","","","","","","","","","","","","","","","","","","","","","","","","","","","","","","","","","","","","","","","","MET090MOBOB0 METAR 8268 //000 400744 220414Z AUTO 20002KT 9999 CLR 14/14 A3017 RMK CDP03528 CLR;","","","","","","","","","",""
"00826899999","2012-03-22T08:59:00","32.95","65.5666666","1156.72","WXPOD8278, AF","FM-16","4","30.17","57","57","","","","","100","","","","4.97","","140","","1","","","","","","","","","","","","","","","","","","","","","","","","","","","","","","","","","","","","","","","","","","","","","","","","","","","","","","","","","","","","","","","","","","","","","","","","","","","","","","","","","","","","","","","","","","","MET093MOBOB0 METAR 8268 //000 400744 220429Z AUTO 14001KT 8000 HZ CLR 14/14 A3017 RMK CDP03528 CLR;","","","","","","","","","",""
"00826899999","2012-03-22T09:14:00","32.95","65.5666666","1156.72","WXPOD8278, AF","FM-16","4","30.17","57","57","","","","","100","","","","7.00","","160","","2","","","","","","","","","","","","","","","","","","","","","","","","","","","","","","","","","","","","","","","","","","","","","","","","","","","","","","","","","","","","","","","","","","","","","","","","","","","","","","","","","","","","","","","","","","","MET090MOBOB0 METAR 8268 //000 400744 220444Z AUTO 16002KT 9999 CLR 14/14 A3017 RMK CDP03528 CLR;","","","","","","","","","",""
"00826899999","2012-03-22T09:30:00","32.95","65.5666666","1156.72","WXPOD8278, AF","FM-15","4","30.16","57","57","","","","","100","","","","7.00","","180","","1","","","","","","","","","","","","","","","","","","","","","","","","","","","","","","","","","","","","","","","","","","","","","","","","","","","","","","","","","","","","","","","","","","","","","","","","","","","","","","","","","","","","","","","","","","","MET090MOBOB0 METAR 8268 //000 400744 220459Z AUTO 18001KT 9999 CLR 14/14 A3016 RMK CDP03528 CLR;","","","","","","","","","",""
"00826899999","2012-03-22T09:44:00","32.95","65.5666666","1156.72","WXPOD8278, AF","FM-16","4","30.16","57","57","","","","","100","","","","1.74","","210","","1","","","","","","","","","","","","","","","","","","","","","","","","","","","","","","","","","","","","","","","","","","","","","","","","","","","","","","","","","","","","","","","","","","","","","","","","","","","","","","","","","","","","","","","","","","","MET093MOBOB0 METAR 8268 //000 400744 220514Z AUTO 21001KT 2800 FG CLR 14/14 A3016 RMK CDP03528 CLR;","","","","","","","","","",""
"00826899999","2012-03-22T09:59:00","32.95","65.5666666","1156.72","WXPOD8278, AF","FM-16","4","30.16","57","57","","","","","100","","","","7.00","","230","","2","","","","","","","","","","","","","","","","","","","","","","","","","","","","","","","","","","","","","","","","","","","","","","","","","","","","","","","","","","","","","","","","","","","","","","","","","","","","","","","","","","","","","","","","","","","MET090MOBOB0 METAR 8268 //000 400744 220529Z AUTO 23002KT 9999 CLR 14/14 A3016 RMK CDP03528 CLR;","","","","","","","","","",""
"00826899999","2012-03-22T10:14:00","32.95","65.5666666","1156.72","WXPOD8278, AF","FM-16","4","30.16","57","57","","","","","100","","","","7.00","","250","","1","","","","","","","","","","","","","","","","","","","","","","","","","","","","","","","","","","","","","","","","","","","","","","","","","","","","","","","","","","","","","","","","","","","","","","","","","","","","","","","","","","","","","","","","","","","MET090MOBOB0 METAR 8268 //000 400744 220544Z AUTO 25001KT 9999 CLR 14/14 A3016 RMK CDP03528 CLR;","","","","","","","","","",""
"00826899999","2012-03-22T10:30:00","32.95","65.5666666","1156.72","WXPOD8278, AF","FM-15","4","30.16","57","57","","","","","100","","","","4.97","","260","","2","","","","","","","","","","","","","","","","","","","","","","","","","","","","","","","","","","","","","","","","","","","","","","","","","","","","","","","","","","","","","","","","","","","","","","","","","","","","","","","","","","","","","","","","","","","MET093MOBOB0 METAR 8268 //000 400744 220559Z AUTO 26002KT 8000 HZ CLR 14/14 A3016 RMK CDP03528 CLR;","","","","","","","","","",""
"00826899999","2012-03-22T10:44:00","32.95","65.5666666","1156.72","WXPOD8278, AF","FM-16","4","30.15","57","57","","","","","100","","","","2.73","","260","","2","","","","","","","","","","","","","","","","","","","","","","","","","","","","","","","","","","","","","","","","","","","","","","","","","","","","","","","","","","","","","","","","","","","","","","","","","","","","","","","","","","","","","","","","","","","MET093MOBOB0 METAR 8268 //000 400744 220614Z AUTO 26002KT 4400 HZ CLR 14/14 A3015 RMK CDP03528 CLR;","","","","","","","","","",""
"00826899999","2012-03-22T10:59:00","32.95","65.5666666","1156.72","WXPOD8278, AF","FM-16","4","30.15","57","57","","","","","100","","","","1.86","","200","","1","","","","","","","","","","","","","","","","","","","","","","","","","","","","","","","","","","","","","","","","","","","","","","","","","","","","","","","","","","","","","","","","","","","","","","","","","","","","","","","","","","","","","","","","","","","MET093MOBOB0 METAR 8268 //000 400744 220629Z AUTO 20001KT 3000 FG CLR 14/14 A3015 RMK CDP03528 CLR;","","","","","","","","","",""
"00826899999","2012-03-22T11:14:00","32.95","65.5666666","1156.72","WXPOD8278, AF","FM-16","4","30.14","57","57","","","","","100","","","","1.62","","090","","1","","","","","","","","","","","","","","","","","","","","","","","","","","","","","","","","","","","","","","","","","","","","","","","","","","","","","","","","","","","","","","","","","","","","","","","","","","","","","","","","","","","","","","","","","","","MET093MOBOB0 METAR 8268 //000 400744 220644Z AUTO 09001KT 2600 FG CLR 14/14 A3014 RMK CDP03528 CLR;","","","","","","","","","",""
"00826899999","2012-03-22T11:30:00","32.95","65.5666666","1156.72","WXPOD8278, AF","FM-15","4","30.14","57","57","","","","","100","","","","1.99","","000","","0","","","","","","","","","","","","","","","","","","","","","","","","","","","","","","","","","","","","","","","","","","","","","","","","","","","","","","","","","","","","","","","","","","","","","","","","","","","","","","","","","","","","","","","","","","","MET093MOBOB0 METAR 8268 //000 400744 220659Z AUTO 00000KT 3200 FG CLR 14/14 A3014 RMK CDP03528 CLR;","","","","","","","","","",""
"00826899999","2012-03-22T11:44:00","32.95","65.5666666","1156.72","WXPOD8278, AF","FM-16","4","30.14","57","57","","","","","100","","","","1.74","","160","","1","","","","","","","","","","","","","","","","","","","","","","","","","","","","","","","","","","","","","","","","","","","","","","","","","","","","","","","","","","","","","","","","","","","","","","","","","","","","","","","","","","","","","","","","","","","MET093MOBOB0 METAR 8268 //000 400744 220714Z AUTO 16001KT 2800 FG CLR 14/14 A3014 RMK CDP03528 CLR;","","","","","","","","","",""
"00826899999","2012-03-22T11:59:00","32.95","65.5666666","1156.72","WXPOD8278, AF","FM-16","4","30.13","57","57","","","","","100","","","","2.73","","000","","0","","","","","","","","","","","","","","","","","","","","","","","","","","","","","","","","","","","","","","","","","","","","","","","","","","","","","","","","","","","","","","","","","","","","","","","","","","","","","","","","","","","","","","","","","","","MET093MOBOB0 METAR 8268 //000 400744 220729Z AUTO 00000KT 4400 HZ CLR 14/14 A3013 RMK CDP03528 CLR;","","","","","","","","","",""
"00826899999","2012-03-22T12:14:00","32.95","65.5666666","1156.72","WXPOD8278, AF","FM-16","4","30.12","57","57","","","","","100","","","","7.00","","260","","1","","","","","","","","","","","","","","","","","","","","","","","","","","","","","","","","","","","","","","","","","","","","","","","","","","","","","","","","","","","","","","","","","","","","","","","","","","","","","","","","","","","","","","","","","","","MET090MOBOB0 METAR 8268 //000 400744 220744Z AUTO 26001KT 9999 CLR 14/14 A3012 RMK CDP03528 CLR;","","","","","","","","","",""
"00826899999","2012-03-22T12:30:00","32.95","65.5666666","1156.72","WXPOD8278, AF","FM-15","4","30.12","57","57","","","","","100","","","","7.00","","180","","1","","","","","","","","","","","","","","","","","","","","","","","","","","","","","","","","","","","","","","","","","","","","","","","","","","","","","","","","","","","","","","","","","","","","","","","","","","","","","","","","","","","","","","","","","","","MET090MOBOB0 METAR 8268 //000 400744 220759Z AUTO 18001KT 9999 CLR 14/14 A3012 RMK CDP03528 CLR;","","","","","","","","","",""
"00826899999","2012-03-22T12:44:00","32.95","65.5666666","1156.72","WXPOD8278, AF","FM-16","4","30.12","57","57","","","","","100","","","","7.00","","200","","1","","","","","","","","","","","","","","","","","","","","","","","","","","","","","","","","","","","","","","","","","","","","","","","","","","","","","","","","","","","","","","","","","","","","","","","","","","","","","","","","","","","","","","","","","","","MET090MOBOB0 METAR 8268 //000 400744 220814Z AUTO 20001KT 9999 CLR 14/14 A3012 RMK CDP03528 CLR;","","","","","","","","","",""
"00826899999","2012-03-22T12:59:00","32.95","65.5666666","1156.72","WXPOD8278, AF","FM-16","4","30.12","57","57","","","","","100","","","","4.97","","260","","1","","","","","","","","","","","","","","","","","","","","","","","","","","","","","","","","","","","","","","","","","","","","","","","","","","","","","","","","","","","","","","","","","","","","","","","","","","","","","","","","","","","","","","","","","","","MET093MOBOB0 METAR 8268 //000 400744 220829Z AUTO 26001KT 8000 HZ CLR 14/14 A3012 RMK CDP03528 CLR;","","","","","","","","","",""
"00826899999","2012-03-22T13:14:00","32.95","65.5666666","1156.72","WXPOD8278, AF","FM-16","4","30.12","57","57","","","","","100","","","","7.00","","170","","1","","","","","","","","","","","","","","","","","","","","","","","","","","","","","","","","","","","","","","","","","","","","","","","","","","","","","","","","","","","","","","","","","","","","","","","","","","","","","","","","","","","","","","","","","","","MET090MOBOB0 METAR 8268 //000 400744 220844Z AUTO 17001KT 9999 CLR 14/14 A3012 RMK CDP03528 CLR;","","","","","","","","","",""
"00826899999","2012-03-22T13:30:00","32.95","65.5666666","1156.72","WXPOD8278, AF","FM-15","4","30.12","57","57","","","","","100","","","","7.00","","200","","1","","","","","","","","","","","","","","","","","","","","","","","","","","","","","","","","","","","","","","","","","","","","","","","","","","","","","","","","","","","","","","","","","","","","","","","","","","","","","","","","","","","","","","","","","","","MET090MOBOB0 METAR 8268 //000 400744 220859Z AUTO 20001KT 9999 CLR 14/14 A3012 RMK CDP03528 CLR;","","","","","","","","","",""
"00826899999","2012-03-22T13:44:00","32.95","65.5666666","1156.72","WXPOD8278, AF","FM-16","4","30.12","57","57","","","","","100","","","","7.00","","200","","1","","","","","","","","","","","","","","","","","","","","","","","","","","","","","","","","","","","","","","","","","","","","","","","","","","","","","","","","","","","","","","","","","","","","","","","","","","","","","","","","","","","","","","","","","","","MET090MOBOB0 METAR 8268 //000 400744 220914Z AUTO 20001KT 9999 CLR 14/14 A3012 RMK CDP03528 CLR;","","","","","","","","","",""
"00826899999","2012-03-22T13:59:00","32.95","65.5666666","1156.72","WXPOD8278, AF","FM-16","4","30.13","55","55","","","","","100","","","","7.00","","230","","2","","","","","","","","","","","","","","","","","","","","","","","","","","","","","","","","","","","","","","","","","","","","","","","","","","","","","","","","","","","","","","","","","","","","","","","","","","","","","","","","","","","","","","","","","","","MET090MOBOB0 METAR 8268 //000 400744 220929Z AUTO 23002KT 9999 CLR 13/13 A3013 RMK CDP03528 CLR;","","","","","","","","","",""
"00826899999","2012-03-22T14:14:00","32.95","65.5666666","1156.72","WXPOD8278, AF","FM-16","4","30.13","55","55","","","","","100","","","","7.00","","170","","2","","","","","","","","","","","","","","","","","","","","","","","","","","","","","","","","","","","","","","","","","","","","","","","","","","","","","","","","","","","","","","","","","","","","","","","","","","","","","","","","","","","","","","","","","","","MET090MOBOB0 METAR 8268 //000 400744 220944Z AUTO 17002KT 9999 CLR 13/13 A3013 RMK CDP03528 CLR;","","","","","","","","","",""
"00826899999","2012-03-22T14:30:00","32.95","65.5666666","1156.72","WXPOD8278, AF","FM-15","4","30.14","55","55","","","","","100","","","","7.00","","220","","2","","","","","","","","","","","","","","","","","","","","","","","","","","","","","","","","","","","","","","","","","","","","","","","","","","","","","","","","","","","","","","","","","","","","","","","","","","","","","","","","","","","","","","","","","","","MET090MOBOB0 METAR 8268 //000 400744 220959Z AUTO 22002KT 9999 CLR 13/13 A3014 RMK CDP03528 CLR;","","","","","","","","","",""
"00826899999","2012-03-22T14:44:00","32.95","65.5666666","1156.72","WXPOD8278, AF","FM-16","4","30.13","55","55","","","","","100","","","","1.49","","200","","1","","","","","","","","","","","","","","","","","","","","","","","","","","","","","","","","","","","","","","","","","","","","","","","","","","","","","","","","","","","","","","","","","","","","","","","","","","","","","","","","","","","","","","","","","","","MET093MOBOB0 METAR 8268 //000 400744 221014Z AUTO 20001KT 2400 FG CLR 13/13 A3013 RMK CDP03528 CLR;","","","","","","","","","",""
"00826899999","2012-03-22T14:59:00","32.95","65.5666666","1156.72","WXPOD8278, AF","FM-16","4","30.14","55","55","","","","","100","","","","3.73","","270","","1","","","","","","","","","","","","","","","","","","","","","","","","","","","","","","","","","","","","","","","","","","","","","","","","","","","","","","","","","","","","","","","","","","","","","","","","","","","","","","","","","","","","","","","","","","","MET093MOBOB0 METAR 8268 //000 400744 221029Z AUTO 27001KT 6000 HZ CLR 13/13 A3014 RMK CDP03528 CLR;","","","","","","","","","",""
"00826899999","2012-03-22T15:14:00","32.95","65.5666666","1156.72","WXPOD8278, AF","FM-16","4","30.14","55","55","","","","","100","","","","5.59","","220","","1","","","","","","","","","","","","","","","","","","","","","","","","","","","","","","","","","","","","","","","","","","","","","","","","","","","","","","","","","","","","","","","","","","","","","","","","","","","","","","","","","","","","","","","","","","","MET090MOBOB0 METAR 8268 //000 400744 221044Z AUTO 22001KT 9000 CLR 13/13 A3014 RMK CDP03528 CLR;","","","","","","","","","",""
"00826899999","2012-03-22T15:30:00","32.95","65.5666666","1156.72","WXPOD8278, AF","FM-15","4","30.14","55","55","","","","","100","","","","3.73","","150","","1","","","","","","","","","","","","","","","","","","","","","","","","","","","","","","","","","","","","","","","","","","","","","","","","","","","","","","","","","","","","","","","","","","","","","","","","","","","","","","","","","","","","","","","","","","","MET093MOBOB0 METAR 8268 //000 400744 221059Z AUTO 15001KT 6000 HZ CLR 13/13 A3014 RMK CDP03528 CLR;","","","","","","","","","",""
"00826899999","2012-03-22T15:44:00","32.95","65.5666666","1156.72","WXPOD8278, AF","FM-16","4","30.14","55","55","","","","","100","","","","7.00","","260","","1","","","","","","","","","","","","","","","","","","","","","","","","","","","","","","","","","","","","","","","","","","","","","","","","","","","","","","","","","","","","","","","","","","","","","","","","","","","","","","","","","","","","","","","","","","","MET090MOBOB0 METAR 8268 //000 400744 221114Z AUTO 26001KT 9999 CLR 13/13 A3014 RMK CDP03528 CLR;","","","","","","","","","",""
"00826899999","2012-03-22T15:59:00","32.95","65.5666666","1156.72","WXPOD8278, AF","FM-16","4","30.15","57","57","","","","","100","","","","7.00","","250","","1","","","","","","","","","","","","","","","","","","","","","","","","","","","","","","","","","","","","","","","","","","","","","","","","","","","","","","","","","","","","","","","","","","","","","","","","","","","","","","","","","","","","","","","","","","","MET090MOBOB0 METAR 8268 //000 400744 221129Z AUTO 25001KT 9999 CLR 14/14 A3015 RMK CDP03528 CLR;","","","","","","","","","",""
"00826899999","2012-03-22T16:14:00","32.95","65.5666666","1156.72","WXPOD8278, AF","FM-16","4","30.15","55","55","","","","","100","","","","7.00","","310","","2","","","","","","","","","","","","","","","","","","","","","","","","","","","","","","","","","","","","","","","","","","","","","","","","","","","","","","","","","","","","","","","","","","","","","","","","","","","","","","","","","","","","","","","","","","","MET090MOBOB0 METAR 8268 //000 400744 221144Z AUTO 31002KT 9999 CLR 13/13 A3015 RMK CDP03528 CLR;","","","","","","","","","",""
"00826899999","2012-03-22T16:30:00","32.95","65.5666666","1156.72","WXPOD8278, AF","FM-15","4","30.14","55","55","","","","","100","","","","1.49","","330","","1","","","","","","","","","","","","","","","","","","","","","","","","","","","","","","","","","","","","","","","","","","","","","","","","","","","","","","","","","","","","","","","","","","","","","","","","","","","","","","","","","","","","","","","","","","","MET093MOBOB0 METAR 8268 //000 400744 221159Z AUTO 33001KT 2400 FG CLR 13/13 A3014 RMK CDP03528 CLR;","","","","","","","","","",""
"00826899999","2012-03-22T16:44:00","32.95","65.5666666","1156.72","WXPOD8278, AF","FM-16","4","30.15","57","57","","","","","100","","","","1.12","","240","","2","","","","","","","","","","","","","","","","","","","","","","","","","","","","","","","","","","","","","","","","","","","","","","","","","","","","","","","","","","","","","","","","","","","","","","","","","","","","","","","","","","","","","","","","","","","MET093MOBOB0 METAR 8268 //000 400744 221214Z AUTO 24002KT 1800 FG CLR 14/14 A3015 RMK CDP03528 CLR;","","","","","","","","","",""
"00826899999","2012-03-22T16:59:00","32.95","65.5666666","1156.72","WXPOD8278, AF","FM-16","4","30.15","57","57","","","","","100","","","","7.00","","270","","3","","","","","","","","","","","","","","","","","","","","","","","","","","","","","","","","","","","","","","","","","","","","","","","","","","","","","","","","","","","","","","","","","","","","","","","","","","","","","","","","","","","","","","","","","","","MET090MOBOB0 METAR 8268 //000 400744 221229Z AUTO 27003KT 9999 CLR 14/14 A3015 RMK CDP03528 CLR;","","","","","","","","","",""
"00826899999","2012-03-22T17:14:00","32.95","65.5666666","1156.72","WXPOD8278, AF","FM-16","4","30.14","57","57","","","","","100","","","","3.73","","270","","2","","","","","","","","","","","","","","","","","","","","","","","","","","","","","","","","","","","","","","","","","","","","","","","","","","","","","","","","","","","","","","","","","","","","","","","","","","","","","","","","","","","","","","","","","","","MET093MOBOB0 METAR 8268 //000 400744 221244Z AUTO 27002KT 6000 HZ CLR 14/14 A3014 RMK CDP03528 CLR;","","","","","","","","","",""
"00826899999","2012-03-22T17:30:00","32.95","65.5666666","1156.72","WXPOD8278, AF","FM-15","4","30.14","57","57","","","","","100","FEW:02 1","","","7.00","","000","","0","","","","","","","","","","","","","","","","","","","","","","","","","","","","","","","","","","","","","","","","","","","","","","","","","","","","","","","","","","","","","","","","","","","","","","","","","","","","","","","","","","","","","","","","","","","MET108MOBOB0 METAR 8268 //000 400744 221259Z AUTO 00000KT 9999 FEW001 14/14 A3014 RMK CDP03528 FEW001 CLD AVG 001;","","","","","","","","","",""
"00826899999","2012-03-22T17:44:00","32.95","65.5666666","1156.72","WXPOD8278, AF","FM-16","4","30.14","57","57","","","","","100","FEW:02 0","","","2.98","","300","","2","","","","","","","","","","","","","","","","","","","","","","","","","","","","","","","","","","","","","","","","","","","","","","","","","","","","","","","","","","","","","","","","","","","","","","","","","","","","","","","","","","","","","","","","","","","MET111MOBOB0 METAR 8268 //000 400744 221314Z AUTO 30002KT 4800 HZ FEW000 14/14 A3014 RMK CDP03528 FEW000 CLD AVG 001;","","","","","","","","","",""
"00826899999","2012-03-22T17:59:00","32.95","65.5666666","1156.72","WXPOD8278, AF","FM-16","4","30.14","59","59","","","","","100","OVC:08 1","","","7.00","","360","","1","","","","","","","","","","","","","","","","","","","","","","","","","","","","","","","","","","","","","","","","","","","","","","","","","","","","","","","","","","","","","","","","","","","","","","","","","","","","","","","","","","","","","","","","","","","MET108MOBOB0 METAR 8268 //000 400744 221329Z AUTO 36001KT 9999 OVC001 15/15 A3014 RMK CDP03528 OVC001 CLD AVG 001;","","","","","","","","","",""
"00826899999","2012-03-22T18:14:00","32.95","65.5666666","1156.72","WXPOD8278, AF","FM-16","4","30.14","59","59","","","","","100","OVC:08 1","","","7.00","","300","","2","","","","","","","","","","","","","","","","","","","","","","","","","","","","","","","","","","","","","","","","","","","","","","","","","","","","","","","","","","","","","","","","","","","","","","","","","","","","","","","","","","","","","","","","","","","MET108MOBOB0 METAR 8268 //000 400744 221344Z AUTO 30002KT 9999 OVC001 15/15 A3014 RMK CDP03528 OVC001 CLD AVG 001;","","","","","","","","","",""
"00826899999","2012-03-22T18:30:00","32.95","65.5666666","1156.72","WXPOD8278, AF","FM-15","4","30.14","59","59","","","","","100","OVC:08 1","","","7.00","","320","","2","","","","","","","","","","","","","","","","","","","","","","","","","","","","","","","","","","","","","","","","","","","","","","","","","","","","","","","","","","","","","","","","","","","","","","","","","","","","","","","","","","","","","","","","","","","MET108MOBOB0 METAR 8268 //000 400744 221359Z AUTO 32002KT 9999 OVC001 15/15 A3014 RMK CDP03528 OVC001 CLD AVG 002;","","","","","","","","","",""
"00826899999","2012-03-22T18:44:00","32.95","65.5666666","1156.72","WXPOD8278, AF","FM-16","4","30.14","61","61","","","","","100","OVC:08 2","","","7.00","","260","","2","","","","","","","","","","","","","","","","","","","","","","","","","","","","","","","","","","","","","","","","","","","","","","","","","","","","","","","","","","","","","","","","","","","","","","","","","","","","","","","","","","","","","","","","","","","MET108MOBOB0 METAR 8268 //000 400744 221414Z AUTO 26002KT 9999 OVC002 16/16 A3014 RMK CDP03528 OVC002 CLD AVG 002;","","","","","","","","","",""
"00826899999","2012-03-22T18:59:00","32.95","65.5666666","1156.72","WXPOD8278, AF","FM-16","4","30.13","63","63","","","","","100","OVC:08 2","","","7.00","","360","","3","","","","","","","","","","","","","","","","","","","","","","","","","","","","","","","","","","","","","","","","","","","","","","","","","","","","","","","","","","","","","","","","","","","","","","","","","","","","","","","","","","","","","","","","","","","MET108MOBOB0 METAR 8268 //000 400744 221429Z AUTO 36003KT 9999 OVC002 17/17 A3013 RMK CDP03528 OVC002 CLD AVG 004;","","","","","","","","","",""
"00826899999","2012-03-22T19:14:00","32.95","65.5666666","1156.72","WXPOD8278, AF","FM-16","4","30.12","63","66","","","","","88","OVC:08 4","","","7.00","","050","","1","","","","","","","","","","","","","","","","","","","","","","","","","","","","","","","","","","","","","","","","","","","","","","","","","","","","","","","","","","","","","","","","","","","","","","","","","","","","","","","","","","","","","","","","","","","MET108MOBOB0 METAR 8268 //000 400744 221444Z AUTO 05001KT 9999 OVC004 19/17 A3012 RMK CDP03528 OVC004 CLD AVG 004;","","","","","","","","","",""
"00826899999","2012-03-22T19:30:00","32.95","65.5666666","1156.72","WXPOD8278, AF","FM-15","4","30.12","64","70","","","","","83","","","","7.00","","240","","1","","","","","","","","","","","","","","","","","","","","","","","","","","","","","","","","","","","","","","","","","","","","","","","","","","","","","","","","","","","","","","","","","","","","","","","","","","","","","","","","","","","","","","","","","","","MET090MOBOB0 METAR 8268 //000 400744 221459Z AUTO 24001KT 9999 CLR 21/18 A3012 RMK CDP03528 CLR;","","","","","","","","","",""
"00826899999","2012-03-22T19:44:00","32.95","65.5666666","1156.72","WXPOD8278, AF","FM-16","4","30.11","66","73","","","","","78","","","","7.00","","250","","1","","","","","","","","","","","","","","","","","","","","","","","","","","","","","","","","","","","","","","","","","","","","","","","","","","","","","","","","","","","","","","","","","","","","","","","","","","","","","","","","","","","","","","","","","","","MET090MOBOB0 METAR 8268 //000 400744 221514Z AUTO 25001KT 9999 CLR 23/19 A3011 RMK CDP03528 CLR;","","","","","","","","","",""
"00826899999","2012-03-22T19:59:00","32.95","65.5666666","1156.72","WXPOD8278, AF","FM-16","4","30.11","63","72","","","","","73","","","","7.00","","310","","1","","","","","","","","","","","","","","","","","","","","","","","","","","","","","","","","","","","","","","","","","","","","","","","","","","","","","","","","","","","","","","","","","","","","","","","","","","","","","","","","","","","","","","","","","","","MET090MOBOB0 METAR 8268 //000 400744 221529Z AUTO 31001KT 9999 CLR 22/17 A3011 RMK CDP03528 CLR;","","","","","","","","","",""
"00826899999","2012-03-22T20:14:00","32.95","65.5666666","1156.72","WXPOD8278, AF","FM-16","4","30.09","63","75","","","","","65","","","","7.00","","000","","0","","","","","","","","","","","","","","","","","","","","","","","","","","","","","","","","","","","","","","","","","","","","","","","","","","","","","","","","","","","","","","","","","","","","","","","","","","","","","","","","","","","","","","","","","","","MET090MOBOB0 METAR 8268 //000 400744 221544Z AUTO 00000KT 9999 CLR 24/17 A3009 RMK CDP03528 CLR;","","","","","","","","","",""
"00826899999","2012-03-22T20:30:00","32.95","65.5666666","1156.72","WXPOD8278, AF","FM-15","4","30.09","64","75","","","","","69","FEW:02 21","","","7.00","","220","","2","","","","","","","","","","","","","","","","","","","","","","","","","","","","","","","","","","","","","","","","","","","","","","","","","","","","","","","","","","","","","","","","","","","","","","","","","","","","","","","","","","","","","","","","","","","MET108MOBOB0 METAR 8268 //000 400744 221559Z AUTO 22002KT 9999 FEW021 24/18 A3009 RMK CDP03528 FEW021 CLD AVG 021;","","","","","","","","","",""
"00826899999","2012-03-22T20:44:00","32.95","65.5666666","1156.72","WXPOD8278, AF","FM-16","4","30.08","63","75","","","","","65","","","","7.00","","340","","2","","","","","","","","","","","","","","","","","","","","","","","","","","","","","","","","","","","","","","","","","","","","","","","","","","","","","","","","","","","","","","","","","","","","","","","","","","","","","","","","","","","","","","","","","","","MET090MOBOB0 METAR 8268 //000 400744 221614Z AUTO 34002KT 9999 CLR 24/17 A3008 RMK CDP03528 CLR;","","","","","","","","","",""
"00826899999","2012-03-22T20:59:00","32.95","65.5666666","1156.72","WXPOD8278, AF","FM-16","4","30.07","63","77","","","","","61","BKN:07 26","","","7.00","","000","","0","","","","","","","","","","","","","","","","","","","","","","","","","","","","","","","","","","","","","","","","","","","","","","","","","","","","","","","","","","","","","","","","","","","","","","","","","","","","","","","","","","","","","","","","","","","MET108MOBOB0 METAR 8268 //000 400744 221629Z AUTO 00000KT 9999 BKN026 25/17 A3007 RMK CDP03528 BKN026 CLD AVG 027;","","","","","","","","","",""
"00826899999","2012-03-22T21:14:00","32.95","65.5666666","1156.72","WXPOD8278, AF","FM-16","4","30.06","64","77","","","","","65","FEW:02 29","","","7.00","","280","","6","","","","","","","","","","","","","","","","","","","","","","","","","","","","","","","","","","","","","","","","","","","","","","","","","","","","","","","","","","","","","","","","","","","","","","","","","","","","","","","","","","","","","","","","","","","MET108MOBOB0 METAR 8268 //000 400744 221644Z AUTO 28005KT 9999 FEW029 25/18 A3006 RMK CDP03528 FEW029 CLD AVG 030;","","","","","","","","","",""
"00826899999","2012-03-22T21:30:00","32.95","65.5666666","1156.72","WXPOD8278, AF","FM-15","4","30.06","63","77","","","","","61","SCT:04 32","","","7.00","","290","","2","","","","","","","","","","","","","","","","","","","","","","","","","","","","","","","","","","","","","","","","","","","","","","","","","","","","","","","","","","","","","","","","","","","","","","","","","","","","","","","","","","","","","","","","","","","MET108MOBOB0 METAR 8268 //000 400744 221659Z AUTO 29002KT 9999 SCT033 25/17 A3006 RMK CDP03528 SCT033 CLD AVG 033;","","","","","","","","","",""
"00826899999","2012-03-22T21:44:00","32.95","65.5666666","1156.72","WXPOD8278, AF","FM-16","4","30.05","63","79","","","","","58","","","","7.00","","210","","2","","","","","","","","","","","","","","","","","","","","","","","","","","","","","","","","","","","","","","","","","","","","","","","","","","","","","","","","","","","","","","","","","","","","","","","","","","","","","","","","","","","","","","","","","","","MET090MOBOB0 METAR 8268 //000 400744 221714Z AUTO 21002KT 9999 CLR 26/17 A3005 RMK CDP03528 CLR;","","","","","","","","","",""
"00826899999","2012-03-22T21:59:00","32.95","65.5666666","1156.72","WXPOD8278, AF","FM-16","4","30.05","64","81","","","","","58","FEW:02 36","","","7.00","","230","","6","","","","","","","","","","","","","","","","","","","","","","","","","","","","","","","","","","","","","","","","","","","","","","","","","","","","","","","","","","","","","","","","","","","","","","","","","","","","","","","","","","","","","","","","","","","MET108MOBOB0 METAR 8268 //000 400744 221729Z AUTO 23005KT 9999 FEW037 27/18 A3005 RMK CDP03528 FEW037 CLD AVG 037;","","","","","","","","","",""
"00826899999","2012-03-22T22:14:00","32.95","65.5666666","1156.72","WXPOD8278, AF","FM-16","4","30.04","63","81","","","","","54","FEW:02 36","","","7.00","","280","","5","","","","","","","","","","","","","","","","","","","","","","","","","","","","","","","","","","","","","","","","","","","","","","","","","","","","","","","","","","","","","","","","","","","","","","","","","","","","","","","","","","","","","","","","","","","MET108MOBOB0 METAR 8268 //000 400744 221744Z AUTO 28004KT 9999 FEW037 27/17 A3004 RMK CDP03528 FEW037 CLD AVG 037;","","","","","","","","","",""
"00826899999","2012-03-22T22:30:00","32.95","65.5666666","1156.72","WXPOD8278, AF","FM-15","4","30.03","61","79","","","","","54","FEW:02 48","","","7.00","","230","","3","","","","","","","","","","","","","","","","","","","","","","","","","","","","","","","","","","","","","","","","","","","","","","","","","","","","","","","","","","","","","","","","","","","","","","","","","","","","","","","","","","","","","","","","","","","MET108MOBOB0 METAR 8268 //000 400744 221800Z AUTO 23003KT 9999 FEW049 26/16 A3003 RMK CDP03528 FEW049 CLD AVG 049;","","","","","","","","","",""
"00826899999","2012-03-22T22:44:00","32.95","65.5666666","1156.72","WXPOD8278, AF","FM-16","4","30.02","61","79","","","","","54","SCT:04 0","","","7.00","","250","","3","","","","","","","","","","","","","","","","","","","","","","","","","","","","","","","","","","","","","","","","","","","","","","","","","","","","","","","","","","","","","","","","","","","","","","","","","","","","","","","","","","","","","","","","","","","MET108MOBOB0 METAR 8268 //000 400744 221814Z AUTO 25003KT 9999 SCT000 26/16 A3002 RMK CDP03528 SCT000 CLD AVG 041;","","","","","","","","","",""
"00826899999","2012-03-22T22:59:00","32.95","65.5666666","1156.72","WXPOD8278, AF","FM-16","4","30.02","61","81","","","","","51","SCT:04 40","","","7.00","","240","","5","","","","","","","","","","","","","","","","","","","","","","","","","","","","","","","","","","","","","","","","","","","","","","","","","","","","","","","","","","","","","","","","","","","","","","","","","","","","","","","","","","","","","","","","","","","MET108MOBOB0 METAR 8268 //000 400744 221829Z AUTO 24004KT 9999 SCT041 27/16 A3002 RMK CDP03528 SCT041 CLD AVG 044;","","","","","","","","","",""
"00826899999","2012-03-22T23:14:00","32.95","65.5666666","1156.72","WXPOD8278, AF","FM-16","4","30.01","61","81","","","","","51","","","","7.00","","280","","6","","","","","","","","","","","","","","","","","","","","","","","","","","","","","","","","","","","","","","","","","","","","","","","","","","","","","","","","","","","","","","","","","","","","","","","","","","","","","","","","","","","","","","","","","","","MET090MOBOB0 METAR 8268 //000 400744 221844Z AUTO 28005KT 9999 CLR 27/16 A3001 RMK CDP03528 CLR;","","","","","","","","","",""
"00826899999","2012-03-22T23:30:00","32.95","65.5666666","1156.72","WXPOD8278, AF","FM-15","4","30.00","59","81","","","","","48","SCT:04 27","","","7.00","","270","","5","","","","","","","","","","","","","","","","","","","","","","","","","","","","","","","","","","","","","","","","","","","","","","","","","","","","","","","","","","","","","","","","","","","","","","","","","","","","","","","","","","","","","","","","","","","MET108MOBOB0 METAR 8268 //000 400744 221859Z AUTO 27004KT 9999 SCT027 27/15 A3000 RMK CDP03528 SCT027 CLD AVG 042;","","","","","","","","","",""
"00826899999","2012-03-22T23:44:00","32.95","65.5666666","1156.72","WXPOD8278, AF","FM-16","4","30.00","61","81","","","","","51","FEW:02 45","","","7.00","","190","","1","","","","","","","","","","","","","","","","","","","","","","","","","","","","","","","","","","","","","","","","","","","","","","","","","","","","","","","","","","","","","","","","","","","","","","","","","","","","","","","","","","","","","","","","","","","MET108MOBOB0 METAR 8268 //000 400744 221914Z AUTO 19001KT 9999 FEW046 27/16 A3000 RMK CDP03528 FEW046 CLD AVG 046;","","","","","","","","","",""
"00826899999","2012-03-22T23:59:00","32.95","65.5666666","1156.72","WXPOD8278, AF","FM-16","4","29.99","63","81","","","","","54","FEW:02 49","","","7.00","","240","","5","","","","","","","","","","","","","","","","","","","","","","","","","","","","","","","","","","","","","","","","","","","","","","","","","","","","","","","","","","","","","","","","","","","","","","","","","","","","","","","","","","","","","","","","","","","MET108MOBOB0 METAR 8268 //000 400744 221929Z AUTO 24004KT 9999 FEW050 27/17 A2999 RMK CDP03528 FEW050 CLD AVG 056;","","","","","","","","","",""
"00826899999","2012-03-23T00:14:00","32.95","65.5666666","1156.72","WXPOD8278, AF","FM-16","4","29.99","61","79","","","","","54","BKN:07 42","","","7.00","","230","","5","","","","","","","","","","","","","","","","","","","","","","","","","","","","","","","","","","","","","","","","","","","","","","","","","","","","","","","","","","","","","","","","","","","","","","","","","","","","","","","","","","","","","","","","","","","MET108MOBOB0 METAR 8268 //000 400744 221944Z AUTO 23004KT 9999 BKN043 26/16 A2999 RMK CDP03528 BKN043 CLD AVG 048;","","","","","","","","","",""
"00826899999","2012-03-23T00:30:00","32.95","65.5666666","1156.72","WXPOD8278, AF","FM-15","4","29.99","61","79","","","","","54","BKN:07 42","","","7.00","","290","","3","","","","","","","","","","","","","","","","","","","","","","","","","","","","","","","","","","","","","","","","","","","","","","","","","","","","","","","","","","","","","","","","","","","","","","","","","","","","","","","","","","","","","","","","","","","MET108MOBOB0 METAR 8268 //000 400744 221959Z AUTO 29003KT 9999 BKN043 26/16 A2999 RMK CDP03528 BKN043 CLD AVG 045;","","","","","","","","","",""
"00826899999","2012-03-23T00:44:00","32.95","65.5666666","1156.72","WXPOD8278, AF","FM-16","4","29.98","61","77","","","","","57","SCT:04 42","","","7.00","","260","","6","","","","","","","","","","","","","","","","","","","","","","","","","","","","","","","","","","","","","","","","","","","","","","","","","","","","","","","","","","","","","","","","","","","","","","","","","","","","","","","","","","","","","","","","","","","MET108MOBOB0 METAR 8268 //000 400744 222014Z AUTO 26005KT 9999 SCT043 25/16 A2998 RMK CDP03528 SCT043 CLD AVG 048;","","","","","","","","","",""
"00826899999","2012-03-23T00:59:00","32.95","65.5666666","1156.72","WXPOD8278, AF","FM-16","4","29.98","63","79","","","","","58","","","","7.00","","270","","5","","","","","","","","","","","","","","","","","","","","","","","","","","","","","","","","","","","","","","","","","","","","","","","","","","","","","","","","","","","","","","","","","","","","","","","","","","","","","","","","","","","","","","","","","","","MET090MOBOB0 METAR 8268 //000 400744 222029Z AUTO 27004KT 9999 CLR 26/17 A2998 RMK CDP03528 CLR;","","","","","","","","","",""
"00826899999","2012-03-23T01:14:00","32.95","65.5666666","1156.72","WXPOD8278, AF","FM-16","4","29.97","63","79","","","","","58","FEW:02 42","","","7.00","","320","","6","","","","","","","","","","","","","","","","","","","","","","","","","","","","","","","","","","","","","","","","","","","","","","","","","","","","","","","","","","","","","","","","","","","","","","","","","","","","","","","","","","","","","","","","","","","MET108MOBOB0 METAR 8268 //000 400744 222044Z AUTO 32005KT 9999 FEW043 26/17 A2997 RMK CDP03528 FEW043 CLD AVG 043;","","","","","","","","","",""
"00826899999","2012-03-23T01:30:00","32.95","65.5666666","1156.72","WXPOD8278, AF","FM-15","4","29.97","63","79","","","","","58","","","","7.00","","300","","6","","","","","","","","","","","","","","","","","","","","","","","","","","","","","","","","","","","","","","","","","","","","","","","","","","","","","","","","","","","","","","","","","","","","","","","","","","","","","","","","","","","","","","","","","","","MET090MOBOB0 METAR 8268 //000 400744 222059Z AUTO 30005KT 9999 CLR 26/17 A2997 RMK CDP03528 CLR;","","","","","","","","","",""
"00826899999","2012-03-23T01:44:00","32.95","65.5666666","1156.72","WXPOD8278, AF","FM-16","4","29.97","63","77","","","","","61","SCT:04 40","","","7.00","","270","","3","","","","","","","","","","","","","","","","","","","","","","","","","","","","","","","","","","","","","","","","","","","","","","","","","","","","","","","","","","","","","","","","","","","","","","","","","","","","","","","","","","","","","","","","","","","MET108MOBOB0 METAR 8268 //000 400744 222114Z AUTO 27003KT 9999 SCT041 25/17 A2997 RMK CDP03528 SCT041 CLD AVG 043;","","","","","","","","","",""
"00826899999","2012-03-23T01:59:00","32.95","65.5666666","1156.72","WXPOD8278, AF","FM-16","4","29.97","63","77","","","","","61","","","","7.00","","280","","5","","","","","","","","","","","","","","","","","","","","","","","","","","","","","","","","","","","","","","","","","","","","","","","","","","","","","","","","","","","","","","","","","","","","","","","","","","","","","","","","","","","","","","","","","","","MET090MOBOB0 METAR 8268 //000 400744 222129Z AUTO 28004KT 9999 CLR 25/17 A2997 RMK CDP03528 CLR;","","","","","","","","","",""
"00826899999","2012-03-23T02:14:00","32.95","65.5666666","1156.72","WXPOD8278, AF","FM-16","4","29.97","63","79","","","","","58","SCT:04 67","","","7.00","","240","","3","","","","","","","","","","","","","","","","","","","","","","","","","","","","","","","","","","","","","","","","","","","","","","","","","","","","","","","","","","","","","","","","","","","","","","","","","","","","","","","","","","","","","","","","","","","MET108MOBOB0 METAR 8268 //000 400744 222144Z AUTO 24003KT 9999 SCT068 26/17 A2997 RMK CDP03528 SCT068 CLD AVG 071;","","","","","","","","","",""
"00826899999","2012-03-23T02:30:00","32.95","65.5666666","1156.72","WXPOD8278, AF","FM-15","4","29.97","63","77","","","","","61","","","","7.00","","300","","7","","","","","","","","","","","","","","","","","","","","","","","","","","","","","","","","","","","","","","","","","","","","","","","","","","","","","","","","","","","","","","","","","","","","","","","","","","","","","","","","","","","","","","","","","","","MET090MOBOB0 METAR 8268 //000 400744 222159Z AUTO 30006KT 9999 CLR 25/17 A2997 RMK CDP03528 CLR;","","","","","","","","","",""
"00826899999","2012-03-23T02:44:00","32.95","65.5666666","1156.72","WXPOD8278, AF","FM-16","4","29.97","63","77","","","","","61","","","","7.00","","290","","3","","","","","","","","","","","","","","","","","","","","","","","","","","","","","","","","","","","","","","","","","","","","","","","","","","","","","","","","","","","","","","","","","","","","","","","","","","","","","","","","","","","","","","","","","","","MET090MOBOB0 METAR 8268 //000 400744 222214Z AUTO 29003KT 9999 CLR 25/17 A2997 RMK CDP03528 CLR;","","","","","","","","","",""
"00826899999","2012-03-23T02:59:00","32.95","65.5666666","1156.72","WXPOD8278, AF","FM-16","4","29.97","63","75","","","","","65","","","","7.00","","290","","3","","","","","","","","","","","","","","","","","","","","","","","","","","","","","","","","","","","","","","","","","","","","","","","","","","","","","","","","","","","","","","","","","","","","","","","","","","","","","","","","","","","","","","","","","","","MET090MOBOB0 METAR 8268 //000 400744 222229Z AUTO 29003KT 9999 CLR 24/17 A2997 RMK CDP03528 CLR;","","","","","","","","","",""
"00826899999","2012-03-23T03:14:00","32.95","65.5666666","1156.72","WXPOD8278, AF","FM-16","4","29.98","63","73","","","","","69","BKN:07 56","","","7.00","","270","","3","","","","","","","","","","","","","","","","","","","","","","","","","","","","","","","","","","","","","","","","","","","","","","","","","","","","","","","","","","","","","","","","","","","","","","","","","","","","","","","","","","","","","","","","","","","MET108MOBOB0 METAR 8268 //000 400744 222244Z AUTO 27003KT 9999 BKN057 23/17 A2998 RMK CDP03528 BKN057 CLD AVG 057;","","","","","","","","","",""
"00826899999","2012-03-23T03:30:00","32.95","65.5666666","1156.72","WXPOD8278, AF","FM-15","4","29.98","63","73","","","","","69","","","","7.00","","280","","3","","","","","","","","","","","","","","","","","","","","","","","","","","","","","","","","","","","","","","","","","","","","","","","","","","","","","","","","","","","","","","","","","","","","","","","","","","","","","","","","","","","","","","","","","","","MET090MOBOB0 METAR 8268 //000 400744 222259Z AUTO 28003KT 9999 CLR 23/17 A2998 RMK CDP03528 CLR;","","","","","","","","","",""
"00826899999","2012-03-23T03:59:00","32.95","65.5666666","1156.72","WXPOD8278, AF","FM-16","4","29.99","63","70","","","","","78","","","","7.00","","280","","2","","","","","","","","","","","","","","","","","","","","","","","","","","","","","","","","","","","","","","","","","","","","","","","","","","","","","","","","","","","","","","","","","","","","","","","","","","","","","","","","","","","","","","","","","","","MET090MOBOB0 METAR 8268 //000 400744 222329Z AUTO 28002KT 9999 CLR 21/17 A2999 RMK CDP03528 CLR;","","","","","","","","","",""
"00826899999","2012-03-23T04:14:00","32.95","65.5666666","1156.72","WXPOD8278, AF","FM-16","4","29.99","63","70","","","","","78","","","","7.00","","250","","3","","","","","","","","","","","","","","","","","","","","","","","","","","","","","","","","","","","","","","","","","","","","","","","","","","","","","","","","","","","","","","","","","","","","","","","","","","","","","","","","","","","","","","","","","","","MET090MOBOB0 METAR 8268 //000 400744 222344Z AUTO 25003KT 9999 CLR 21/17 A2999 RMK CDP03528 CLR;","","","","","","","","","",""
"00826899999","2012-03-23T04:30:00","32.95","65.5666666","1156.72","WXPOD8278, AF","FM-15","4","30.00","63","68","","","","","83","","","","7.00","","260","","3","","","","","","","","","","","","","","","","","","","","","","","","","","","","","","","","","","","","","","","","","","","","","","","","","","","","","","","","","","","","","","","","","","","","","","","","","","","","","","","","","","","","","","","","","","","MET090MOBOB0 METAR 8268 //000 400744 222359Z AUTO 26003KT 9999 CLR 20/17 A3000 RMK CDP03528 CLR;","","","","","","","","","",""
"00826899999","2012-03-23T04:44:00","32.95","65.5666666","1156.72","WXPOD8278, AF","FM-16","4","29.99","63","68","","","","","83","","","","7.00","","250","","2","","","","","","","","","","","","","","","","","","","","","","","","","","","","","","","","","","","","","","","","","","","","","","","","","","","","","","","","","","","","","","","","","","","","","","","","","","","","","","","","","","","","","","","","","","","MET090MOBOB0 METAR 8268 //000 400744 230014Z AUTO 25002KT 9999 CLR 20/17 A2999 RMK CDP03528 CLR;","","","","","","","","","",""
"00826899999","2012-03-23T04:59:00","32.95","65.5666666","1156.72","WXPOD8278, AF","FM-16","4","30.00","63","68","","","","","83","","","","7.00","","240","","2","","","","","","","","","","","","","","","","","","","","","","","","","","","","","","","","","","","","","","","","","","","","","","","","","","","","","","","","","","","","","","","","","","","","","","","","","","","","","","","","","","","","","","","","","","","MET090MOBOB0 METAR 8268 //000 400744 230029Z AUTO 24002KT 9999 CLR 20/17 A3000 RMK CDP03528 CLR;","","","","","","","","","",""
"00826899999","2012-03-23T05:14:00","32.95","65.5666666","1156.72","WXPOD8278, AF","FM-16","4","30.00","63","66","","","","","88","","","","7.00","","260","","2","","","","","","","","","","","","","","","","","","","","","","","","","","","","","","","","","","","","","","","","","","","","","","","","","","","","","","","","","","","","","","","","","","","","","","","","","","","","","","","","","","","","","","","","","","","MET090MOBOB0 METAR 8268 //000 400744 230044Z AUTO 26002KT 9999 CLR 19/17 A3000 RMK CDP03528 CLR;","","","","","","","","","",""
